[
{"id":"1397","name":"Werner, Marion","plz":"10317","strasse":"Lückstr. 22a","telefon":"+49 30 2918433","fachrichtung":"Hebammen","lat":"52.500701","lng":"13.491743"},
{"id":"1399","name":"Hebammenpraxis Mamatoto","plz":"10318","strasse":"Rheinsteinstr. 2","telefon":"+49 30 50179180","fachrichtung":"Hebammen","lat":"52.482635","lng":"13.526564"},
{"id":"1401","name":"Hebammenpraxis Lichtblick","plz":"10318","strasse":"Stolzenfelsstr. 17","telefon":"+49 30 2913444","fachrichtung":"Hebammen","lat":"52.478994","lng":"13.531896"},
{"id":"1403","name":"Schwital, Barbara","plz":"10318","strasse":"Wildensteiner Str. 14","telefon":"+49 1604910492","fachrichtung":"Hebammen","lat":"52.479669","lng":"13.522589"},
{"id":"1405","name":"Germer, Anna","plz":"10318","strasse":"Wildensteiner Str. 29","telefon":"+49 30 89654004","fachrichtung":"Hebammen","lat":"52.478029","lng":"13.521161"},
{"id":"1407","name":"Lußky, Anne","plz":"10318","strasse":"Hentigstr. 18a","telefon":"+49 1728449191","fachrichtung":"Hebammen","lat":"52.488809","lng":"13.524419"},
{"id":"1409","name":"Mboundza, Katrin","plz":"10247","strasse":"Frankfurter Allee 91","telefon":"+49 30 4292250","fachrichtung":"Hebammen"},
{"id":"1411","name":"Otto, Nadine","plz":"10249","strasse":"Ebertystr. 35","telefon":"+49 1712402688","fachrichtung":"Hebammen"},
{"id":"1413","name":"Palmetshofer, Theresa","plz":"10369","strasse":"Karl-Lade-Str. 34a","telefon":"+49 17623499096","fachrichtung":"Hebammen","lat":"52.528406","lng":"13.464591"},
{"id":"1415","name":"Blank, Janine","plz":"12555","strasse":"Gehsener Str. 70","telefon":"+49 1747756267","fachrichtung":"Hebammen"},
{"id":"1417","name":"Kublick, Marion","plz":"12587","strasse":"Aßmannstr. 64","telefon":"+49 1723954848","fachrichtung":"Hebammen"},
{"id":"1419","name":"Letzig, Christine","plz":"12683","strasse":"Diestelfalterstr. 54","telefon":"+49 30 55492229","fachrichtung":"Hebammen"},
{"id":"1421","name":"Meinhof-Berger, Christine","plz":"13053","strasse":"Degnerstr. 130","telefon":"+49 30 98114131","fachrichtung":"Hebammen","lat":"52.553669","lng":"13.501578"},
{"id":"1423","name":"Modest-Weiermüller, Jutta","plz":"13055","strasse":"Plauener Str. 32","telefon":"+49 30 9823468","fachrichtung":"Hebammen","lat":"52.538285","lng":"13.504737"},
{"id":"1425","name":"Tischler, Katja","plz":"13086","strasse":"Thiesstr. 34","telefon":"+49 30 44703430","fachrichtung":"Hebammen"}
]