[
{"id":"1289","name":"DPs. Scheidig, Mareike","plz":"10315","strasse":"Hohenschönhauser Weg 7","telefon":"+49 30 54379806","fachrichtung":"Psychologische Psychotherapeuten","lat":"52.511931","lng":"13.522395"},
{"id":"1291","name":"DPs. Hahn, Jürgen","plz":"10315","strasse":"Rummelsburger Str. 13","telefon":"+49 30 51069796","fachrichtung":"Psychologische Psychotherapeuten","lat":"52.504143","lng":"13.512342"},
{"id":"1293","name":"DPs. Schildknecht, Doris","plz":"10315","strasse":"Zachertstr. 10","telefon":"+49 30 51657663","fachrichtung":"Psychologische Psychotherapeuten","lat":"52.506660","lng":"13.502749"},
{"id":"1295","name":"DPs. Heyder-Katiris, Claudia","plz":"10315","strasse":"Archibaldweg 4","telefon":"+49 30 6947426","fachrichtung":"Psychologische Psychotherapeuten","lat":"52.502562","lng":"13.481997"},
{"id":"1297","name":"DPs. Klopfer, Uta-Eleonore","plz":"10315","strasse":"Nöldnerstr. 10","telefon":"+49 30 51066544","fachrichtung":"Psychologische Psychotherapeuten","lat":"52.501897","lng":"13.478000"},
{"id":"1299","name":"DPs. Schmitt, Georg","plz":"10315","strasse":"Pfarrstr. 123","telefon":"+49 30 55153363","fachrichtung":"Psychologische Psychotherapeuten","lat":"52.504321","lng":"13.476546"},
{"id":"1301","name":"DPs. Wilhelm, Catrin","plz":"10315","strasse":"Wönnichstr. 64/66","telefon":"+49 30 51657606","fachrichtung":"Psychologische Psychotherapeuten","lat":"52.504885","lng":"13.496584"},
{"id":"1303","name":"DPs. Niesing, Anja","plz":"10315","strasse":"Kernhofer Str. 15","telefon":"+49 30 60930880","fachrichtung":"Psychologische Psychotherapeuten","lat":"52.503553","lng":"13.477322"},
{"id":"1305","name":"DPs. Klaus-Asmus, Christina","plz":"10318","strasse":"Dönhoffstr. 5","telefon":"+49 30 5086164","fachrichtung":"Psychologische Psychotherapeuten","lat":"52.483193","lng":"13.523359"},
{"id":"1307","name":"Dr. Küchler-Preuß, Erika","plz":"10318","strasse":"Ehrenfelsstr. 46","telefon":"+49 30 50176487","fachrichtung":"Psychologische Psychotherapeuten","lat":"52.482418","lng":"13.526496"},
{"id":"1309","name":"DPs. Kraak, Ines","plz":"10318","strasse":"Gregoroviusweg 37","telefon":"+49 30 42018164","fachrichtung":"Psychologische Psychotherapeuten","lat":"52.494546","lng":"13.529380"},
{"id":"1311","name":"DPs. Holznagel, Gisela","plz":"10318","strasse":"Marksburgstr. 96","telefon":"+49 30 5030719","fachrichtung":"Psychologische Psychotherapeuten","lat":"52.487069","lng":"13.532118"},
{"id":"1313","name":"DPs. Fink, Annette","plz":"10318","strasse":"Rheinsteinstr. 2","telefon":"+49 30 50179603","fachrichtung":"Psychologische Psychotherapeuten","lat":"52.482635","lng":"13.526564"},
{"id":"1315","name":"DPs. Tritschler, Claudia","plz":"10318","strasse":"Rheinsteinstr. 2","telefon":"+49 30 50179647","fachrichtung":"Psychologische Psychotherapeuten","lat":"52.482635","lng":"13.526564"},
{"id":"1317","name":"DPs. Gurris, Norbert F.","plz":"10318","strasse":"Robert-Siewert-Str. 133","telefon":"+49 30 5084900","fachrichtung":"Psychologische Psychotherapeuten","lat":"52.493373","lng":"13.541308"},
{"id":"1319","name":"Dr. Preuß, Matthias","plz":"10318","strasse":"Treskowallee 125","telefon":"+49 30 50159707","fachrichtung":"Psychologische Psychotherapeuten","lat":"52.478706","lng":"13.525035"},
{"id":"1321","name":"Dr. Künstler, Brigitte","plz":"10318","strasse":"Wandlitzstr. 23-25","telefon":"+49 30 5030273","fachrichtung":"Psychologische Psychotherapeuten","lat":"52.482204","lng":"13.520182"},
{"id":"1323","name":"DPs. Kaiser, Andrea Ulrike","plz":"10365","strasse":"Fanninger Str. 58","telefon":"+49 30 52679949","fachrichtung":"Psychologische Psychotherapeuten","lat":"52.513629","lng":"13.500271"},
{"id":"1325","name":"DPs Lange, Christine","plz":"10365","strasse":"Fanningerstr. 61","telefon":"+49 30 55491440","fachrichtung":"Psychologische Psychotherapeuten","lat":"52.513843","lng":"13.500718"},
{"id":"1327","name":"DPs. Wieker, Jens Friedrich","plz":"10365","strasse":"Frankfurter Allee 191","telefon":"+49 30 57799181","fachrichtung":"Psychologische Psychotherapeuten","lat":"52.512524","lng":"13.488597"},
{"id":"1329","name":"DPs. Leiner, Anna Elisabeth","plz":"10365","strasse":"Frankfurter Allee 246","telefon":"+49 30 99270977","fachrichtung":"Psychologische Psychotherapeuten","lat":"52.511732","lng":"13.497432"},
{"id":"1331","name":"DPs. Zillich, Susanne","plz":"10365","strasse":"Frankfurter Allee 246","telefon":"+49 30 55499292","fachrichtung":"Psychologische Psychotherapeuten","lat":"52.511732","lng":"13.497432"},
{"id":"1333","name":"DPs. Heinen, Gerd","plz":"10365","strasse":"Herzbergstr. 79","telefon":"+49 30 54723034","fachrichtung":"Psychologische Psychotherapeuten","lat":"52.526398","lng":"13.506062"},
{"id":"1335","name":"DPs. Oswald, Gregor","plz":"10365","strasse":"Herzbergstr. 82","telefon":"+49 30 55051238","fachrichtung":"Psychologische Psychotherapeuten","lat":"52.526430","lng":"13.503912"},
{"id":"1337","name":"DPs Wolf, Jacqueline","plz":"10365","strasse":"Herzbergstr. 82","telefon":"+49 30 55051238","fachrichtung":"Psychologische Psychotherapeuten","lat":"52.526430","lng":"13.503912"},
{"id":"1339","name":"Bergner, Annekathrin","plz":"10365","strasse":"Ruschestr. 103","telefon":"+49 30 5529238","fachrichtung":"Psychologische Psychotherapeuten","lat":"52.515343","lng":"13.485473"},
{"id":"1341","name":"DPs. Freyt, Karen","plz":"10365","strasse":"Ruschestr. 103","telefon":"+49 30 57799099","fachrichtung":"Psychologische Psychotherapeuten","lat":"52.515343","lng":"13.485473"},
{"id":"1343","name":"DPs. Schneider, Uwe","plz":"10365","strasse":"Ruschestr. 103","telefon":"+49 30 5529232","fachrichtung":"Psychologische Psychotherapeuten","lat":"52.515343","lng":"13.485473"},
{"id":"1345","name":"DPs. Spieler, Penelope","plz":"10365","strasse":"Ruschestr. 103","telefon":"+49 30 55005771","fachrichtung":"Psychologische Psychotherapeuten","lat":"52.515343","lng":"13.485473"},
{"id":"1347","name":"DPs. Schröter-Goerke, Angelika","plz":"10365","strasse":"Schulze-Boysen-Str. 30","telefon":"+49 30 2927535","fachrichtung":"Psychologische Psychotherapeuten","lat":"52.509315","lng":"13.480394"},
{"id":"1349","name":"DPs. Florian, Vera","plz":"10365","strasse":"Wotanstr. 32","telefon":"+49 30 55669192","fachrichtung":"Psychologische Psychotherapeuten","lat":"52.514452","lng":"13.496012"},
{"id":"1351","name":"DPs. Winkler, Stefanie","plz":"10365","strasse":"Wotanstr. 32","telefon":"+49 30 55669081","fachrichtung":"Psychologische Psychotherapeuten","lat":"52.514452","lng":"13.496012"},
{"id":"1353","name":"DPs. Nawothnig, Sylvia","plz":"10367","strasse":"Möllendorffstr. 3","telefon":"+49 30 44319390","fachrichtung":"Psychologische Psychotherapeuten","lat":"52.514211","lng":"13.478408"},
{"id":"1355","name":"DPs. Lorenz, Martin","plz":"10367","strasse":"Möllendorffstr. 10","telefon":"+49 30 2476193","fachrichtung":"Psychologische Psychotherapeuten","lat":"52.516960","lng":"13.480265"},
{"id":"1357","name":"DPs. Genau, Renate","plz":"10367","strasse":"Möllendorffstr. 113","telefon":"+49 30 57795554","fachrichtung":"Psychologische Psychotherapeuten","lat":"52.515888","lng":"13.478623"},
{"id":"1359","name":"DPs. Damert, Bettina","plz":"10369","strasse":"Franz-Jacob-Str. 10","telefon":"+49 30 97606516","fachrichtung":"Psychologische Psychotherapeuten","lat":"52.528035","lng":"13.467313"},
{"id":"1361","name":"DPs. Glende, Anne-Maria","plz":"10369","strasse":"Franz-Jacob-Str. 10","telefon":"+49 30 97606515","fachrichtung":"Psychologische Psychotherapeuten","lat":"52.528035","lng":"13.467313"},
{"id":"1363","name":"DPs. Paelecke, Andrea","plz":"10369","strasse":"Paul-Junius-Str. 70","telefon":"+49 30 9714865","fachrichtung":"Psychologische Psychotherapeuten","lat":"52.527269","lng":"13.478275"},
{"id":"1365","name":"DPs. Hörig, Nelja","plz":"13051","strasse":"Helminestr. 6","telefon":"+49 30 96203742","fachrichtung":"Psychologische Psychotherapeuten","lat":"52.583669","lng":"13.496903"},
{"id":"1367","name":"DPs. Ziegler, Silvio","plz":"13053","strasse":"Augustastr. 10","telefon":"+49 30 98317700","fachrichtung":"Psychologische Psychotherapeuten","lat":"52.550390","lng":"13.486379"},
{"id":"1369","name":"DPs. Boldt, Andrea","plz":"13053","strasse":"Christianstr. 27","telefon":"+49 30 9824388","fachrichtung":"Psychologische Psychotherapeuten","lat":"52.554906","lng":"13.518172"},
{"id":"1371","name":"DPs. Straube, Petra","plz":"13053","strasse":"Rackwitzer Str. 30A","telefon":"+49 30 96200444","fachrichtung":"Psychologische Psychotherapeuten","lat":"52.555724","lng":"13.499301"},
{"id":"1373","name":"DPs. Barthel, Martina","plz":"13053","strasse":"Oberseestr. 97","telefon":"+49 30 97897535","fachrichtung":"Psychologische Psychotherapeuten","lat":"52.547517","lng":"13.495112"},
{"id":"1375","name":"DPs. Schlöricke, Ute","plz":"13053","strasse":"Oberseestr. 97","telefon":"+49 30 97897561","fachrichtung":"Psychologische Psychotherapeuten","lat":"52.547517","lng":"13.495112"},
{"id":"1377","name":"Dr. Irmscher, Jutta","plz":"13053","strasse":"Orankestr. 19","telefon":"+49 30 97896666","fachrichtung":"Psychologische Psychotherapeuten","lat":"52.545123","lng":"13.488784"},
{"id":"1379","name":"DPs. Kämmer, Sabine","plz":"13053","strasse":"Orankestr. 31 ","telefon":"+49 30 9705018","fachrichtung":"Psychologische Psychotherapeuten","lat":"52.546048","lng":"13.485375"},
{"id":"1381","name":"DPs. Löll, Annette","plz":"13053","strasse":"Orankestr. 84","telefon":"+49 30 98697741","fachrichtung":"Psychologische Psychotherapeuten","lat":"52.545056","lng":"13.487716"},
{"id":"1383","name":"Dr. Rosenfeldt, Birgit","plz":"13053","strasse":"Rotkamp 2","telefon":"+49 30 92406660","fachrichtung":"Psychologische Psychotherapeuten","lat":"52.561338","lng":"13.509187"},
{"id":"1385","name":"Dr. Seidel, Ingrid","plz":"13055","strasse":"Reichenberger Str. 3","telefon":"+49 30 97994465","fachrichtung":"Psychologische Psychotherapeuten","lat":"52.540486","lng":"13.486846"},
{"id":"1387","name":"DPs. Engelke, Dietmar","plz":"13055","strasse":"Sandinostr. 15","telefon":"+49 30 98318484","fachrichtung":"Psychologische Psychotherapeuten","lat":"52.537112","lng":"13.484173"},
{"id":"1389","name":"DPs. Erdmann, Nadja","plz":"13055","strasse":"Wriezener Str. 18","telefon":"+49 30 97996933","fachrichtung":"Psychologische Psychotherapeuten","lat":"52.543022","lng":"13.491845"},
{"id":"1391","name":"DPs. Momper, Martin","plz":"13055","strasse":"Wriezener Str. 18","telefon":"+49 30 97995335","fachrichtung":"Psychologische Psychotherapeuten","lat":"52.543022","lng":"13.491845"},
{"id":"1393","name":"DPs. Leonhardt, Gisela","plz":"13057","strasse":"Falkenberger Chaussee 134-136","telefon":"+49 30 9293184","fachrichtung":"Psychologische Psychotherapeuten","lat":"52.567701","lng":"13.525326"},
{"id":"1395","name":"DPs. Rothenhäusler, Angela","plz":"13059","strasse":"Warnemünder Str. 46","telefon":"+49 30 96066873","fachrichtung":"Psychologische Psychotherapeuten","lat":"52.572871","lng":"13.507597"}
]