[
{"id":"771","name":"Köllner, Monika","plz":"10315","strasse":"Rummelsburger Str. 13","telefon":"+49 30 5138293","fachrichtung":"Orthopädie","lat":"52.504143","lng":"13.512342"},
{"id":"773","name":"Dr. Bräutigam, Ralf-Peter","plz":"10317","strasse":"Irenenstr. 20","telefon":"+49 30 5229340","fachrichtung":"Orthopädie","lat":"52.509316","lng":"13.500726"},
{"id":"775","name":"Gräser, Ralf","plz":"10317","strasse":"Irenenstr. 20","telefon":"+49 30 5229340","fachrichtung":"Orthopädie","lat":"52.509316","lng":"13.500726"},
{"id":"777","name":"Dr. Teichmüller, Hansjürgen","plz":"10317","strasse":"Irenenstr. 20","telefon":"+49 30 5229340","fachrichtung":"Orthopädie","lat":"52.509316","lng":"13.500726"},
{"id":"779","name":"Dr. Meister, Steffen","plz":"10318","strasse":"Weseler Str. 17","telefon":"+49 30 5088133","fachrichtung":"Orthopädie","lat":"52.483227","lng":"13.527336"},
{"id":"781","name":"Dr. Rieder, Thomas","plz":"10318","strasse":"Weseler Str. 17","telefon":"+49 30 5088133","fachrichtung":"Orthopädie","lat":"52.483227","lng":"13.527336"},
{"id":"783","name":"Dr. Hensel, Jenne","plz":"10365","strasse":"Frankfurter Allee 231A","telefon":"+49 30 55184245","fachrichtung":"Orthopädie","lat":"52.512704","lng":"13.495888"},
{"id":"785","name":"Dr. Günter, Uwe","plz":"10365","strasse":"Siegfriedstr. 204A","telefon":"+49 30 55154799","fachrichtung":"Orthopädie","lat":"52.514821","lng":"13.497069"},
{"id":"787","name":"Dr. Werner, Andreas","plz":"10365","strasse":"Schottstr. 4","telefon":"+49 30 5538134","fachrichtung":"Orthopädie","lat":"52.515091","lng":"13.490843"},
{"id":"789","name":"Dr. Pawlak, Klaus","plz":"10365","strasse":"Ruschestr. 103","telefon":"+49 30 5529225","fachrichtung":"Orthopädie","lat":"52.515343","lng":"13.485473"},
{"id":"791","name":"Dr. Krügel, Peter-Jochen","plz":"10369","strasse":"Franz-Jacob-Str. 10","telefon":"+49 30 86204680","fachrichtung":"Orthopädie","lat":"52.528035","lng":"13.467313"},
{"id":"793","name":"Wagner, Andrea","plz":"10369","strasse":"Franz-Jacob-Str. 10","telefon":"+49 30 86204680","fachrichtung":"Orthopädie","lat":"52.528035","lng":"13.467313"},
{"id":"795","name":"Dr. Kuhlee, Ulf","plz":"13051","strasse":"Prerower Platz 4","telefon":"+49 30 9294039","fachrichtung":"Orthopädie","lat":"52.565061","lng":"13.507276"},
{"id":"797","name":"Dr. Kleinod, Friedrich","plz":"13051","strasse":"Prerower Platz 4","telefon":"+49 30 9294039","fachrichtung":"Orthopädie","lat":"52.565061","lng":"13.507276"},
{"id":"799","name":"Dr. Ackermann, Sybille","plz":"13055","strasse":"Konrad-Wolf-Str. 13","telefon":"+49 30 9864271","fachrichtung":"Orthopädie","lat":"52.547175","lng":"13.497753"},
{"id":"801","name":"Dr. Wünsch, Jürgen","plz":"13055","strasse":"Konrad-Wolf-Str. 13","telefon":"+49 30 9864271","fachrichtung":"Orthopädie","lat":"52.547175","lng":"13.497753"},
{"id":"803","name":"Dudey, Rüdiger-W.","plz":"13055","strasse":"Landsberger Allee 277","telefon":"+49 30 97105583","fachrichtung":"Orthopädie","lat":"52.534701","lng":"13.495934"},
{"id":"805","name":"Prestin, Eckhard","plz":"13055","strasse":"Reichenberger Str. 3","telefon":"+49 30 9711591","fachrichtung":"Orthopädie","lat":"52.540486","lng":"13.486846"},
{"id":"807","name":"Dr. Peter, Frank-Joachim","plz":"13055","strasse":"Reichenberger Str. 3","telefon":"+49 30 9714721","fachrichtung":"Orthopädie","lat":"52.540486","lng":"13.486846"},
{"id":"809","name":"Dr. Herkner, Matthias ","plz":"13055","strasse":"Reichenberger Str. 3","telefon":"+49 30 9714721","fachrichtung":"Orthopädie","lat":"52.540486","lng":"13.486846"}
]