[
{"id":"491","name":"Singer, Uwe","plz":"10315","strasse":"Rosenfelder Ring 15","telefon":"+49 30 5251654","fachrichtung":"Innere Medizin","lat":"52.511920","lng":"13.509291"},
{"id":"493","name":"Lorenz, Christine","plz":"10315","strasse":"Alfred-Kowalke-Str. 39a","telefon":"+49 30 5104558","fachrichtung":"Innere Medizin","lat":"52.505751","lng":"13.515356"},
{"id":"495","name":"Liedke, Martina","plz":"10315","strasse":"Rummelsburger Str. 13","telefon":"+49 30 51065484","fachrichtung":"Innere Medizin","lat":"52.504143","lng":"13.512342"},
{"id":"497","name":"Dr. Matthes, Heide","plz":"10315","strasse":"Rummelsburger Str. 13","telefon":"+49 30 51065281","fachrichtung":"Innere Medizin","lat":"52.504143","lng":"13.512342"},
{"id":"499","name":"Dr. Merke, Nicolas","plz":"10315","strasse":"Rummelsburger Str. 13","telefon":"+49 30 5251436","fachrichtung":"Innere Medizin","lat":"52.504143","lng":"13.512342"},
{"id":"501","name":"Dr. Petzschmann, Stefan","plz":"10315","strasse":"Rummelsburger Str. 13","telefon":"+49 30 5253951","fachrichtung":"Innere Medizin","lat":"52.504143","lng":"13.512342"},
{"id":"503","name":"Dr. Schulze, Katrin","plz":"10315","strasse":"Rummelsburger Str. 13","telefon":"+49 30 5252388","fachrichtung":"Innere Medizin","lat":"52.504143","lng":"13.512342"},
{"id":"505","name":"Dr. Schwabe, Claudia","plz":"10315","strasse":"Rummelsburger Str. 13","telefon":"+49 30 51062640","fachrichtung":"Innere Medizin","lat":"52.504143","lng":"13.512342"},
{"id":"507","name":"Dr. Wittkopf, Sybille","plz":"10317","strasse":"Türrschmidtstr. 7/8","telefon":"+49 30 5536655","fachrichtung":"Innere Medizin","lat":"52.502663","lng":"13.477303"},
{"id":"509","name":"Dr. Kahl, Aline","plz":"10317","strasse":"Wönnichstr. 64/66","telefon":"+49 30 51009310","fachrichtung":"Innere Medizin","lat":"52.504885","lng":"13.496584"},
{"id":"511","name":"Dr. Mroß, Michael","plz":"10318","strasse":"Ehrenfelsstr. 47","telefon":"+49 30 5293310","fachrichtung":"Innere Medizin","lat":"52.482541","lng":"13.526273"},
{"id":"513","name":"Dr. von Mezynski, Eberhard","plz":"10318","strasse":"Römerweg 36","telefon":"+49 30 5099142","fachrichtung":"Innere Medizin","lat":"52.491754","lng":"13.524258"},
{"id":"515","name":"Dr. Ventz, Uta","plz":"10318","strasse":"Ehrenfelsstr. 46","telefon":"+49 30 5099509","fachrichtung":"Innere Medizin","lat":"52.482418","lng":"13.526496"},
{"id":"517","name":"Dr. Genschorek, Christine","plz":"10318","strasse":"Treskowallee 99","telefon":"+49 30 5090313","fachrichtung":"Innere Medizin","lat":"52.483400","lng":"13.526244"},
{"id":"519","name":"Dr. Belian, Heike","plz":"10318","strasse":"Rheinsteinstr. 1","telefon":"+49 30 50382589","fachrichtung":"Innere Medizin","lat":"52.482866","lng":"13.526362"},
{"id":"521","name":"Dr. Hort, Irina","plz":"10318","strasse":"Treskowallee 128","telefon":"+49 30 5090090","fachrichtung":"Innere Medizin","lat":"52.478824","lng":"13.524341"},
{"id":"523","name":"Bär, Peter","plz":"10319","strasse":"Otto-Schmirgal-Str. 5","telefon":"+49 30 51099043","fachrichtung":"Innere Medizin","lat":"52.497126","lng":"13.520965"},
{"id":"525","name":"Kretschmer, Evelin","plz":"10319","strasse":"Volkradstr. 32","telefon":"+49 30 5129026","fachrichtung":"Innere Medizin","lat":"52.499336","lng":"13.507302"},
{"id":"527","name":"Dr. Reitzig, Peter-Christian","plz":"10365","strasse":"Frankfurter Allee 231A","telefon":"+49 30 55184245","fachrichtung":"Innere Medizin","lat":"52.512704","lng":"13.495888"},
{"id":"529","name":"Dr. Sautter, Monika","plz":"10365","strasse":"Frankfurter Allee 231A","telefon":"+49 30 55184245","fachrichtung":"Innere Medizin","lat":"52.512704","lng":"13.495888"},
{"id":"531","name":"Dr. Gollasch, Hella","plz":"10365","strasse":"Frankfurter Allee 231A","telefon":"+49 30 940155130","fachrichtung":"Innere Medizin","lat":"52.512704","lng":"13.495888"},
{"id":"533","name":"Dr. Heim, Jürgen","plz":"10365","strasse":"Frankfurter Allee 231A","telefon":"+49 30 55184245 ","fachrichtung":"Innere Medizin","lat":"52.512704","lng":"13.495888"},
{"id":"535","name":"Dr. Voigt, Erich","plz":"10365","strasse":"Frankfurter Allee 231A","telefon":"+49 30 55183636 ","fachrichtung":"Innere Medizin","lat":"52.512704","lng":"13.495888"},
{"id":"537","name":"Dr. Kuschmann, Axel","plz":"10365","strasse":"Frankfurter Allee 165","telefon":"+49 30 5593227 ","fachrichtung":"Innere Medizin","lat":"52.513132","lng":"13.483579"},
{"id":"539","name":"Dr. Abu Daher, Rafat","plz":"10365","strasse":"Frankfurter Allee 241","telefon":"+49 30 55499745 ","fachrichtung":"Innere Medizin","lat":"52.512042","lng":"13.496970"},
{"id":"541","name":"Lauxtermann, Jann-Peter","plz":"10365","strasse":"Frankfurter Allee 241","telefon":"+49 30 55499745 ","fachrichtung":"Innere Medizin","lat":"52.512042","lng":"13.496970"},
{"id":"543","name":"Dr. Pospiech, Rainer","plz":"10365","strasse":"Frankfurter Allee 250","telefon":"+49 30 5509361 ","fachrichtung":"Innere Medizin","lat":"52.511744","lng":"13.497816"},
{"id":"545","name":"Dr. Wirth, Anja","plz":"10365","strasse":"Mauritiuskirchstr. 3","telefon":"+49 30 55488125 ","fachrichtung":"Innere Medizin","lat":"52.512267","lng":"13.477845"},
{"id":"547","name":"Dr. Janiszewski, Inge","plz":"10365","strasse":"Ruschestr. 103","telefon":"+49 30 5529243 ","fachrichtung":"Innere Medizin","lat":"52.515343","lng":"13.485473"},
{"id":"549","name":"Dr. Pensold, Susanne","plz":"10365","strasse":"Ruschestr. 103","telefon":"+49 30 55151323 ","fachrichtung":"Innere Medizin","lat":"52.515343","lng":"13.485473"},
{"id":"551","name":"Dr. Franz, Andrea","plz":"10365","strasse":"Schottstr. 4","telefon":"+49 30 55489130 ","fachrichtung":"Innere Medizin","lat":"52.515091","lng":"13.490843"},
{"id":"553","name":"Dr. Nawka, Stefan","plz":"10365","strasse":"Wotanstr. 16","telefon":"+49 30 5519510 ","fachrichtung":"Innere Medizin","lat":"52.517963","lng":"13.496936"},
{"id":"555","name":"Roloff, Annelies","plz":"10367","strasse":"Elli-Voigt-Str. 9","telefon":"+49 30 9720124 ","fachrichtung":"Innere Medizin","lat":"52.528556","lng":"13.483484"},
{"id":"557","name":"Dr. Otto, Franz","plz":"10367","strasse":"Möllendorffstr. 45","telefon":"+49 30 55490860 ","fachrichtung":"Innere Medizin","lat":"52.523794","lng":"13.479966"},
{"id":"559","name":"Dr. Förster, Andreas","plz":"10367","strasse":"Möllendorffstr. 111","telefon":"+49 30 5577370 ","fachrichtung":"Innere Medizin","lat":"52.516139","lng":"13.478812"},
{"id":"561","name":"Dr. Förster, Karin","plz":"10367","strasse":"Möllendorffstr. 111","telefon":"+49 30 5577370 ","fachrichtung":"Innere Medizin","lat":"52.516139","lng":"13.478812"},
{"id":"563","name":"Heim, Ilona","plz":"10367","strasse":"Paul-Zobel-Str. 27","telefon":"+49 30 5539030 ","fachrichtung":"Innere Medizin","lat":"52.526104","lng":"13.484438"},
{"id":"565","name":"Dr. Kramm, Heinz-Jochen","plz":"10369","strasse":"Franz-Jacob-Str. 10","telefon":"+49 30 86204680 ","fachrichtung":"Innere Medizin","lat":"52.528035","lng":"13.467313"},
{"id":"567","name":"Schmidt, Esther","plz":"10369","strasse":"Franz-Jacob-Str. 10","telefon":"+49 30 42087765 ","fachrichtung":"Innere Medizin","lat":"52.528035","lng":"13.467313"},
{"id":"569","name":"Dr. Zimmer, Uta","plz":"10369","strasse":"Franz-Jacob-Str. 10","telefon":"+49 30 98607737 ","fachrichtung":"Innere Medizin","lat":"52.528035","lng":"13.467313"},
{"id":"571","name":"Dr. Grad, Marc Oliver","plz":"10369","strasse":"Franz-Jacob-Str. 10","telefon":"+49 30 86204680 ","fachrichtung":"Innere Medizin","lat":"52.528035","lng":"13.467313"},
{"id":"573","name":"Dr. Henschen, Matthias","plz":"10369","strasse":"Franz-Jacob-Str. 10","telefon":"+49 30 86204680 ","fachrichtung":"Innere Medizin","lat":"52.528035","lng":"13.467313"},
{"id":"575","name":"Dr. Hesse, Barbara","plz":"10369","strasse":"Franz-Jacob-Str. 10","telefon":"+49 30 86204680 ","fachrichtung":"Innere Medizin","lat":"52.528035","lng":"13.467313"},
{"id":"577","name":"Dr. Lienert, Thomas","plz":"10369","strasse":"Franz-Jacob-Str. 10","telefon":"+49 30 86204680 ","fachrichtung":"Innere Medizin","lat":"52.528035","lng":"13.467313"},
{"id":"579","name":"Dr. Nerenheim, Anabell","plz":"10369","strasse":"Franz-Jacob-Str. 10","telefon":"+49 30 86204680 ","fachrichtung":"Innere Medizin","lat":"52.528035","lng":"13.467313"},
{"id":"581","name":"Dr. Reuter, Hartmut","plz":"10369","strasse":"Franz-Jacob-Str. 10","telefon":"+49 30 86204680 ","fachrichtung":"Innere Medizin","lat":"52.528035","lng":"13.467313"},
{"id":"583","name":"Dr. Roediger, Friederike","plz":"10369","strasse":"Franz-Jacob-Str. 10","telefon":"+49 30 86204680 ","fachrichtung":"Innere Medizin","lat":"52.528035","lng":"13.467313"},
{"id":"585","name":"Dr. Sebert, Michael","plz":"10369","strasse":"Franz-Jacob-Str. 10","telefon":"+49 30 86204680 ","fachrichtung":"Innere Medizin","lat":"52.528035","lng":"13.467313"},
{"id":"587","name":"Dr. Vogelbusch, Miriam","plz":"10369","strasse":"Franz-Jacob-Str. 10","telefon":"+49 30 86204680 ","fachrichtung":"Innere Medizin","lat":"52.528035","lng":"13.467313"},
{"id":"589","name":"Dr. Wulff, Hildegard","plz":"10369","strasse":"Franz-Jacob-Str. 10","telefon":"+49 30 86204680 ","fachrichtung":"Innere Medizin","lat":"52.528035","lng":"13.467313"},
{"id":"591","name":"Dr. Schatz, Marie-Luise","plz":"10369","strasse":"Landsberger Allee 131A","telefon":"+49 30 9705025 ","fachrichtung":"Innere Medizin","lat":"52.530025","lng":"13.461917"},
{"id":"593","name":"Fiedler, Renate","plz":"10369","strasse":"Rudolf-Seiffert-Str. 11","telefon":"+49 30 9720096 ","fachrichtung":"Innere Medizin","lat":"52.527254","lng":"13.468464"},
{"id":"595","name":"Dr. Schönleiter, Bernd","plz":"10369","strasse":"Rudolf-Seiffert-Str. 11","telefon":"+49 30 9729059 ","fachrichtung":"Innere Medizin","lat":"52.527254","lng":"13.468464"},
{"id":"597","name":"Dr. Roeder, Sabine","plz":"10369","strasse":"Rudolf-Seiffert-Str. 11","telefon":"+49 30 9754108 ","fachrichtung":"Innere Medizin","lat":"52.527254","lng":"13.468464"},
{"id":"599","name":"Dr. Pscheidl, Karin","plz":"10369","strasse":"Weißenseer Weg 111","telefon":"+49 30 97606331 ","fachrichtung":"Innere Medizin","lat":"52.526977","lng":"13.478862"},
{"id":"601","name":"Zeps, Monika","plz":"13051","strasse":"Nienhagener Str. 5","telefon":"+49 30 96204207 ","fachrichtung":"Innere Medizin","lat":"52.570403","lng":"13.495687"},
{"id":"603","name":"Dr. Balewski, Uta","plz":"13051","strasse":"Prerower Platz 4","telefon":"+49 30 9624840 ","fachrichtung":"Innere Medizin","lat":"52.565061","lng":"13.507276"},
{"id":"605","name":"Dr. Lorenz, Babette","plz":"13051","strasse":"Prerower Platz 4","telefon":"+49 30 9297097 ","fachrichtung":"Innere Medizin","lat":"52.565061","lng":"13.507276"},
{"id":"607","name":"Dr. Morgera, Stanislao","plz":"13051","strasse":"Prerower Platz 4","telefon":"+49 30 9297097 ","fachrichtung":"Innere Medizin","lat":"52.565061","lng":"13.507276"},
{"id":"609","name":"Lück, Gunhild","plz":"13051","strasse":"Prerower Platz 4","telefon":"+49 30 9294094 ","fachrichtung":"Innere Medizin","lat":"52.565061","lng":"13.507276"},
{"id":"611","name":"Preppernau, Martina","plz":"13051","strasse":"Prerower Platz 4","telefon":"+49 30 9208073 ","fachrichtung":"Innere Medizin","lat":"52.565061","lng":"13.507276"},
{"id":"613","name":"Dr. Parsi, Elke","plz":"13053","strasse":"Suermondtstr. 13","telefon":"+49 30 9864639 ","fachrichtung":"Innere Medizin","lat":"52.551173","lng":"13.491083"},
{"id":"615","name":"Dr. Rudolph, Christian","plz":"13055","strasse":"Landsberger Allee 277A","telefon":"+49 30 9710810 ","fachrichtung":"Innere Medizin","lat":"52.534609","lng":"13.496893"},
{"id":"617","name":"Dr. Feige, Sabine","plz":"13055","strasse":"Landsberger Allee 309","telefon":"+49 30 9817707 ","fachrichtung":"Innere Medizin","lat":"52.535378","lng":"13.504020"},
{"id":"619","name":"Dr. Salha, Maemoun","plz":"13055","strasse":"Hauptstr. 9-10","telefon":"+49 30 9824019 ","fachrichtung":"Innere Medizin","lat":"52.548279","lng":"13.503457"},
{"id":"621","name":"Dr. Zinke, Silke","plz":"13055","strasse":"Hauptstr. 9","telefon":"+49 30 98695230 ","fachrichtung":"Innere Medizin","lat":"52.548279","lng":"13.503457"},
{"id":"623","name":"Dr. Slisow, Brigitte","plz":"13055","strasse":"Landsberger Allee 201","telefon":"+49 30 97104409 ","fachrichtung":"Innere Medizin","lat":"52.533409","lng":"13.476691"},
{"id":"625","name":"Dr. Zels, Erhard","plz":"13055","strasse":"Plauener Str. 26","telefon":"+49 30 9817881 ","fachrichtung":"Innere Medizin","lat":"52.538359","lng":"13.503611"},
{"id":"627","name":"Dr. Krombholz, Yvonne","plz":"13055","strasse":"Reichenberger Str. 3","telefon":"+49 30 97106060 ","fachrichtung":"Innere Medizin","lat":"52.540486","lng":"13.486846"},
{"id":"629","name":"Dr. Rummel, Daniela","plz":"13055","strasse":"Reichenberger Str. 3","telefon":"+49 30 9713724 ","fachrichtung":"Innere Medizin","lat":"52.540486","lng":"13.486846"},
{"id":"631","name":"Dr. Rummel, Reinhard","plz":"13055","strasse":"Reichenberger Str. 3","telefon":"+49 30 9713724 ","fachrichtung":"Innere Medizin","lat":"52.540486","lng":"13.486846"},
{"id":"633","name":"Dr. Ryschka, Andreas","plz":"13055","strasse":"Reichenberger Str. 3","telefon":"+49 30 9713724 ","fachrichtung":"Innere Medizin","lat":"52.540486","lng":"13.486846"},
{"id":"635","name":"Dr. Heimbach, Karsten","plz":"13055","strasse":"Reichenberger Str. 3","telefon":"+49 30 9287011 ","fachrichtung":"Innere Medizin","lat":"52.540486","lng":"13.486846"},
{"id":"637","name":"Dr. Tosch-Sisting, Regina","plz":"13055","strasse":"Werneuchener Str. 22","telefon":"+49 30 9864068 ","fachrichtung":"Innere Medizin","lat":"52.540699","lng":"13.494870"},
{"id":"639","name":"Dr. Schnabl, Christian","plz":"13057","strasse":"Falkenberger Chaussee 134","telefon":"+49 30 9285043 ","fachrichtung":"Innere Medizin","lat":"52.567701","lng":"13.525326"},
{"id":"641","name":"Dr. Schäfer, Ralf-Olaf","plz":"13057","strasse":"Randowstr. 22","telefon":"+49 30 9206229 ","fachrichtung":"Innere Medizin","lat":"52.566174","lng":"13.524474"},
{"id":"643","name":"Dr. Klünder-Genth, Angelika","plz":"13057","strasse":"Randowstr. 34","telefon":"+49 30 9280144 ","fachrichtung":"Innere Medizin","lat":"52.565184","lng":"13.521193"},
{"id":"645","name":"Dr. Duderstaedt, Bernd","plz":"13059","strasse":"Egon-Erwin-Kisch-Str. 99","telefon":"+49 30 9289161 ","fachrichtung":"Innere Medizin","lat":"52.568317","lng":"13.512560"},
{"id":"647","name":"Dr. Schulte, Marianne","plz":"13059","strasse":"Grevesmühlener Str. 26","telefon":"+49 30 9245220 ","fachrichtung":"Innere Medizin","lat":"52.569128","lng":"13.517434"}
]