[
{"id":"901","name":"Dr. Kreibich, Heike","plz":"10315","strasse":"Rhinstr. 13","telefon":"+49 30 5294170","fachrichtung":"Kieferorthopäden","lat":"52.512658","lng":"13.517874"},
{"id":"903","name":"Müller, Michael","plz":"10315","strasse":"Rhinstr. 13","telefon":"+49 30 5294170","fachrichtung":"Kieferorthopäden","lat":"52.512658","lng":"13.517874"},
{"id":"905","name":"Dr. Trömel, Christine","plz":"10318","strasse":"Römerweg 81","telefon":"+49 30 5010950","fachrichtung":"Kieferorthopäden","lat":"52.491800","lng":"13.531355"},
{"id":"907","name":"Dr. Köning, Hans-Jürgen","plz":"10365","strasse":"Siegfriedstr. 212","telefon":"+49 30 5589677","fachrichtung":"Kieferorthopäden","lat":"52.512391","lng":"13.497554"},
{"id":"909","name":"Dr. Köning, Monika","plz":"10365","strasse":"Siegfriedstr. 212","telefon":"+49 30 5589677","fachrichtung":"Kieferorthopäden","lat":"52.512391","lng":"13.497554"},
{"id":"911","name":"Dr. Nack, Gundula","plz":"10367","strasse":"Deutschmeisterstr. 24","telefon":"+49 30 5531585","fachrichtung":"Kieferorthopäden","lat":"52.515989","lng":"13.476834"},
{"id":"913","name":"Pittner, Marion","plz":"13053","strasse":"Gehrenseestr. 100","telefon":"+49 30 97999669","fachrichtung":"Kieferorthopäden","lat":"52.550667","lng":"13.510285"},
{"id":"915","name":"Dr. Ring, Peter","plz":"13055","strasse":"Reichenberger Str. 3","telefon":"+49 30 97105107","fachrichtung":"Kieferorthopäden","lat":"52.540486","lng":"13.486846"},
{"id":"917","name":"Dr. Keil, Heike","plz":"13059","strasse":"Dorfstr. 9","telefon":"+49 30 96200726","fachrichtung":"Kieferorthopäden","lat":"52.576230","lng":"13.483787"},
{"id":"919","name":"Werlich, Cornelia","plz":"13059","strasse":"Rostocker Str. 23-25","telefon":"+49 30 96200190","fachrichtung":"Kieferorthopäden","lat":"52.573801","lng":"13.510243"}
]