[
{"id":"921","name":"Zenker, Kerstin","plz":"10315","strasse":"Alfred-Kowalke-Str. 4","telefon":"+49 30 51009898 ","fachrichtung":"Zahnärzte","lat":"52.505483","lng":"13.515581"},
{"id":"923","name":"Fleck, Juliane","plz":"10315","strasse":"Alfred-Kowalke-Str. 4","telefon":"+49 30 51009898 ","fachrichtung":"Zahnärzte","lat":"52.505483","lng":"13.515581"},
{"id":"925","name":"Dr. Rieger, Karin","plz":"10315","strasse":"Alt-Friedrichsfelde 2","telefon":"+49 30 5252911 ","fachrichtung":"Zahnärzte","lat":"52.510459","lng":"13.505266"},
{"id":"927","name":"Lehmann, Ines I.","plz":"10315","strasse":"Alt-Friedrichsfelde 65","telefon":"+49 30 51099410 ","fachrichtung":"Zahnärzte","lat":"52.510483","lng":"13.536085"},
{"id":"929","name":"Gärber, Silke","plz":"10315","strasse":"Alt-Friedrichsfelde 82","telefon":"+49 30 5137692 ","fachrichtung":"Zahnärzte","lat":"52.510734","lng":"13.523040"},
{"id":"931","name":"Dr. Kunth, Barbara","plz":"10315","strasse":"Einbecker Str. 107","telefon":"+49 30 5100432 ","fachrichtung":"Zahnärzte","lat":"52.506987","lng":"13.512207"},
{"id":"933","name":"Dr. Kunth, Dieter","plz":"10315","strasse":"Einbecker Str. 107","telefon":"+49 30 5100432 ","fachrichtung":"Zahnärzte","lat":"52.506987","lng":"13.512207"},
{"id":"935","name":"Dr. Kunth, Axel","plz":"10315","strasse":"Einbecker Str. 107","telefon":"+49 30 5100432 ","fachrichtung":"Zahnärzte","lat":"52.506987","lng":"13.512207"},
{"id":"937","name":"Meister, Ines","plz":"10315","strasse":"Rhinstr. 15","telefon":"+49 30 5251454 ","fachrichtung":"Zahnärzte","lat":"52.512930","lng":"13.517885"},
{"id":"939","name":"Dr. Wolf, Karin","plz":"10315","strasse":"Rhinstr. 15","telefon":"+49 30 5251068 ","fachrichtung":"Zahnärzte","lat":"52.512930","lng":"13.517885"},
{"id":"941","name":"Haschker, Angela","plz":"10315","strasse":"Rhinstr. 51 ","telefon":"+49 30 5455131 ","fachrichtung":"Zahnärzte","lat":"52.523722","lng":"13.518298"},
{"id":"943","name":"Dr. Albrecht, Brigitte","plz":"10315","strasse":"Rosenfelder Ring 15","telefon":"+49 30 5251341 ","fachrichtung":"Zahnärzte","lat":"52.511920","lng":"13.509291"},
{"id":"945","name":"Günzel, Cornelia","plz":"10315","strasse":"Rosenfelder Ring 15","telefon":"+49 30 5251341 ","fachrichtung":"Zahnärzte","lat":"52.511920","lng":"13.509291"},
{"id":"947","name":"Lembke, Annemarie","plz":"10315","strasse":"Rosenfelder Ring 15","telefon":"+49 30 5251341 ","fachrichtung":"Zahnärzte","lat":"52.511920","lng":"13.509291"},
{"id":"949","name":"Dr. Rhinow, Marlies","plz":"10315","strasse":"Rosenfelder Ring 15","telefon":"+49 30 5251341","fachrichtung":"Zahnärzte","lat":"52.511920","lng":"13.509291"},
{"id":"951","name":"Schneiderheinze, Jork","plz":"10315","strasse":"Rummelsburger Str. 13","telefon":"+49 30 51097342 ","fachrichtung":"Zahnärzte","lat":"52.504143","lng":"13.512342"},
{"id":"953","name":"Dr. Hohmeier, Regine","plz":"10315","strasse":"Rummelsburger Str. 13","telefon":"+49 30 51069507 ","fachrichtung":"Zahnärzte","lat":"52.504143","lng":"13.512342"},
{"id":"955","name":"Dr. Wagner, Marina","plz":"10315","strasse":"Rummelsburger Str. 13","telefon":"+49 30 51069504 ","fachrichtung":"Zahnärzte","lat":"52.504143","lng":"13.512342"},
{"id":"957","name":"Strehl, Kathrin","plz":"10315","strasse":"Seddiner Str. 3","telefon":"+49 30 5102381 ","fachrichtung":"Zahnärzte","lat":"52.513041","lng":"13.522994"},
{"id":"959","name":"Dr. Uebel, Andreas","plz":"10317","strasse":"Eduardstr. 18","telefon":"+49 30 5104117 ","fachrichtung":"Zahnärzte","lat":"52.505124","lng":"13.493501"},
{"id":"961","name":"Georgiev, Georgi","plz":"10317","strasse":"Einbecker Str. 37","telefon":"+49 30 5253417 ","fachrichtung":"Zahnärzte","lat":"52.509854","lng":"13.503373"},
{"id":"963","name":"Georgieva, Manuela","plz":"10317","strasse":"Einbecker Str. 37","telefon":"+49 30 5253417 ","fachrichtung":"Zahnärzte","lat":"52.509854","lng":"13.503373"},
{"id":"965","name":"Dr. Kalinke, Joachim","plz":"10317","strasse":"Hauptstr. 5 b","telefon":"+49 30 5589089 ","fachrichtung":"Zahnärzte","lat":"52.500005","lng":"13.477687"},
{"id":"967","name":"Kaczmarek, Jutta","plz":"10317","strasse":"Hirschberger Str. 2","telefon":"+49 30 5594955 ","fachrichtung":"Zahnärzte","lat":"52.504930","lng":"13.472630"},
{"id":"969","name":"Stahnke, Kerstin","plz":"10317","strasse":"Irenenstr. 20","telefon":"+49 30 5252308 ","fachrichtung":"Zahnärzte","lat":"52.509316","lng":"13.500726"},
{"id":"971","name":"Schwinge, Ulrike","plz":"10317","strasse":"Irenenstr. 20","telefon":"+49 30 5252308 ","fachrichtung":"Zahnärzte","lat":"52.509316","lng":"13.500726"},
{"id":"973","name":"Kuzman, Katrin","plz":"10317","strasse":"Leopoldstr. 2","telefon":"+49 30 5139667 ","fachrichtung":"Zahnärzte","lat":"52.503400","lng":"13.485832"},
{"id":"975","name":"Dr. Rapp, Hans-Christian","plz":"10317","strasse":"Margaretenstr. 26","telefon":"+49 30 5251383 ","fachrichtung":"Zahnärzte","lat":"52.507907","lng":"13.497713"},
{"id":"977","name":"Dr. Böttcher-Gaida, Birgit","plz":"10317","strasse":"Nöldnerstr. 9","telefon":"+49 30 5107022 ","fachrichtung":"Zahnärzte","lat":"52.501881","lng":"13.477787"},
{"id":"979","name":"Dr. Müller, Siegfried","plz":"10317","strasse":"Nöldnerstr. 9","telefon":"+49 30 5107022 ","fachrichtung":"Zahnärzte","lat":"52.501881","lng":"13.477787"},
{"id":"981","name":"Dr. Neumann, Eberhard","plz":"10317","strasse":"Pfarrstr. 110","telefon":"+49 30 5532465 ","fachrichtung":"Zahnärzte","lat":"52.505513","lng":"13.477009"},
{"id":"983","name":"Wolff, Eberhard","plz":"10317","strasse":"Wönnichstr. 41 ","telefon":"+49 30 5291073 ","fachrichtung":"Zahnärzte","lat":"52.506712","lng":"13.498572"},
{"id":"985","name":"Dr. Weiß, Constanze","plz":"10318","strasse":"Ehrenfelsstr. 47","telefon":"+49 30 5098365 ","fachrichtung":"Zahnärzte","lat":"52.482541","lng":"13.526273"},
{"id":"987","name":"Berger, Britta","plz":"10318","strasse":"Ehrlichstr. 32","telefon":"+49 30 5098481 ","fachrichtung":"Zahnärzte","lat":"52.480943","lng":"13.519383"},
{"id":"989","name":"Dr. Berndt, Christine","plz":"10318","strasse":"Rheinsteinstr. 1","telefon":"+49 30 5090288 ","fachrichtung":"Zahnärzte","lat":"52.482866","lng":"13.526362"},
{"id":"991","name":"Steinbach, Ingrid","plz":"10318","strasse":"Junker-Jörg-Str. 37","telefon":"+49 30 5099562 ","fachrichtung":"Zahnärzte","lat":"52.484174","lng":"13.521380"},
{"id":"993","name":"Dr. Lege, Christa","plz":"10318","strasse":"Rheinsteinstr. 4","telefon":"+49 30 5088260 ","fachrichtung":"Zahnärzte","lat":"52.482719","lng":"13.526920"},
{"id":"995","name":"Dr. Müller, Angelika","plz":"10318","strasse":"Rheinsteinstr. 4","telefon":"+49 30 5099470 ","fachrichtung":"Zahnärzte","lat":"52.482719","lng":"13.526920"},
{"id":"997","name":"Dr. Trömel, Norbert","plz":"10318","strasse":"Römerweg 81 ","telefon":"+49 30 5010950 ","fachrichtung":"Zahnärzte","lat":"52.491800","lng":"13.531355"},
{"id":"999","name":"Koenig, Gerd","plz":"10318","strasse":"Treskowallee 86","telefon":"+49 30 50178848 ","fachrichtung":"Zahnärzte","lat":"52.484720","lng":"13.526002"},
{"id":"1001","name":"Dr. Schwabe, Karl-Heinz","plz":"10318","strasse":"Treskowallee 92","telefon":"+49 30 50178573 ","fachrichtung":"Zahnärzte","lat":"52.484068","lng":"13.525771"},
{"id":"1003","name":"Jänisch, Nadine","plz":"10318","strasse":"Treskowallee 110","telefon":"+49 30 50382609 ","fachrichtung":"Zahnärzte","lat":"52.482531","lng":"13.525299"},
{"id":"1005","name":"Dr. Schöntube, Sebastian","plz":"10318","strasse":"Treskowallee 110","telefon":"+49 30 50382609 ","fachrichtung":"Zahnärzte","lat":"52.482531","lng":"13.525299"},
{"id":"1007","name":"Dr. Gutsch, Matthias","plz":"10318","strasse":"Treskowallee 125","telefon":"+49 30 5098440 ","fachrichtung":"Zahnärzte","lat":"52.478706","lng":"13.525035"},
{"id":"1009","name":"Mehlgarten, Bärbel","plz":"10318","strasse":"Treskowallee 128","telefon":"+49 30 5081171 ","fachrichtung":"Zahnärzte","lat":"52.478824","lng":"13.524341"},
{"id":"1011","name":"Leuschner, Heike","plz":"10318","strasse":"Waldowallee 101 ","telefon":"+49 30 5099664 ","fachrichtung":"Zahnärzte","lat":"52.483950","lng":"13.532353"},
{"id":"1013","name":"Gronert, André","plz":"10318","strasse":"Weseler Str. 17","telefon":"+49 30 5090606 ","fachrichtung":"Zahnärzte","lat":"52.483227","lng":"13.527336"},
{"id":"1015","name":"Kohnert, Peter","plz":"10319","strasse":"Baikalstr. 21 ","telefon":"+49 30 5086452 ","fachrichtung":"Zahnärzte","lat":"52.500283","lng":"13.504602"},
{"id":"1017","name":"Dr. Kociok, Margitta","plz":"10319","strasse":"Balatonstr. 20","telefon":"+49 30 51060060 ","fachrichtung":"Zahnärzte","lat":"52.497964","lng":"13.509815"},
{"id":"1019","name":"Dr. Hoffmeier, Karin","plz":"10319","strasse":"Erich-Kurz-Str. 9","telefon":"+49 30 5129129 ","fachrichtung":"Zahnärzte","lat":"52.497621","lng":"13.520628"},
{"id":"1021","name":"Dr. Hoffmeier, Siegfried","plz":"10319","strasse":"Erich-Kurz-Str. 9","telefon":"+49 30 5129129 ","fachrichtung":"Zahnärzte","lat":"52.497621","lng":"13.520628"},
{"id":"1023","name":"Moschinsky, Elke","plz":"10319","strasse":"Mellenseestr. 4","telefon":"+49 30 5126012 ","fachrichtung":"Zahnärzte","lat":"52.493421","lng":"13.509525"},
{"id":"1025","name":"Dr. Heinrich, Ursula","plz":"10319","strasse":"Mellenseestr. 4","telefon":"+49 30 5122024 ","fachrichtung":"Zahnärzte","lat":"52.493421","lng":"13.509525"},
{"id":"1027","name":"Falk, Kirsten","plz":"10319","strasse":"Mellenseestr. 24","telefon":"+49 30 51009314 ","fachrichtung":"Zahnärzte","lat":"52.493742","lng":"13.511612"},
{"id":"1029","name":"Dr. Zeuner, Harald","plz":"10319","strasse":"Mellenseestr. 66","telefon":"+49 30 5110035 ","fachrichtung":"Zahnärzte","lat":"52.494945","lng":"13.512238"},
{"id":"1031","name":"Dr. Bellmann, Annette","plz":"10319","strasse":"Otto-Schmirgal-Str. 5","telefon":"+49 30 55005777 ","fachrichtung":"Zahnärzte","lat":"52.497126","lng":"13.520965"},
{"id":"1033","name":"Dr. Wunderlich, Silke","plz":"10319","strasse":"Volkradstr. 32","telefon":"+49 30 5122157 ","fachrichtung":"Zahnärzte","lat":"52.499336","lng":"13.507302"},
{"id":"1035","name":"Weigt, Jörg","plz":"10365","strasse":"Atzpodienstr. 43","telefon":"+49 30 5593623 ","fachrichtung":"Zahnärzte","lat":"52.513321","lng":"13.492763"},
{"id":"1037","name":"Römert, Angelika","plz":"10365","strasse":"Frankfurter Allee 151 ","telefon":"+49 30 5588522 ","fachrichtung":"Zahnärzte","lat":"52.513185","lng":"13.482069"},
{"id":"1039","name":"Lieu, Ngoc Hue","plz":"10365","strasse":"Frankfurter Allee 191","telefon":"+49 30 41401370","fachrichtung":"Zahnärzte","lat":"52.512524","lng":"13.488597"},
{"id":"1041","name":"Scherer, Larissa","plz":"10365","strasse":"Frankfurter Allee 191 ","telefon":"+49 30 41401370","fachrichtung":"Zahnärzte","lat":"52.512524","lng":"13.488597"},
{"id":"1043","name":"Hess, Viktor","plz":"10365","strasse":"Frankfurter Allee 193","telefon":"+49 30 5592946 ","fachrichtung":"Zahnärzte","lat":"52.512497","lng":"13.488866"},
{"id":"1045","name":"Dr. Jacobi, Bärbel","plz":"10365","strasse":"Frankfurter Allee 231A","telefon":"+49 30 5251833 ","fachrichtung":"Zahnärzte","lat":"52.512704","lng":"13.495888"},
{"id":"1047","name":"Reinicke, Cordula","plz":"10365","strasse":"Frankfurter Allee 231A","telefon":"+49 30 5251833 ","fachrichtung":"Zahnärzte","lat":"52.512704","lng":"13.495888"},
{"id":"1049","name":"Dr. Kleemann, Gabriele","plz":"10365","strasse":"Frankfurter Allee 237","telefon":"+49 30 5589694 ","fachrichtung":"Zahnärzte","lat":"52.512031","lng":"13.496368"},
{"id":"1051","name":"Dr. Steinberg, Sabine","plz":"10365","strasse":"Frankfurter Allee 245","telefon":"+49 30 55005950 ","fachrichtung":"Zahnärzte","lat":"52.512052","lng":"13.497363"},
{"id":"1053","name":"Steinberg, Michael","plz":"10365","strasse":"Frankfurter Allee 245","telefon":"+49 30 55005950 ","fachrichtung":"Zahnärzte","lat":"52.512052","lng":"13.497363"},
{"id":"1055","name":"Werner, Gudrun","plz":"10365","strasse":"Frankfurter Allee 250","telefon":"+49 30 5592726 ","fachrichtung":"Zahnärzte","lat":"52.511744","lng":"13.497816"},
{"id":"1057","name":"Boldt, Anke","plz":"10365","strasse":"Gotlindestr. 49","telefon":"+49 30 5539844 ","fachrichtung":"Zahnärzte","lat":"52.518111","lng":"13.496787"},
{"id":"1059","name":"Dr. Schüler, Martina","plz":"10365","strasse":"Gudrunstr. 3","telefon":"+49 30 5596787 ","fachrichtung":"Zahnärzte","lat":"52.512542","lng":"13.500192"},
{"id":"1061","name":"Dr. Bachmann, Uta","plz":"10365","strasse":"Hagenstr. 2","telefon":"+49 30 5593263 ","fachrichtung":"Zahnärzte","lat":"52.512685","lng":"13.499499"},
{"id":"1063","name":"Scherret, Christian","plz":"10365","strasse":"Hagenstr. 52","telefon":"+49 30 5593272 ","fachrichtung":"Zahnärzte","lat":"52.513302","lng":"13.499297"},
{"id":"1065","name":"Isakowitsch, Wjatscheslaw","plz":"10365","strasse":"Mauritiuskirchstr. 3","telefon":"+49 30 5532393 ","fachrichtung":"Zahnärzte","lat":"52.512267","lng":"13.477845"},
{"id":"1067","name":"Ebert, Jörg","plz":"10365","strasse":"Ruschestr. 103","telefon":"+49 30 5529219 ","fachrichtung":"Zahnärzte","lat":"52.515343","lng":"13.485473"},
{"id":"1069","name":"Hempel, Anke","plz":"10365","strasse":"Ruschestr. 103","telefon":"+49 30 5529221 ","fachrichtung":"Zahnärzte","lat":"52.515343","lng":"13.485473"},
{"id":"1071","name":"Dr. Weber, Katja","plz":"10365","strasse":"Ruschestr. 103","telefon":"+49 30 5529220 ","fachrichtung":"Zahnärzte","lat":"52.515343","lng":"13.485473"},
{"id":"1073","name":"Peters, Inge","plz":"10365","strasse":"Ruschestr. 103","telefon":"+49 30 5529222 ","fachrichtung":"Zahnärzte","lat":"52.515343","lng":"13.485473"},
{"id":"1075","name":"Dr. Richter, Achim","plz":"10365","strasse":"Ruschestr. 103","telefon":"+49 30 5529223 ","fachrichtung":"Zahnärzte","lat":"52.515343","lng":"13.485473"},
{"id":"1077","name":"Dr. Schmidt, Brigitte","plz":"10365","strasse":"Ruschestr. 103","telefon":"+49 30 5529224 ","fachrichtung":"Zahnärzte","lat":"52.515343","lng":"13.485473"},
{"id":"1079","name":"Dr. Schmidt, Frank","plz":"10365","strasse":"Siegfriedstr. 188","telefon":"+49 30 5596995 ","fachrichtung":"Zahnärzte","lat":"52.519224","lng":"13.497445"},
{"id":"1081","name":"Dr. Schmidt, Elke","plz":"10365","strasse":"Siegfriedstr. 188","telefon":"+49 30 5596995 ","fachrichtung":"Zahnärzte","lat":"52.519224","lng":"13.497445"},
{"id":"1083","name":"Tran, Trung","plz":"10365","strasse":"Siegfriedstr. 202","telefon":"+49 30 2960626 ","fachrichtung":"Zahnärzte","lat":"52.514853","lng":"13.498195"},
{"id":"1085","name":"Schuschke, Angelika","plz":"10365","strasse":"Siegfriedstr. 204","telefon":"+49 30 99276700 ","fachrichtung":"Zahnärzte","lat":"52.514660","lng":"13.497228"},
{"id":"1087","name":"Dr. Exner, Gesine","plz":"10365","strasse":"Siegfriedstr. 212","telefon":"+49 30 5588905 ","fachrichtung":"Zahnärzte","lat":"52.512391","lng":"13.497554"},
{"id":"1089","name":"Kehler, Anne","plz":"10365","strasse":"Siegfriedstr. 212","telefon":"+49 30 5588905 ","fachrichtung":"Zahnärzte","lat":"52.512391","lng":"13.497554"},
{"id":"1091","name":"Grabsdorf, Regina","plz":"10365","strasse":"Wilhelm-Guddorf-Str. 10","telefon":"+49 30 5597126 ","fachrichtung":"Zahnärzte","lat":"52.511316","lng":"13.477084"},
{"id":"1093","name":"Dr. Seibt, Cornelia","plz":"10365","strasse":"Albert-Hößler-Str. 6","telefon":"+49 30 5598660 ","fachrichtung":"Zahnärzte","lat":"52.510271","lng":"13.487314"},
{"id":"1095","name":"Dr. Nack, Hans-Wolfgang","plz":"10367","strasse":"Deutschmeisterstr. 24","telefon":"+49 30 5531585 ","fachrichtung":"Zahnärzte","lat":"52.515989","lng":"13.476834"},
{"id":"1097","name":"Weigmann, Christiane","plz":"10367","strasse":"Dottistr. 20","telefon":"+49 30 5594330 ","fachrichtung":"Zahnärzte","lat":"52.514368","lng":"13.482091"},
{"id":"1099","name":"Dr. Lucke, Gerhard","plz":"10367","strasse":"Josef-Orlopp-Str. 1-3","telefon":"+49 30 5539217 ","fachrichtung":"Zahnärzte","lat":"52.523250","lng":"13.480295"},
{"id":"1101","name":"Dr. Wagner, Thomas","plz":"10367","strasse":"Möllendorffstr. 11 ","telefon":"+49 30 5594929 ","fachrichtung":"Zahnärzte","lat":"52.517350","lng":"13.480421"},
{"id":"1103","name":"Sbitnew, Anatoli","plz":"10367","strasse":"Möllendorffstr. 45","telefon":"+49 30 57796220 ","fachrichtung":"Zahnärzte","lat":"52.523794","lng":"13.479966"},
{"id":"1105","name":"Weist, Nicola","plz":"10367","strasse":"Möllendorffstr. 47","telefon":"+49 30 9751096 ","fachrichtung":"Zahnärzte","lat":"52.524218","lng":"13.480206"},
{"id":"1107","name":"Köppen, Antje","plz":"10367","strasse":"Möllendorffstr. 54","telefon":"+49 30 9720068 ","fachrichtung":"Zahnärzte","lat":"52.525422","lng":"13.480396"},
{"id":"1109","name":"Krause, Karen","plz":"10367","strasse":"Möllendorffstr. 58","telefon":"+49 30 9705430 ","fachrichtung":"Zahnärzte","lat":"52.526819","lng":"13.478426"},
{"id":"1111","name":"Frenzel, Kirsten","plz":"10367","strasse":"Möllendorffstr. 111","telefon":"+49 30 5533127 ","fachrichtung":"Zahnärzte","lat":"52.516139","lng":"13.478812"},
{"id":"1113","name":"Jentczak, Cordula","plz":"10367","strasse":"Normannenstr. 38","telefon":"+49 30 5532366 ","fachrichtung":"Zahnärzte","lat":"52.516273","lng":"13.482030"},
{"id":"1115","name":"Dr. Lorenz, Gabriele","plz":"10367","strasse":"Parkaue 37","telefon":"+49 30 5594147 ","fachrichtung":"Zahnärzte","lat":"52.516898","lng":"13.479477"},
{"id":"1117","name":"Dr. Bandlow, Bärbel","plz":"10367","strasse":"Paul-Zobel-Str. 8k","telefon":"+49 30 5540884 ","fachrichtung":"Zahnärzte","lat":"52.524314","lng":"13.481660"},
{"id":"1119","name":"Wörne, Christine-Anna","plz":"10367","strasse":"Paul-Zobel-Str. 21","telefon":"+49 30 5539359 ","fachrichtung":"Zahnärzte","lat":"52.524955","lng":"13.484453"},
{"id":"1121","name":"Wörne, Gerhard","plz":"10367","strasse":"Paul-Zobel-Str. 21","telefon":"+49 30 5539359 ","fachrichtung":"Zahnärzte","lat":"52.524955","lng":"13.484453"},
{"id":"1123","name":"Rolle, Petra","plz":"10369","strasse":"Franz-Jacob-Str. 10","telefon":"+49 30 9714858 ","fachrichtung":"Zahnärzte","lat":"52.528035","lng":"13.467313"},
{"id":"1125","name":"Dr. Stephan, Gisela","plz":"10369","strasse":"Franz-Jacob-Str. 10","telefon":"+49 30 9714858 ","fachrichtung":"Zahnärzte","lat":"52.528035","lng":"13.467313"},
{"id":"1127","name":"Dr. Walter, Sieglinde","plz":"10369","strasse":"Franz-Jacob-Str. 10","telefon":"+49 30 9714858 ","fachrichtung":"Zahnärzte","lat":"52.528035","lng":"13.467313"},
{"id":"1129","name":"Dr. Reitz, Gero","plz":"10369","strasse":"Franz-Jacob-Str. 10","telefon":"+49 30 9714858 ","fachrichtung":"Zahnärzte","lat":"52.528035","lng":"13.467313"},
{"id":"1131","name":"Kleinschmidt, Birgit","plz":"10369","strasse":"Karl-Lade-Str. 40","telefon":"+49 30 97105280 ","fachrichtung":"Zahnärzte","lat":"52.528540","lng":"13.465684"},
{"id":"1133","name":"Pötschke, Michael","plz":"10369","strasse":"Landsberger Allee 171a","telefon":"+49 30 9759090 ","fachrichtung":"Zahnärzte","lat":"52.532082","lng":"13.469700"},
{"id":"1135","name":"Dr. Schibenes, Jan Bernhard","plz":"10369","strasse":"Oderbruchstr. 10-14","telefon":"+49 30 9720039 ","fachrichtung":"Zahnärzte","lat":"52.530208","lng":"13.461620"},
{"id":"1137","name":"Dr. Wegener, Ulrich","plz":"10369","strasse":"Oderbruchstr. 10-14","telefon":"+49 30 9720039 ","fachrichtung":"Zahnärzte","lat":"52.530208","lng":"13.461620"},
{"id":"1139","name":"Dr. Henning, Eyleen","plz":"10369","strasse":"Rudolf-Seiffert-Str. 11","telefon":"+49 30 9759038 ","fachrichtung":"Zahnärzte","lat":"52.527254","lng":"13.468464"},
{"id":"1141","name":"Dr. Dr. Brzenska, Irina","plz":"10369","strasse":"Storkower Str. 207B","telefon":"+49 30 9720150 ","fachrichtung":"Zahnärzte","lat":"52.524547","lng":"13.466609"},
{"id":"1143","name":"Alexandrow, Konstantin","plz":"10369","strasse":"Storkower Str. 207B","telefon":"+49 30 9720150 ","fachrichtung":"Zahnärzte","lat":"52.524547","lng":"13.466609"},
{"id":"1145","name":"Klement, Martina","plz":"10369","strasse":"Storkower Str. 207B","telefon":"+49 30 9715600 ","fachrichtung":"Zahnärzte","lat":"52.524547","lng":"13.466609"},
{"id":"1147","name":"Dr. Schleußner, Karsten","plz":"10369","strasse":"Weißenseer Weg 111","telefon":"+49 30 9719142 ","fachrichtung":"Zahnärzte","lat":"52.526977","lng":"13.478862"},
{"id":"1149","name":"Dr. Schleußner, Stefanie","plz":"10369","strasse":"Weißenseer Weg 111","telefon":"+49 30 9719142 ","fachrichtung":"Zahnärzte","lat":"52.526977","lng":"13.478862"},
{"id":"1151","name":"Dr. Karpow, Angelika","plz":"13051","strasse":"Ahrenshooper Str. 24","telefon":"+49 30 9291155 ","fachrichtung":"Zahnärzte","lat":"52.567816","lng":"13.504400"},
{"id":"1153","name":"Paßler, Irena","plz":"13051","strasse":"Nienhagener Str. 5","telefon":"+49 30 96204404 ","fachrichtung":"Zahnärzte","lat":"52.570403","lng":"13.495687"},
{"id":"1155","name":"Nündel, Ulrike","plz":"13051","strasse":"Prerower Platz 3a","telefon":"+49 30 9244552 ","fachrichtung":"Zahnärzte","lat":"52.563789","lng":"13.505497"},
{"id":"1157","name":"Gessat, Gudrun","plz":"13051","strasse":"Prerower Platz 12","telefon":"+49 30 9280080 ","fachrichtung":"Zahnärzte","lat":"52.564899","lng":"13.504838"},
{"id":"1159","name":"Kerber, Marianne","plz":"13051","strasse":"Prerower Platz 12","telefon":"+49 30 9280080 ","fachrichtung":"Zahnärzte","lat":"52.564899","lng":"13.504838"},
{"id":"1161","name":"Paulmann, Edeltraud","plz":"13051","strasse":"Prerower Platz 12","telefon":"+49 30 9280080 ","fachrichtung":"Zahnärzte","lat":"52.564899","lng":"13.504838"},
{"id":"1163","name":"Flemming, Ellen","plz":"13051","strasse":"Wiecker Str. 13","telefon":"+49 30 9287010 ","fachrichtung":"Zahnärzte","lat":"52.568462","lng":"13.495223"},
{"id":"1165","name":"Foth, Leonore","plz":"13051","strasse":"Wiecker Str. 13","telefon":"+49 30 9287010 ","fachrichtung":"Zahnärzte","lat":"52.568462","lng":"13.495223"},
{"id":"1167","name":"Dr. Koschützki, Annette","plz":"13051","strasse":"Wustrower Str. 20","telefon":"+49 30 92091800 ","fachrichtung":"Zahnärzte","lat":"52.566418","lng":"13.508649"},
{"id":"1169","name":"Otto, Birgit","plz":"13051","strasse":"Wustrower Str. 20","telefon":"+49 30 93028814 ","fachrichtung":"Zahnärzte","lat":"52.566418","lng":"13.508649"},
{"id":"1171","name":"Schütze, Martina","plz":"13051","strasse":"Wustrower Str. 20","telefon":"+49 30 93028814 ","fachrichtung":"Zahnärzte","lat":"52.566418","lng":"13.508649"},
{"id":"1173","name":"Richter, Astrid","plz":"13051","strasse":"Zingster Str. 3","telefon":"+49 30 9280110 ","fachrichtung":"Zahnärzte","lat":"52.563891","lng":"13.503449"},
{"id":"1175","name":"Winter, Agata","plz":"13053","strasse":"Am Faulen See 2","telefon":"+49 30 9864077 ","fachrichtung":"Zahnärzte","lat":"52.550644","lng":"13.495647"},
{"id":"1177","name":"Dr. Riesenberg, Jörg","plz":"13053","strasse":"Am Faulen See 27","telefon":"+49 30 9866419 ","fachrichtung":"Zahnärzte","lat":"52.552149","lng":"13.495976"},
{"id":"1179","name":"Greiner-Mielich, Antje","plz":"13053","strasse":"Gehrenseestr. 100","telefon":"+49 30 9282508 ","fachrichtung":"Zahnärzte","lat":"52.550667","lng":"13.510285"},
{"id":"1181","name":"Dr. Heine, Christine","plz":"13053","strasse":"Gehrenseestr. 100 ","telefon":"+49 30 9282508 ","fachrichtung":"Zahnärzte","lat":"52.550667","lng":"13.510285"},
{"id":"1183","name":"Dr. Koker, Dorit","plz":"13053","strasse":"Gehrenseestr. 100","telefon":"+49 30 9282508 ","fachrichtung":"Zahnärzte","lat":"52.550667","lng":"13.510285"},
{"id":"1185","name":"Dr. Kutschke, Elke","plz":"13053","strasse":"Gehrenseestr. 100","telefon":"+49 30 9282508 ","fachrichtung":"Zahnärzte","lat":"52.550667","lng":"13.510285"},
{"id":"1187","name":"Sternberg, Karin","plz":"13053","strasse":"Gehrenseestr. 100","telefon":"+49 30 9282508 ","fachrichtung":"Zahnärzte","lat":"52.550667","lng":"13.510285"},
{"id":"1189","name":"König, Gerlinde","plz":"13053","strasse":"Gehrenseestr. 100","telefon":"+49 30 9827107 ","fachrichtung":"Zahnärzte","lat":"52.550667","lng":"13.510285"},
{"id":"1191","name":"Dr. Faust, Kristina","plz":"13053","strasse":"Manetstr. 85","telefon":"+49 30 9208068 ","fachrichtung":"Zahnärzte","lat":"52.544949","lng":"13.493640"},
{"id":"1193","name":"Plewka, Uwe","plz":"13053","strasse":"Manetstr. 85","telefon":"+49 30 9208068 ","fachrichtung":"Zahnärzte","lat":"52.544949","lng":"13.493640"},
{"id":"1195","name":"Winkelmann, Pierre","plz":"13053","strasse":"Manetstr. 85","telefon":"+49 30 9208068 ","fachrichtung":"Zahnärzte","lat":"52.544949","lng":"13.493640"},
{"id":"1197","name":"Dr. Rempt, Jochen","plz":"13053","strasse":"Manetstr. 85","telefon":"+49 30 9208068 ","fachrichtung":"Zahnärzte","lat":"52.544949","lng":"13.493640"},
{"id":"1199","name":"Dr. Hußlack, Klaus-Michael","plz":"13053","strasse":"Norbertstr. 7A","telefon":"+49 30 98695132 ","fachrichtung":"Zahnärzte","lat":"52.552825","lng":"13.520325"},
{"id":"1201","name":"Kössler, Andreas","plz":"13053","strasse":"Rotkamp 2","telefon":"+49 30 96204233 ","fachrichtung":"Zahnärzte","lat":"52.561338","lng":"13.509187"},
{"id":"1203","name":"Dr. Latt, Kristina","plz":"13053","strasse":"Sabinensteig 14","telefon":"+49 30 9865530 ","fachrichtung":"Zahnärzte","lat":"52.549041","lng":"13.493371"},
{"id":"1205","name":"Dr. Weigelt, Ralf","plz":"13053","strasse":"Suermondtstr. 37","telefon":"+49 30 98694641 ","fachrichtung":"Zahnärzte","lat":"52.548592","lng":"13.500062"},
{"id":"1207","name":"Dr. Bade, Gerd","plz":"13053","strasse":"Suermondtstr. 37a","telefon":"+49 30 98694669 ","fachrichtung":"Zahnärzte","lat":"52.549017","lng":"13.500820"},
{"id":"1209","name":"Reinicke, Dirk","plz":"13055","strasse":"Hauptstr. 9-10","telefon":"+49 30 98639986 ","fachrichtung":"Zahnärzte","lat":"52.548279","lng":"13.503457"},
{"id":"1211","name":"Schevschenko, Konstantin","plz":"13055","strasse":"Konrad-Wolf-Str. 13a","telefon":"+49 30 9827503 ","fachrichtung":"Zahnärzte","lat":"52.547093","lng":"13.497572"},
{"id":"1213","name":"Lehmann, Peter","plz":"13055","strasse":"Konrad-Wolf-Str. 104","telefon":"+49 30 9823444","fachrichtung":"Zahnärzte","lat":"52.542530","lng":"13.489924"},
{"id":"1215","name":"Dr. Szumski, Wojciech","plz":"13055","strasse":"Küstriner Str. 47","telefon":"+49 30 97104446","fachrichtung":"Zahnärzte","lat":"52.538838","lng":"13.487674"},
{"id":"1217","name":"Dr. Blumenthal-Barby, Gabriele","plz":"13055","strasse":"Landsberger Allee 201","telefon":"+49 30 9750853","fachrichtung":"Zahnärzte","lat":"52.533409","lng":"13.476691"},
{"id":"1219","name":"Dr. Fischer, Eckhard","plz":"13055","strasse":"Landsberger Allee 219d","telefon":"+49 30 9758813","fachrichtung":"Zahnärzte","lat":"52.534676","lng":"13.487789"},
{"id":"1221","name":"Schmidt, Peter","plz":"13055","strasse":"Landsberger Allee 223","telefon":"+49 30 92408530","fachrichtung":"Zahnärzte","lat":"52.535050","lng":"13.485471"},
{"id":"1223","name":"Münchow, Sascha","plz":"13055","strasse":"Landsberger Allee 277a","telefon":"+49 30 97104406 ","fachrichtung":"Zahnärzte","lat":"52.534609","lng":"13.496893"},
{"id":"1225","name":"Joksch, Constanze","plz":"13055","strasse":"Landsberger Allee 277a","telefon":"+49 30 97104406 ","fachrichtung":"Zahnärzte","lat":"52.534609","lng":"13.496893"},
{"id":"1227","name":"Dr. Wagner, Jens","plz":"13055","strasse":"Landsberger Allee 293","telefon":"+49 30 9815505 ","fachrichtung":"Zahnärzte","lat":"52.535274","lng":"13.501103"},
{"id":"1229","name":"Rüffer, Stefan","plz":"13055","strasse":"Neustrelitzer Str. 41","telefon":"+49 30 97104791 ","fachrichtung":"Zahnärzte","lat":"52.537952","lng":"13.493292"},
{"id":"1231","name":"Dr. Brussig, Lutz","plz":"13055","strasse":"Reichenberger Str. 3","telefon":"+49 30 9710110 ","fachrichtung":"Zahnärzte","lat":"52.540486","lng":"13.486846"},
{"id":"1233","name":"Dr. Gericke, Dietrich","plz":"13055","strasse":"Reichenberger Str. 3","telefon":"+49 30 9711525 ","fachrichtung":"Zahnärzte","lat":"52.540486","lng":"13.486846"},
{"id":"1235","name":"Kristen, Stefanie","plz":"13055","strasse":"Reichenberger Str. 3","telefon":"+49 30 9711525 ","fachrichtung":"Zahnärzte","lat":"52.540486","lng":"13.486846"},
{"id":"1237","name":"Suhr, Dagmar","plz":"13055","strasse":"Reichenberger Str. 3","telefon":"+49 30 9711525 ","fachrichtung":"Zahnärzte","lat":"52.540486","lng":"13.486846"},
{"id":"1239","name":"Dr. Badke, Thomas","plz":"13055","strasse":"Schalkauer Str. 30","telefon":"+49 30 98694100 ","fachrichtung":"Zahnärzte","lat":"52.538064","lng":"13.509301"},
{"id":"1241","name":"Wiewand, Claudia","plz":"13055","strasse":"Schalkauer Str. 30","telefon":"+49 30 98694100 ","fachrichtung":"Zahnärzte","lat":"52.538064","lng":"13.509301"},
{"id":"1243","name":"Laaß, Sabine","plz":"13055","strasse":"Schöneicher Str. 18","telefon":"+49 30 9822544 ","fachrichtung":"Zahnärzte","lat":"52.544695","lng":"13.494353"},
{"id":"1245","name":"Dr. Bading, Stefan","plz":"13055","strasse":"Weißenseer Weg 35-38","telefon":"+49 30 97106960 ","fachrichtung":"Zahnärzte","lat":"52.535590","lng":"13.474541"},
{"id":"1247","name":"Dr. Engel, Sabine","plz":"13057","strasse":"Falkenberger Chaussee 134-136","telefon":"+49 30 96207048 ","fachrichtung":"Zahnärzte","lat":"52.567701","lng":"13.525326"},
{"id":"1249","name":"Spintig, Regine","plz":"13057","strasse":"Randowstr. 16","telefon":"+49 30 9209550 ","fachrichtung":"Zahnärzte","lat":"52.566599","lng":"13.525370"},
{"id":"1251","name":"Graf von Korff, Claus","plz":"13057","strasse":"Randowstr. 34","telefon":"+49 30 92890049 ","fachrichtung":"Zahnärzte","lat":"52.565184","lng":"13.521193"},
{"id":"1253","name":"Thiele, Wolfgang","plz":"13057","strasse":"Randowstr. 34","telefon":"+49 30 9209650 ","fachrichtung":"Zahnärzte","lat":"52.565184","lng":"13.521193"},
{"id":"1255","name":"Dr. Kössler, Gudrun","plz":"13057","strasse":"Seehausener Str. 34","telefon":"+49 30 9289035 ","fachrichtung":"Zahnärzte","lat":"52.562239","lng":"13.522425"},
{"id":"1257","name":"Bergmann, Ines","plz":"13057","strasse":"Warnitzer Str. 28","telefon":"+49 30 9290221 ","fachrichtung":"Zahnärzte","lat":"52.566623","lng":"13.516737"},
{"id":"1259","name":"Thienel, Stefan","plz":"13057","strasse":"Warnitzer Str. 31 ","telefon":"+49 30 9249880 ","fachrichtung":"Zahnärzte","lat":"52.565579","lng":"13.517157"},
{"id":"1261","name":"Sorin, Artur","plz":"13059","strasse":"Egon-Erwin-Kisch-Str. 32","telefon":"+49 30 9283016 ","fachrichtung":"Zahnärzte","lat":"52.573043","lng":"13.505000"},
{"id":"1263","name":"Dr. Große, Steffen","plz":"13059","strasse":"Grevesmühlener Str. 18","telefon":"+49 30 9286045 ","fachrichtung":"Zahnärzte","lat":"52.568881","lng":"13.515703"},
{"id":"1265","name":"Gallinat, Felix","plz":"13059","strasse":"Grevesmühlener Str. 18","telefon":"+49 30 9286045 ","fachrichtung":"Zahnärzte","lat":"52.568881","lng":"13.515703"},
{"id":"1267","name":"Dr. Müller, Henry","plz":"13059","strasse":"Grevesmühlener Str. 18","telefon":"+49 30 9286045 ","fachrichtung":"Zahnärzte","lat":"52.568881","lng":"13.515703"},
{"id":"1269","name":"Dr. Otto, Birgit G.","plz":"13059","strasse":"Grevesmühlener Str. 30","telefon":"+49 30 92408531 ","fachrichtung":"Zahnärzte","lat":"52.568911","lng":"13.518170"},
{"id":"1271","name":"Spitzner, Annegret","plz":"13059","strasse":"Grevesmühlener Str. 30","telefon":"+49 30 92408532 ","fachrichtung":"Zahnärzte","lat":"52.568911","lng":"13.518170"},
{"id":"1273","name":"Mense, Heike","plz":"13059","strasse":"Grevesmühlener Str. 34","telefon":"+49 30 92407033 ","fachrichtung":"Zahnärzte","lat":"52.569242","lng":"13.518870"},
{"id":"1275","name":"Albrecht, Birgit","plz":"13059","strasse":"Hagenower Ring 75","telefon":"+49 30 99271595 ","fachrichtung":"Zahnärzte","lat":"52.576311","lng":"13.507393"},
{"id":"1277","name":"Rechlin, Jens","plz":"13059","strasse":"Warnemünder Str. 42","telefon":"+49 30 9288192","fachrichtung":"Zahnärzte","lat":"52.573104","lng":"13.507299"}
]