[
{"id":"1427","name":"Therapiezentrum im Kiez","plz":"10315","strasse":"Rosenfelder Ring 15","telefon":"+49 30 53019517","fachrichtung":"Ergotherapeuten","lat":"52.511920","lng":"13.509291"},
{"id":"1429","name":"Gwizdon, Iwona","plz":"10315","strasse":"Rummelsburger Str. 13","telefon":"+49 30 53084215","fachrichtung":"Ergotherapeuten","lat":"52.504143","lng":"13.512342"},
{"id":"1431","name":"Höhenleitner, Claudia","plz":"10318","strasse":"Dönhoffstr. 32","telefon":"+49 30 50380478","fachrichtung":"Ergotherapeuten","lat":"52.483932","lng":"13.520900"},
{"id":"1433","name":"Kanter, Lars","plz":"10319","strasse":"Balatonstr. 20","telefon":"+49 30 54718940","fachrichtung":"Ergotherapeuten","lat":"52.497964","lng":"13.509815"},
{"id":"1435","name":"Krielke, Susann","plz":"10365","strasse":"Ruschestr. 103","telefon":"+49 30 55669728","fachrichtung":"Ergotherapeuten","lat":"52.515343","lng":"13.485473"},
{"id":"1437","name":"Schlecht, Christiane","plz":"10365","strasse":"Siegfriedstr. 204A","telefon":"+49 30 55491974","fachrichtung":"Ergotherapeuten","lat":"52.514821","lng":"13.497069"},
{"id":"1439","name":"Bohmann, Andreas","plz":"10369","strasse":"Storkower Str. 207A","telefon":"+49 30 53064690","fachrichtung":"Ergotherapeuten","lat":"52.524518","lng":"13.466011"},
{"id":"1441","name":"Nelki, Saskia","plz":"13051","strasse":"Zingster Str. 5","telefon":"+49 30 54735556","fachrichtung":"Ergotherapeuten","lat":"52.564022","lng":"13.503298"},
{"id":"1443","name":"Hildebrand, Sabine","plz":"13055","strasse":"Reichenberger Str. 3","telefon":"+49 30 97602710","fachrichtung":"Ergotherapeuten","lat":"52.540486","lng":"13.486846"},
{"id":"1445","name":"Rosin, Daniela","plz":"13057","strasse":"Warnitzer Str. 10","telefon":"+49 30 96061609","fachrichtung":"Ergotherapeuten","lat":"52.566769","lng":"13.519112"}
]