[
{"id":"339","name":"Wegner, Beate","plz":"10315","strasse":"Alt-Friedrichsfelde 1","telefon":"+49 30 5253028","fachrichtung":"Frauenheilkunde und Geburtshilfe","lat":"52.510474","lng":"13.505004"},
{"id":"341","name":"Dr. Kruse-Lenke, Stefanie","plz":"10315","strasse":"Rosenfelder Ring 15","telefon":"+49 30 5251384 ","fachrichtung":"Frauenheilkunde und Geburtshilfe","lat":"52.511920","lng":"13.509291"},
{"id":"343","name":"Dr. Proksch, Annette","plz":"10315","strasse":"Rummelsburger Str. 13","telefon":"+49 30 5132881 ","fachrichtung":"Frauenheilkunde und Geburtshilfe","lat":"52.504143","lng":"13.512342"},
{"id":"345","name":"Dr. Paech, Roswitha","plz":"10317","strasse":"Einbecker Str. 37","telefon":"+49 30 5251660 ","fachrichtung":"Frauenheilkunde und Geburtshilfe","lat":"52.509854","lng":"13.503373"},
{"id":"347","name":"Dr. Blasczyk, Markus","plz":"10317","strasse":"Lückstr. 72/73","telefon":"+49 30 52219066 ","fachrichtung":"Frauenheilkunde und Geburtshilfe","lat":"52.502641","lng":"13.486867"},
{"id":"349","name":"Dr. Schilling, Jörg","plz":"10317","strasse":"Wönnichstr. 64/66","telefon":"+49 30 5104118 ","fachrichtung":"Frauenheilkunde und Geburtshilfe","lat":"52.504885","lng":"13.496584"},
{"id":"351","name":"Dr. Till, Angelika","plz":"10317","strasse":"Wönnichstr. 64/66","telefon":"+49 30 5104118 ","fachrichtung":"Frauenheilkunde und Geburtshilfe","lat":"52.504885","lng":"13.496584"},
{"id":"353","name":"Dr. Kohn, Andrea","plz":"10317","strasse":"Wönnichstr. 64/66","telefon":"+49 30 5104118 ","fachrichtung":"Frauenheilkunde und Geburtshilfe","lat":"52.504885","lng":"13.496584"},
{"id":"355","name":"Dr. Vierck, Sabine","plz":"10318","strasse":"Rheinsteinstr. 4","telefon":"+49 30 5099780 ","fachrichtung":"Frauenheilkunde und Geburtshilfe","lat":"52.482719","lng":"13.526920"},
{"id":"357","name":"Dr. Pape, Christina","plz":"10318","strasse":"Treskowallee 110","telefon":"+49 30 5251330 ","fachrichtung":"Frauenheilkunde und Geburtshilfe","lat":"52.482531","lng":"13.525299"},
{"id":"359","name":"Hude, Svetlana","plz":"10318","strasse":"Treskowallee 128","telefon":"+49 30 50382874 ","fachrichtung":"Frauenheilkunde und Geburtshilfe","lat":"52.478824","lng":"13.524341"},
{"id":"361","name":"Odoy, Gabriela","plz":"10319","strasse":"Balatonstr. 20/21","telefon":"+49 30 5129104 ","fachrichtung":"Frauenheilkunde und Geburtshilfe","lat":"52.497964","lng":"13.509815"},
{"id":"363","name":"Dr. Franke, Hartmut","plz":"10319","strasse":"Erich-Kurz-Str. 11","telefon":"+49 30 5121076 ","fachrichtung":"Frauenheilkunde und Geburtshilfe","lat":"52.497446","lng":"13.519878"},
{"id":"365","name":"Dr. Lebek, Holger","plz":"10365","strasse":"Frankfurter Allee 231A","telefon":"+49 30 5779870 ","fachrichtung":"Frauenheilkunde und Geburtshilfe","lat":"52.512704","lng":"13.495888"},
{"id":"367","name":"Liepe, Larissa","plz":"10365","strasse":"Frankfurter Allee 231A","telefon":"+49 30 5779870 ","fachrichtung":"Frauenheilkunde und Geburtshilfe","lat":"52.512704","lng":"13.495888"},
{"id":"369","name":"Dr. Paulick, Jeannett","plz":"10365","strasse":"Frankfurter Allee 231 A","telefon":"+49 30 5779870 ","fachrichtung":"Frauenheilkunde und Geburtshilfe","lat":"52.512704","lng":"13.495888"},
{"id":"371","name":"Klaußner, Barbara","plz":"10365","strasse":"Ruschestr. 103","telefon":"+49 30 5589082 ","fachrichtung":"Frauenheilkunde und Geburtshilfe","lat":"52.515343","lng":"13.485473"},
{"id":"373","name":"Dr. Kresse, Barbara","plz":"10367","strasse":"Möllendorffstr. 11","telefon":"+49 30 5594789 ","fachrichtung":"Frauenheilkunde und Geburtshilfe","lat":"52.517350","lng":"13.480421"},
{"id":"375","name":"Dr. Kittel, Kornelia","plz":"10367","strasse":"Möllendorffstr. 52","telefon":"+49 30 9821286 ","fachrichtung":"Frauenheilkunde und Geburtshilfe","lat":"52.524941","lng":"13.480067"},
{"id":"377","name":"Dr. Klare, Peter","plz":"10367","strasse":"Möllendorffstr. 52","telefon":"+49 30 9821286 ","fachrichtung":"Frauenheilkunde und Geburtshilfe","lat":"52.524941","lng":"13.480067"},
{"id":"379","name":"Dr. Wetzel, Antje","plz":"10367","strasse":"Möllendorffstr. 52","telefon":"+49 30 9821286 ","fachrichtung":"Frauenheilkunde und Geburtshilfe","lat":"52.524941","lng":"13.480067"},
{"id":"381","name":"Dr. Weyer, Joachim","plz":"10367","strasse":"Möllendorffstr. 52","telefon":"+49 30 9821286 ","fachrichtung":"Frauenheilkunde und Geburtshilfe","lat":"52.524941","lng":"13.480067"},
{"id":"383","name":"Dr. Bark, Doris","plz":"10367","strasse":"Möllendorffstr. 59","telefon":"+49 30 9729147 ","fachrichtung":"Frauenheilkunde und Geburtshilfe","lat":"52.526835","lng":"13.478044"},
{"id":"385","name":"Dr. Nauschütz, Birgit","plz":"10367","strasse":"Möllendorffstr. 116","telefon":"+49 30 55489335 ","fachrichtung":"Frauenheilkunde und Geburtshilfe","lat":"52.515283","lng":"13.478144"},
{"id":"387","name":"Dr. Raschke, Margitta","plz":"10369","strasse":"Franz-Jacob-Str. 10","telefon":"+49 30 9720141 ","fachrichtung":"Frauenheilkunde und Geburtshilfe","lat":"52.528035","lng":"13.467313"},
{"id":"389","name":"Dr. Völker, Brigitte","plz":"10369","strasse":"Franz-Jacob-Str. 10","telefon":"+49 30 9714867 ","fachrichtung":"Frauenheilkunde und Geburtshilfe","lat":"52.528035","lng":"13.467313"},
{"id":"391","name":"Dr. Kavungu, Pita","plz":"10369","strasse":"Storkower Str. 207a","telefon":"+49 30 54709280 ","fachrichtung":"Frauenheilkunde und Geburtshilfe","lat":"52.524518","lng":"13.466011"},
{"id":"393","name":"Dr. Moser de Lopez, Anja","plz":"13051","strasse":"Prerower Platz 4","telefon":"+49 30 9295066 ","fachrichtung":"Frauenheilkunde und Geburtshilfe","lat":"52.565061","lng":"13.507276"},
{"id":"395","name":"Dr. Königer, Wolfgang","plz":"13051","strasse":"Ribnitzer Str. 24","telefon":"+49 30 96204223 ","fachrichtung":"Frauenheilkunde und Geburtshilfe","lat":"52.569964","lng":"13.496239"},
{"id":"397","name":"Marquardt, Doris","plz":"13051","strasse":"Wustrower Str. 20","telefon":"+49 30 92799640 ","fachrichtung":"Frauenheilkunde und Geburtshilfe","lat":"52.566418","lng":"13.508649"},
{"id":"399","name":"Dr. Kehrer, Marei","plz":"13051","strasse":"Zingster Str. 7","telefon":"+49 30 96200070 ","fachrichtung":"Frauenheilkunde und Geburtshilfe","lat":"52.564245","lng":"13.503043"},
{"id":"401","name":"Dr. Langhofer, Maria","plz":"13053","strasse":"Rüdickenstr. 10","telefon":"+49 30 9286044 ","fachrichtung":"Frauenheilkunde und Geburtshilfe","lat":"52.562065","lng":"13.505952"},
{"id":"403","name":"Dr. Meltonjan, Heike","plz":"13055","strasse":"Hauptstr. 9-10","telefon":"+49 30 9816754 ","fachrichtung":"Frauenheilkunde und Geburtshilfe","lat":"52.548279","lng":"13.503457"},
{"id":"405","name":"Hansen, Birgit","plz":"13055","strasse":"Landsberger Allee 201","telefon":"+49 30 97105457 ","fachrichtung":"Frauenheilkunde und Geburtshilfe","lat":"52.533409","lng":"13.476691"},
{"id":"407","name":"Dr. Böttcher, Andrea","plz":"13055","strasse":"Landsberger Allee 277","telefon":"+49 30 97105340 ","fachrichtung":"Frauenheilkunde und Geburtshilfe","lat":"52.534701","lng":"13.495934"},
{"id":"409","name":"Dr. Spremberg, Dagmar","plz":"13055","strasse":"Landsberger Allee 277","telefon":"+49 30 97105340 ","fachrichtung":"Frauenheilkunde und Geburtshilfe","lat":"52.534701","lng":"13.495934"},
{"id":"411","name":"Boehme, Martina","plz":"13055","strasse":"Reichenberger Str. 3","telefon":"+49 30 9711234 ","fachrichtung":"Frauenheilkunde und Geburtshilfe","lat":"52.540486","lng":"13.486846"},
{"id":"413","name":"Dr. Burghardt, Susanne","plz":"13055","strasse":"Reichenberger Str. 3","telefon":"+49 30 9711234 ","fachrichtung":"Frauenheilkunde und Geburtshilfe","lat":"52.540486","lng":"13.486846"},
{"id":"415","name":"Dr. Frömming, Steffi","plz":"13057","strasse":"Passower Str. 36","telefon":"+49 30 9284147 ","fachrichtung":"Frauenheilkunde und Geburtshilfe","lat":"52.564596","lng":"13.531793"},
{"id":"417","name":"Berger, Swetlana","plz":"13057","strasse":"Falkenberger Chaussee 134-136","telefon":"+49 30 9911001 ","fachrichtung":"Frauenheilkunde und Geburtshilfe","lat":"52.567701","lng":"13.525326"},
{"id":"419","name":"Dr. Knobel, Barbara","plz":"13059","strasse":"Egon-Erwin-Kisch-Str. 32","telefon":"+49 30 9280126 ","fachrichtung":"Frauenheilkunde und Geburtshilfe","lat":"52.573043","lng":"13.505000"},
{"id":"421","name":"Hakenbeck, Eva","plz":"13059","strasse":"Grevesmühlener Str. 26","telefon":"+49 30 96204670 ","fachrichtung":"Frauenheilkunde und Geburtshilfe","lat":"52.569128","lng":"13.517434"},
{"id":"423","name":"Dr. Lukas, Ellen","plz":"13059","strasse":"Rostocker Str. 27-29","telefon":"+49 30 9294091 ","fachrichtung":"Frauenheilkunde und Geburtshilfe","lat":"52.573593","lng":"13.510189"}
]