[
{"id":"825","name":"Dr. Staske, Barbara","plz":"10315","strasse":"Rummelsburger Str. 13","telefon":"+49 30 51098890 ","fachrichtung":"Diagnostische Radiologie/Radiologie/Radiologische Diagnostik","lat":"52.504143","lng":"13.512342"},
{"id":"827","name":"Dr. Hein, Eike","plz":"10365","strasse":"Frankfurter Allee 231A","telefon":"+49 30 55184245 ","fachrichtung":"Diagnostische Radiologie/Radiologie/Radiologische Diagnostik","lat":"52.512704","lng":"13.495888"},
{"id":"829","name":"Wolf, Michael","plz":"10365","strasse":"Frankfurter Allee 231A","telefon":"+49 30 55184245 ","fachrichtung":"Diagnostische Radiologie/Radiologie/Radiologische Diagnostik","lat":"52.512704","lng":"13.495888"},
{"id":"831","name":"Dr. Nauck, Christopher","plz":"10365","strasse":"Frankfurter Allee 231A","telefon":"+49 30 55184245 ","fachrichtung":"Diagnostische Radiologie/Radiologie/Radiologische Diagnostik","lat":"52.512704","lng":"13.495888"},
{"id":"833","name":"Dr. Heiniche, Antje","plz":"10365","strasse":"Herzbergstr. 79","telefon":"+49 30 54724580 ","fachrichtung":"Diagnostische Radiologie/Radiologie/Radiologische Diagnostik","lat":"52.526398","lng":"13.506062"},
{"id":"835","name":"Dr. Paris, Stefan","plz":"10365","strasse":"Herzbergstr. 79","telefon":"+49 30 54724580","fachrichtung":"Diagnostische Radiologie/Radiologie/Radiologische Diagnostik","lat":"52.526398","lng":"13.506062"},
{"id":"837","name":"Dr. Recker, Angela","plz":"10365","strasse":"Herzbergstr. 79","telefon":"+49 30 54724580","fachrichtung":"Diagnostische Radiologie/Radiologie/Radiologische Diagnostik","lat":"52.526398","lng":"13.506062"},
{"id":"839","name":"Dr. Luther, Maria","plz":"10365","strasse":"Ruschestr. 103","telefon":"+49 30 55489263","fachrichtung":"Diagnostische Radiologie/Radiologie/Radiologische Diagnostik","lat":"52.515343","lng":"13.485473"},
{"id":"841","name":"Thieme, Holger","plz":"10365","strasse":"Ruschestr. 103","telefon":"+49 30 55489263","fachrichtung":"Diagnostische Radiologie/Radiologie/Radiologische Diagnostik","lat":"52.515343","lng":"13.485473"},
{"id":"843","name":"Gottlieb, Thomas","plz":"10367","strasse":"Möllendorffstr. 52","telefon":"+49 30 57799999","fachrichtung":"Diagnostische Radiologie/Radiologie/Radiologische Diagnostik","lat":"52.524941","lng":"13.480067"},
{"id":"845","name":"Tönnsen, Klaus-Peter","plz":"10367","strasse":"Möllendorffstr. 52","telefon":"+49 30 57799999","fachrichtung":"Diagnostische Radiologie/Radiologie/Radiologische Diagnostik","lat":"52.524941","lng":"13.480067"},
{"id":"847","name":"Wartenberg, Wieland","plz":"10367","strasse":"Möllendorffstr. 52","telefon":"+49 30 57799999","fachrichtung":"Diagnostische Radiologie/Radiologie/Radiologische Diagnostik","lat":"52.524941","lng":"13.480067"},
{"id":"849","name":"Dr. Hinze, Kurt-Achim","plz":"13051","strasse":"Prerower Platz 4","telefon":"+49 30 9297022","fachrichtung":"Diagnostische Radiologie/Radiologie/Radiologische Diagnostik","lat":"52.565061","lng":"13.507276"},
{"id":"851","name":"Dr. Schmidt, Gunter","plz":"13051","strasse":"Prerower Platz 4","telefon":"+49 30 9297022","fachrichtung":"Diagnostische Radiologie/Radiologie/Radiologische Diagnostik","lat":"52.565061","lng":"13.507276"},
{"id":"853","name":"Dr. Hasselbach, Andrea","plz":"13051","strasse":"Prerower Platz 4","telefon":"+49 30 9297022","fachrichtung":"Diagnostische Radiologie/Radiologie/Radiologische Diagnostik","lat":"52.565061","lng":"13.507276"},
{"id":"855","name":"Dr. Neumann, Fabian","plz":"13051","strasse":"Prerower Platz 4","telefon":"+49 30 9297022","fachrichtung":"Diagnostische Radiologie/Radiologie/Radiologische Diagnostik","lat":"52.565061","lng":"13.507276"},
{"id":"857","name":"Dr. Dickert, Sabine","plz":"13055","strasse":"Reichenberger Str. 3","telefon":"+49 30 9711615","fachrichtung":"Diagnostische Radiologie/Radiologie/Radiologische Diagnostik","lat":"52.540486","lng":"13.486846"},
{"id":"859","name":"Dr. Rzezacz, Barbara","plz":"13055","strasse":"Reichenberger Str. 3","telefon":"+49 30 9711615","fachrichtung":"Diagnostische Radiologie/Radiologie/Radiologische Diagnostik","lat":"52.540486","lng":"13.486846"}
]