[
{"id":"725","name":"Haak, Katrin","plz":"10315","strasse":"Marzahner Chaussee 9","telefon":"+49 30 5436363 ","fachrichtung":"Nervenheilkunde/Neurologie und Psychiatrie","lat":"52.510960","lng":"13.521563"},
{"id":"727","name":"Dr. Bilz, Christine","plz":"10318","strasse":"Treskowallee 106","telefon":"+49 30 50378333 ","fachrichtung":"Nervenheilkunde/Neurologie und Psychiatrie","lat":"52.482997","lng":"13.525439"},
{"id":"729","name":"Dr. Bär, Claudia-Martina","plz":"10319","strasse":"Otto-Schmirgal-Str. 5","telefon":"+49 30 51099042 ","fachrichtung":"Nervenheilkunde/Neurologie und Psychiatrie","lat":"52.497126","lng":"13.520965"},
{"id":"731","name":"Dr. Kuschel, Erdmute","plz":"10365","strasse":"Frankfurter Allee 191","telefon":"+49 30 5592383 ","fachrichtung":"Nervenheilkunde/Neurologie und Psychiatrie","lat":"52.512524","lng":"13.488597"},
{"id":"733","name":"Dr. Franz, Peter","plz":"10365","strasse":"Herzbergstr. 82","telefon":"+49 30 55051238 ","fachrichtung":"Nervenheilkunde/Neurologie und Psychiatrie","lat":"52.526430","lng":"13.503912"},
{"id":"735","name":"Prof. Dr. Rimpau, Wilhelm","plz":"10365","strasse":"Herzbergstr. 82","telefon":"+49 30 55051238 ","fachrichtung":"Nervenheilkunde/Neurologie und Psychiatrie","lat":"52.526430","lng":"13.503912"},
{"id":"737","name":"Jerosch, Reinhard","plz":"10367","strasse":"Am Stadtpark 1","telefon":"+49 30 9721500 ","fachrichtung":"Nervenheilkunde/Neurologie und Psychiatrie","lat":"52.517080","lng":"13.478979"},
{"id":"739","name":"Dr. Hempel, Thomas","plz":"10367","strasse":"Möllendorffstr. 116","telefon":"+49 30 55487816 ","fachrichtung":"Nervenheilkunde/Neurologie und Psychiatrie","lat":"52.515283","lng":"13.478144"},
{"id":"741","name":"Dr. Möller, Wolfgang","plz":"10369","strasse":"Oderbruchstr. 10","telefon":"+49 30 9756244 ","fachrichtung":"Nervenheilkunde/Neurologie und Psychiatrie","lat":"52.530208","lng":"13.461620"},
{"id":"743","name":"Dr. Walter, Sabine","plz":"13051","strasse":"Nienhagener Str. 5","telefon":"+49 30 96204667 ","fachrichtung":"Nervenheilkunde/Neurologie und Psychiatrie","lat":"52.570403","lng":"13.495687"},
{"id":"745","name":"Dr. Görmer, Kathrin","plz":"13051","strasse":"Zingster Str. 1A","telefon":"+49 30 9285047 ","fachrichtung":"Nervenheilkunde/Neurologie und Psychiatrie","lat":"52.563717","lng":"13.503648"},
{"id":"747","name":"Gericke, Kerstin","plz":"13055","strasse":"Reichenberger Str. 3","telefon":"+49 30 9713470 ","fachrichtung":"Nervenheilkunde/Neurologie und Psychiatrie","lat":"52.540486","lng":"13.486846"},
{"id":"749","name":"Schneider, Joachim","plz":"13057","strasse":"Falkenberger Chaussee 134-136","telefon":"+49 30 92092166 ","fachrichtung":"Nervenheilkunde/Neurologie und Psychiatrie","lat":"52.567701","lng":"13.525326"},
{"id":"751","name":"Dr. Köhler, Luise","plz":"13059","strasse":"Warnemünder Str. 46","telefon":"+49 30 9297069 ","fachrichtung":"Nervenheilkunde/Neurologie und Psychiatrie","lat":"52.572871","lng":"13.507597"},
{"id":"753","name":"Staron, Romy","plz":"10318","strasse":"Ehrenfelsstr. 42-44","telefon":"+49 30 63224661","fachrichtung":"Nervenheilkunde/Neurologie und Psychiatrie","lat":"52.481897","lng":"13.527696"},
{"id":"755","name":"Dr. Kauert, Andreas","plz":"10365","strasse":"Herzbergstr. 82","telefon":"+49 30 55051238","fachrichtung":"Nervenheilkunde/Neurologie und Psychiatrie","lat":"52.526430","lng":"13.503912"},
{"id":"757","name":"Prof. Dr. Rimpau, Wilhelm","plz":"10365","strasse":"Herzbergstr. 82","telefon":"+49 30 55051238","fachrichtung":"Nervenheilkunde/Neurologie und Psychiatrie","lat":"52.526430","lng":"13.503912"}
]