[
{"id":"461","name":"Rund, Evelyn","plz":"10317","strasse":"Wönnichstr. 38","telefon":"+49 30 5251018","fachrichtung":"Haut- und Geschlechtskrankheiten","lat":"52.507103","lng":"13.498387"},
{"id":"463","name":"Dr. Weber, Sylvia","plz":"10318","strasse":"Ehrenfelsstr. 47","telefon":"+49 30 5108614","fachrichtung":"Haut- und Geschlechtskrankheiten","lat":"52.482541","lng":"13.526273"},
{"id":"465","name":"Dr. Dräger, Erik Günter","plz":"10365","strasse":"Frankfurter Allee 231A","telefon":"+49 30 55184286","fachrichtung":"Haut- und Geschlechtskrankheiten","lat":"52.512704","lng":"13.495888"},
{"id":"467","name":"Dr. Hoppe, Christian","plz":"10365","strasse":"Ruschestr. 103","telefon":"+49 30 5529236","fachrichtung":"Haut- und Geschlechtskrankheiten","lat":"52.515343","lng":"13.485473"},
{"id":"469","name":"Dr. Lübke, Martina","plz":"10369","strasse":"Franz-Jacob-Str. 10","telefon":"+49 30 86204680","fachrichtung":"Haut- und Geschlechtskrankheiten","lat":"52.528035","lng":"13.467313"},
{"id":"471","name":"Dr. Schirmeister, Anna-Bertha","plz":"10369","strasse":"Franz-Jacob-Str. 10","telefon":"+49 30 86204680","fachrichtung":"Haut- und Geschlechtskrankheiten","lat":"52.528035","lng":"13.467313"},
{"id":"473","name":"Kaczmarek, Christina","plz":"13051","strasse":"Prerower Platz 4","telefon":"+49 30 9292048","fachrichtung":"Haut- und Geschlechtskrankheiten","lat":"52.565061","lng":"13.507276"},
{"id":"475","name":"Dr. Eicholtz, Jeanette","plz":"13051","strasse":"Zingster Str. 2","telefon":"+49 30 96200771","fachrichtung":"Haut- und Geschlechtskrankheiten","lat":"52.564788","lng":"13.504257"},
{"id":"477","name":"Dr. Böhm, Kirsten","plz":"13053","strasse":"Gehrenseestr. 100","telefon":"+49 30 98695235","fachrichtung":"Haut- und Geschlechtskrankheiten","lat":"52.550667","lng":"13.510285"},
{"id":"479","name":"Deift, Natalia","plz":"13055","strasse":"Landsberger Allee 201","telefon":"+49 30 97106902","fachrichtung":"Haut- und Geschlechtskrankheiten","lat":"52.533409","lng":"13.476691"},
{"id":"481","name":"Dr. Wildfeuer, Thomas","plz":"13055","strasse":"Reichenberger Str. 3","telefon":"+49 30 9715208","fachrichtung":"Haut- und Geschlechtskrankheiten","lat":"52.540486","lng":"13.486846"},
{"id":"483","name":"Dr. Prochaska, Eva","plz":"13057","strasse":"Marie-Elisabeth-von-Humboldt-Str. 87","telefon":"+49 30 93770451","fachrichtung":"Haut- und Geschlechtskrankheiten","lat":"52.573128","lng":"13.557432"}
]