[
{"id":"1447","name":"Therapiezentrum im Kiez","plz":"10315","strasse":"Rosenfelder Ring 15","telefon":"+49 30 53019516","fachrichtung":"Logopäden","lat":"52.511920","lng":"13.509291"},
{"id":"1449","name":"Dipl.-Päd. Eska, André","plz":"10315","strasse":"Rummelsburger Str. 13","telefon":"+49 30 5115907","fachrichtung":"Logopäden","lat":"52.504143","lng":"13.512342"},
{"id":"1451","name":"Kiessling, Silke","plz":"10315","strasse":"Rummelsburger Str. 13","telefon":"+49 30 5115907","fachrichtung":"Logopäden","lat":"52.504143","lng":"13.512342"},
{"id":"1453","name":"Lorenz, Kirsten","plz":"10315","strasse":"Seddiner Str. 7","telefon":"+49 30 51737949","fachrichtung":"Logopäden","lat":"52.513038","lng":"13.522450"},
{"id":"1455","name":"Benyskiewicz, Heike","plz":"10318","strasse":"Ehrenfelsstr. 46","telefon":"+49 30 50381114","fachrichtung":"Logopäden","lat":"52.482418","lng":"13.526496"},
{"id":"1457","name":"Hansen, Antje","plz":"10318","strasse":"Ehrenfelsstr. 46","telefon":"+49 30 50381114","fachrichtung":"Logopäden","lat":"52.482418","lng":"13.526496"},
{"id":"1459","name":"Müller, Iris","plz":"10318","strasse":"Ehrenfelsstr. 46 ","telefon":"+49 30 50381114","fachrichtung":"Logopäden","lat":"52.482418","lng":"13.526496"},
{"id":"1461","name":"Crome, Petra","plz":"10365","strasse":"Mauritiuskirchstr. 3","telefon":"+49 30 5541642","fachrichtung":"Logopäden","lat":"52.512267","lng":"13.477845"},
{"id":"1463","name":"Grambow, Karin","plz":"10365","strasse":"Mauritiuskirchstr. 3","telefon":"+49 30 5541642","fachrichtung":"Logopäden","lat":"52.512267","lng":"13.477845"},
{"id":"1465","name":"Mundt, Heinrich","plz":"10365","strasse":"Ruschestr. 103","telefon":"+49 30 57795988","fachrichtung":"Logopäden","lat":"52.515343","lng":"13.485473"},
{"id":"1467","name":"Thomack, Kerstin","plz":"10365","strasse":"Ruschestr. 103","telefon":"+49 30 5529218","fachrichtung":"Logopäden","lat":"52.515343","lng":"13.485473"},
{"id":"1469","name":"Körner, Kristin","plz":"13051","strasse":"Zingster Str. 3","telefon":"+49 30 9244892","fachrichtung":"Logopäden","lat":"52.563891","lng":"13.503449"},
{"id":"1471","name":"Blum, Dorit","plz":"13053","strasse":"Augustastr. 10","telefon":"+49 30 98317711","fachrichtung":"Logopäden","lat":"52.550390","lng":"13.486379"},
{"id":"1473","name":"Barth-Koslik, Eva-Maria","plz":"13055","strasse":"Reichenberger Str. 3","telefon":"+49 30 97600813","fachrichtung":"Logopäden","lat":"52.540486","lng":"13.486846"},
{"id":"1475","name":"Büchner, Cornelia","plz":"13055","strasse":"Reichenberger Str. 3","telefon":"+49 30 97600813","fachrichtung":"Logopäden","lat":"52.540486","lng":"13.486846"},
{"id":"1477","name":"Kratz, Margit","plz":"13055","strasse":"Reichenberger Str. 3 ","telefon":"+49 30 97600813","fachrichtung":"Logopäden","lat":"52.540486","lng":"13.486846"},
{"id":"1479","name":"Paprzycki, Antje","plz":"13055","strasse":"Reichenberger Str. 3 ","telefon":"+49 30 97600813","fachrichtung":"Logopäden","lat":"52.540486","lng":"13.486846"},
{"id":"1481","name":"Will, Carola","plz":"13055","strasse":"Reichenberger Str. 3","telefon":"+49 30 97600813","fachrichtung":"Logopäden","lat":"52.540486","lng":"13.486846"},
{"id":"1483","name":"Bettermann, Martina","plz":"13059","strasse":"Falkenberger Chaussee 134","telefon":"+49 30 92092444","fachrichtung":"Logopäden","lat":"52.567701","lng":"13.525326"},
{"id":"1485","name":"Steinauer, Sabine","plz":"13059","strasse":"Falkenberger Chaussee 134","telefon":"+49 30 92092444","fachrichtung":"Logopäden","lat":"52.567701","lng":"13.525326"},
{"id":"1487","name":"Rode, Claudia","plz":"13059","strasse":"Falkenberger Chaussee 134","telefon":"+49 30 92403184","fachrichtung":"Logopäden","lat":"52.567701","lng":"13.525326"}
]