[
{"id":"275","name":"Dr. Kalinowski, Jörg","plz":"10315","strasse":"Rummelsburger Str. 13","telefon":"+49 30 51069169","fachrichtung":"Chirurgie","lat":"52.504143","lng":"13.512342"},
{"id":"277","name":"Dr. Gerschner, Heinz","plz":"10315","strasse":"Rummelsburger Str. 13","telefon":"+49 30 5138291","fachrichtung":"Chirurgie","lat":"52.504143","lng":"13.512342"},
{"id":"279","name":"Dr. Bräutigam, Ralf-Peter","plz":"10317","strasse":"Irenenstr. 20","telefon":"+49 30 5229340","fachrichtung":"Chirurgie","lat":"52.509316","lng":"13.500726"},
{"id":"281","name":"Dr. Klötzer, Rainer","plz":"10317","strasse":"Irenenstr. 20","telefon":"+49 30 5229340","fachrichtung":"Chirurgie","lat":"52.509316","lng":"13.500726"},
{"id":"283","name":"Münzberg, Gregor","plz":"10365","strasse":"Frankfurter Allee 231A","telefon":"+49 30 55184468","fachrichtung":"Chirurgie","lat":"52.512704","lng":"13.495888"},
{"id":"285","name":"Dr. Naumann, Kathrin","plz":"10365","strasse":"Frankfurter Allee 231A","telefon":"+49 30 55182917","fachrichtung":"Chirurgie","lat":"52.512704","lng":"13.495888"},
{"id":"287","name":"Kühn, Wolfgang","plz":"10365","strasse":"Wotanstr. 16","telefon":"+49 30 5519510","fachrichtung":"Chirurgie","lat":"52.517963","lng":"13.496936"},
{"id":"289","name":"Schenk, Kurt","plz":"10367","strasse":"Am Stadtpark 1","telefon":"+49 30 5589416","fachrichtung":"Chirurgie","lat":"52.517080","lng":"13.478979"},
{"id":"291","name":"Dr. Trappe, Regine","plz":"10367","strasse":"Möllendorffstr. 45","telefon":"+49 30 54709234","fachrichtung":"Chirurgie","lat":"52.523794","lng":"13.479966"},
{"id":"293","name":"Dress, Hans-Thomas","plz":"10367","strasse":"Möllendorffstr. 52","telefon":"+49 30 57799999","fachrichtung":"Chirurgie","lat":"52.524941","lng":"13.480067"},
{"id":"295","name":"Dr. Uschinsky, Klaus","plz":"10367","strasse":"Paul-Zobel-Str. 8k","telefon":"+49 30 54378699","fachrichtung":"Chirurgie","lat":"52.524314","lng":"13.481660"},
{"id":"297","name":"Dr. Lübke, Matthias-J.","plz":"10369","strasse":"Franz-Jacob-Str. 10","telefon":"+49 30 9714863","fachrichtung":"Chirurgie","lat":"52.528035","lng":"13.467313"},
{"id":"299","name":"Dr. Seewald, André","plz":"10369","strasse":"Franz-Jacob-Str. 10","telefon":"+49 30 9714863","fachrichtung":"Chirurgie","lat":"52.528035","lng":"13.467313"},
{"id":"301","name":"Ehrlichmann, Lutz","plz":"13051","strasse":"Prerower Platz 4","telefon":"+49 30 92707050","fachrichtung":"Chirurgie","lat":"52.565061","lng":"13.507276"},
{"id":"303","name":"Dr. Haase, Tankred","plz":"13051","strasse":"Prerower Platz 4","telefon":"+49 30 92707050","fachrichtung":"Chirurgie","lat":"52.565061","lng":"13.507276"},
{"id":"305","name":"Dr. Keller, Holger","plz":"13051","strasse":"Prerower Platz 4","telefon":"+49 30 92707050","fachrichtung":"Chirurgie","lat":"52.565061","lng":"13.507276"},
{"id":"307","name":"Jörgensen, Björn","plz":"13051","strasse":"Prerower Platz 4","telefon":"+49 30 92707050","fachrichtung":"Chirurgie","lat":"52.565061","lng":"13.507276"},
{"id":"309","name":"Vogel, Ulrike","plz":"13051","strasse":"Prerower Platz 4","telefon":"+49 30 92707050","fachrichtung":"Chirurgie","lat":"52.565061","lng":"13.507276"},
{"id":"311","name":"Dr. Garz, Werner","plz":"13053","strasse":"Oberseestr. 86","telefon":"+49 30 55141209","fachrichtung":"Chirurgie","lat":"52.548145","lng":"13.493570"},
{"id":"313","name":"Dr. Kindler, Manfred","plz":"13055","strasse":"Landsberger Allee 277A","telefon":"+49 30 9710810","fachrichtung":"Chirurgie","lat":"52.534609","lng":"13.496893"},
{"id":"315","name":"Dr. Peter, Frank-Joachim","plz":"13055","strasse":"Reichenberger Str. 3","telefon":"+49 30 9714721","fachrichtung":"Chirurgie","lat":"52.540486","lng":"13.486846"},
{"id":"317","name":"Dr. Herkner, Matthias","plz":"13055","strasse":"Reichenberger Str. 3","telefon":"+49 30 9714721","fachrichtung":"Chirurgie","lat":"52.540486","lng":"13.486846"}
]