[
{"id":"871","name":"Dr. Weide, Bernd","plz":"10315","strasse":"Rummelsburger Str. 13","telefon":"+49 30 5138204","fachrichtung":"Urologie","lat":"52.504143","lng":"13.512342"},
{"id":"873","name":"Irgang, Ralf","plz":"10315","strasse":"Rummelsburger Str. 13","telefon":"+49 30 5138204","fachrichtung":"Urologie","lat":"52.504143","lng":"13.512342"},
{"id":"875","name":"Dr. Speck, Thomas","plz":"10318","strasse":"Treskowallee 103","telefon":"+49 30 5588886","fachrichtung":"Urologie","lat":"52.482992","lng":"13.526110"},
{"id":"877","name":"Bargel, Heiner","plz":"10365","strasse":"Ruschestr. 103","telefon":"+49 30 57799861","fachrichtung":"Urologie","lat":"52.515343","lng":"13.485473"},
{"id":"879","name":"Roggenbuck, Reinhard","plz":"10367","strasse":"Möllendorffstr. 90b","telefon":"+49 30 5592642","fachrichtung":"Urologie","lat":"52.519761","lng":"13.478250"},
{"id":"881","name":"Dr. Herrmann, Karin","plz":"10369","strasse":"Rudolf-Seiffert-Str. 11","telefon":"+49 30 9721449","fachrichtung":"Urologie","lat":"52.527254","lng":"13.468464"},
{"id":"883","name":"Scharfenberg, Olaf","plz":"10369","strasse":"Rudolf-Seiffert-Str. 11","telefon":"+49 30 9721449","fachrichtung":"Urologie","lat":"52.527254","lng":"13.468464"},
{"id":"885","name":"Gerson, Hans Christof","plz":"13051","strasse":"Prerower Platz 4","telefon":"+49 30 9294053","fachrichtung":"Urologie","lat":"52.565061","lng":"13.507276"},
{"id":"887","name":"Dr. Maskow, Arnd","plz":"13053","strasse":"Rotkamp 2","telefon":"+49 30 96200876","fachrichtung":"Urologie","lat":"52.561338","lng":"13.509187"},
{"id":"889","name":"Dr. Maskow, Susanne","plz":"13053","strasse":"Rotkamp 2","telefon":"+49 30 96200876","fachrichtung":"Urologie","lat":"52.561338","lng":"13.509187"},
{"id":"891","name":"Dr. Hölzer, Wolfgang","plz":"13055","strasse":"Reichenberger Str. 3","telefon":"+49 30 9711511","fachrichtung":"Urologie","lat":"52.540486","lng":"13.486846"}
]