[
{"id":"233","name":"Schakols, Helga","plz":"10315","strasse":"Rummelsburger Str. 13","telefon":"+49 30 5251436","fachrichtung":"Augenheilkunde","lat":"52.504143","lng":"13.512342"},
{"id":"235","name":"Dr. Specht, Silke","plz":"10315","strasse":"Rummelsburger Str. 13","telefon":"+49 30 5251436","fachrichtung":"Augenheilkunde","lat":"52.504143","lng":"13.512342"},
{"id":"237","name":"Dr. Milek, Knut","plz":"10315","strasse":"Alfred-Kowalke-Str. 4","telefon":"+49 30 5251482","fachrichtung":"Augenheilkunde","lat":"52.505483","lng":"13.515581"},
{"id":"239","name":"Krause, Sigrid","plz":"10318","strasse":"Dönhoffstr. 2","telefon":"+49 30 5088208","fachrichtung":"Augenheilkunde","lat":"52.482647","lng":"13.524615"},
{"id":"241","name":"Dr. Brückner, Bernd","plz":"10318","strasse":"Rheinsteinstr. 4","telefon":"+49 30 5098856","fachrichtung":"Augenheilkunde","lat":"52.482719","lng":"13.526920"},
{"id":"243","name":"Dr. Kastelewicz, Eike","plz":"10365","strasse":"Frankfurter Allee 231A","telefon":"+49 30 55184245","fachrichtung":"Augenheilkunde","lat":"52.512704","lng":"13.495888"},
{"id":"245","name":"Dr. Velhagen, Ulrich","plz":"10365","strasse":"Frankfurter Allee 231A","telefon":"+49 30 5588668","fachrichtung":"Augenheilkunde","lat":"52.512704","lng":"13.495888"},
{"id":"247","name":"Dr. Gehring, Christa","plz":"10365","strasse":"Frankfurter Allee 231A","telefon":"+49 30 5588668","fachrichtung":"Augenheilkunde","lat":"52.512704","lng":"13.495888"},
{"id":"249","name":"Gonzalez, Luisa","plz":"10365","strasse":"Frankfurter Allee 231A","telefon":"+49 30 5588668","fachrichtung":"Augenheilkunde","lat":"52.512704","lng":"13.495888"},
{"id":"251","name":"Dr. Thieme, Peter","plz":"10365","strasse":"Schottstr. 4","telefon":"+49 30 5596390","fachrichtung":"Augenheilkunde","lat":"52.515091","lng":"13.490843"},
{"id":"253","name":"Dr. Barth, Uwe","plz":"10367","strasse":"Möllendorffstr. 110","telefon":"+49 30 5592454","fachrichtung":"Augenheilkunde","lat":"52.516276","lng":"13.478917"},
{"id":"255","name":"Dr. Steinberg, Kathleen","plz":"10367","strasse":"Möllendorffstr. 116","telefon":"+49 30 81858912","fachrichtung":"Augenheilkunde","lat":"52.515283","lng":"13.478144"},
{"id":"257","name":"Wagner, Renate","plz":"10369","strasse":"Franz-Jacob-Str. 10","telefon":"+49 30 9713462","fachrichtung":"Augenheilkunde","lat":"52.528035","lng":"13.467313"},
{"id":"259","name":"Dr. Uschinsky, Marie-Luise","plz":"10369","strasse":"Weißenseer Weg 111","telefon":"+49 30 9720036","fachrichtung":"Augenheilkunde","lat":"52.526977","lng":"13.478862"},
{"id":"261","name":"Arnold, Regine","plz":"10369","strasse":"Storkower Str. 207A","telefon":"+49 30 9713975","fachrichtung":"Augenheilkunde","lat":"52.524518","lng":"13.466011"},
{"id":"263","name":"Dr. Fritze, Sabine","plz":"13051","strasse":"Prerower Platz 4","telefon":"+49 30 9200026","fachrichtung":"Augenheilkunde","lat":"52.565061","lng":"13.507276"},
{"id":"265","name":"Ohrt,Ulrike","plz":"13053","strasse":"Rotkamp 2","telefon":"+49 30 96200151","fachrichtung":"Augenheilkunde","lat":"52.561338","lng":"13.509187"},
{"id":"267","name":"Hartmann, Elena","plz":"13055","strasse":"Hauptstr. 9","telefon":"+49 30 9715205","fachrichtung":"Augenheilkunde","lat":"52.548279","lng":"13.503457"},
{"id":"269","name":"Lehmann, Monika","plz":"13055","strasse":"Reichenberger Str. 3","telefon":"+49 30 9704949","fachrichtung":"Augenheilkunde","lat":"52.540486","lng":"13.486846"},
{"id":"271","name":"Glawe, Juliane","plz":"13059","strasse":"Grevesmühlener Str. 32","telefon":"+49 30 9286079","fachrichtung":"Augenheilkunde","lat":"52.569077","lng":"13.518522"},
{"id":"273","name":"Rechlin, Roswitha","plz":"13059","strasse":"Warnemünder Str. 42","telefon":"+49 30 9288192","fachrichtung":"Augenheilkunde","lat":"52.573104","lng":"13.507299"}
]