[
{"id":"649","name":"Hörnlein, Ursula","plz":"10315","strasse":"Alfred-Kowalke-Str. 40a","telefon":"+49 30 5139766 ","fachrichtung":"Kinder- und Jugendmedizin/Kinderheilkunde","lat":"52.505690","lng":"13.514425"},
{"id":"651","name":"Zelazny, Elke","plz":"10315","strasse":"Alfred-Kowalke-Str. 40a","telefon":"+49 30 5139766 ","fachrichtung":"Kinder- und Jugendmedizin/Kinderheilkunde","lat":"52.505690","lng":"13.514425"},
{"id":"653","name":"Dr. Drenckhahn, Anne","plz":"10315","strasse":"Rummelsburger Str. 13","telefon":"+49 30 5101015 ","fachrichtung":"Kinder- und Jugendmedizin/Kinderheilkunde","lat":"52.504143","lng":"13.512342"},
{"id":"655","name":"Prof. Dr. Stephan, Volker","plz":"10315","strasse":"Rummelsburger Str. 13","telefon":"+49 30 5101015 ","fachrichtung":"Kinder- und Jugendmedizin/Kinderheilkunde","lat":"52.504143","lng":"13.512342"},
{"id":"657","name":"Röblitz, Holger","plz":"10315","strasse":"Rummelsburger Str. 13","telefon":"+49 30 5101015 ","fachrichtung":"Kinder- und Jugendmedizin/Kinderheilkunde","lat":"52.504143","lng":"13.512342"},
{"id":"659","name":"Dr. Schuppe, Dagmar","plz":"10318","strasse":"Ehrenfelsstr. 47","telefon":"+49 30 5099963 ","fachrichtung":"Kinder- und Jugendmedizin/Kinderheilkunde","lat":"52.482541","lng":"13.526273"},
{"id":"661","name":"Dr. Gottschalk, Karin","plz":"10318","strasse":"Lehndorffstr. 25","telefon":"+49 30 5098433 ","fachrichtung":"Kinder- und Jugendmedizin/Kinderheilkunde","lat":"52.480151","lng":"13.519158"},
{"id":"663","name":"Dr. Krüger, Silvia","plz":"10318","strasse":"Treskowallee 108","telefon":"+49 30 5087827 ","fachrichtung":"Kinder- und Jugendmedizin/Kinderheilkunde","lat":"52.482811","lng":"13.525404"},
{"id":"665","name":"Dr. Niederkirchner, Käte","plz":"10319","strasse":"Balatonstr. 20","telefon":"+49 30 5128148 ","fachrichtung":"Kinder- und Jugendmedizin/Kinderheilkunde","lat":"52.497964","lng":"13.509815"},
{"id":"667","name":"Dr. Keipus, Ulrike","plz":"10365","strasse":"Frankfurter Allee 231A","telefon":"+49 30 55184040 ","fachrichtung":"Kinder- und Jugendmedizin/Kinderheilkunde","lat":"52.512704","lng":"13.495888"},
{"id":"669","name":"Schnorr, Karin","plz":"10365","strasse":"Frankfurter Allee 231A","telefon":"+49 30 55184040 ","fachrichtung":"Kinder- und Jugendmedizin/Kinderheilkunde","lat":"52.512704","lng":"13.495888"},
{"id":"671","name":"Eike, Esther","plz":"10365","strasse":"Gotlindestr. 2-20","telefon":"+49 30 55185202 ","fachrichtung":"Kinder- und Jugendmedizin/Kinderheilkunde","lat":"52.518475","lng":"13.507127"},
{"id":"673","name":"Dr. Haberland, Holger","plz":"10365","strasse":"Fanningerstr. 32","telefon":"+49 30 55185274 ","fachrichtung":"Kinder- und Jugendmedizin/Kinderheilkunde","lat":"52.514010","lng":"13.496418"},
{"id":"675","name":"Polleichtner, Marietta","plz":"10365","strasse":"Schulze-Boysen-Str. 32","telefon":"+49 30 5593417 ","fachrichtung":"Kinder- und Jugendmedizin/Kinderheilkunde","lat":"52.509183","lng":"13.480276"},
{"id":"677","name":"Schmiegel, Marlo-Ilona","plz":"10365","strasse":"Schulze-Boysen-Str. 32","telefon":"+49 30 5593417 ","fachrichtung":"Kinder- und Jugendmedizin/Kinderheilkunde","lat":"52.509183","lng":"13.480276"},
{"id":"679","name":"Kinderärzte im Polikum","plz":"10369","strasse":"Franz-Jacob-Str. 10","telefon":"+49 30 86204680 ","fachrichtung":"Kinder- und Jugendmedizin/Kinderheilkunde","lat":"52.528035","lng":"13.467313"},
{"id":"681","name":"Dr. Lüder, Steffen","plz":"13051","strasse":"Prerower Platz 4","telefon":"+49 30 9298032 ","fachrichtung":"Kinder- und Jugendmedizin/Kinderheilkunde","lat":"52.565061","lng":"13.507276"},
{"id":"683","name":"Dr. Wurl, Gudrun","plz":"13053","strasse":"Gehrenseestr. 100","telefon":"+49 30 9865135 ","fachrichtung":"Kinder- und Jugendmedizin/Kinderheilkunde","lat":"52.550667","lng":"13.510285"},
{"id":"685","name":"Staufenbiel, Elke","plz":"13053","strasse":"Rotkamp 11","telefon":"+49 30 9294005 ","fachrichtung":"Kinder- und Jugendmedizin/Kinderheilkunde","lat":"52.561742","lng":"13.509201"},
{"id":"687","name":"Plünsch, Renate","plz":"13055","strasse":"Hauptstr. 9d","telefon":"+49 30 9865241 ","fachrichtung":"Kinder- und Jugendmedizin/Kinderheilkunde","lat":"52.548346","lng":"13.504432"},
{"id":"689","name":"Walther, Uta","plz":"13055","strasse":"Reichenberger Str. 3","telefon":"+49 30 9714735 ","fachrichtung":"Kinder- und Jugendmedizin/Kinderheilkunde","lat":"52.540486","lng":"13.486846"},
{"id":"691","name":"Dr. Roth, Annett","plz":"13055","strasse":"Reichenberger Str. 3","telefon":"+49 30 9714735 ","fachrichtung":"Kinder- und Jugendmedizin/Kinderheilkunde","lat":"52.540486","lng":"13.486846"},
{"id":"693","name":"Singer, Ilona","plz":"13055","strasse":"Schalkauer Str. 33","telefon":"+49 30 98695397 ","fachrichtung":"Kinder- und Jugendmedizin/Kinderheilkunde","lat":"52.538032","lng":"13.508937"},
{"id":"695","name":"Molzahn, Iris","plz":"13055","strasse":"Werneuchener Str. 4","telefon":"+49 30 9864728 ","fachrichtung":"Kinder- und Jugendmedizin/Kinderheilkunde","lat":"52.541995","lng":"13.490353"},
{"id":"697","name":"Dr. Luzius, Beatrix","plz":"13055","strasse":"Werneuchener Str. 4","telefon":"+49 30 9864728 ","fachrichtung":"Kinder- und Jugendmedizin/Kinderheilkunde","lat":"52.541995","lng":"13.490353"},
{"id":"699","name":"Dr. Kröckel, Alexander","plz":"13057","strasse":"Falkenberger Chaussee 136","telefon":"+49 30 9286030 ","fachrichtung":"Kinder- und Jugendmedizin/Kinderheilkunde","lat":"52.567908","lng":"13.525763"},
{"id":"701","name":"Dr. Ciesla, Christa","plz":"13057","strasse":"Falkenberger Chaussee 136","telefon":"+49 30 9286030 ","fachrichtung":"Kinder- und Jugendmedizin/Kinderheilkunde","lat":"52.567908","lng":"13.525763"},
{"id":"703","name":"Dr. Vogt, Ingolf","plz":"13057","strasse":"Passower Str. 2","telefon":"+49 30 9281144 ","fachrichtung":"Kinder- und Jugendmedizin/Kinderheilkunde","lat":"52.566127","lng":"13.532412"}
]