[
{"id":"1489","name":"Spanowski, Silvia","plz":"10315","strasse":"Archenholdstr. 92","telefon":"+49 30 32890674","fachrichtung":"Heilpraktiker","lat":"52.502180","lng":"13.499737"},
{"id":"1491","name":"Spanowski, Sören","plz":"10315","strasse":"Archenholdstr. 92","telefon":"+49 30 32890674","fachrichtung":"Heilpraktiker","lat":"52.502180","lng":"13.499737"},
{"id":"1493","name":"Sommerfeld, Ricarda","plz":"10315","strasse":"Rosenfelder Ring 15","telefon":"+49 30 51488556","fachrichtung":"Heilpraktiker","lat":"52.511920","lng":"13.509291"},
{"id":"1495","name":"Wiemert, Cornelia","plz":"10315","strasse":"Rosenfelder Ring 147","telefon":"+49 30 51488577","fachrichtung":"Heilpraktiker","lat":"52.512065","lng":"13.510739"},
{"id":"1497","name":"Henkler, Jörg","plz":"10315","strasse":"Rummelsburger Str. 55c","telefon":"+49 30 5107927","fachrichtung":"Heilpraktiker","lat":"52.500840","lng":"13.501928"},
{"id":"1499","name":"Heinold, Marret","plz":"10317","strasse":"Pfarrstr. 121","telefon":"+49 30 55493983","fachrichtung":"Heilpraktiker","lat":"52.504454","lng":"13.476635"},
{"id":"1501","name":"Schüler, Silke","plz":"10318","strasse":"Gundelfinger Str. 16","telefon":"+49 30 50176941","fachrichtung":"Heilpraktiker","lat":"52.487270","lng":"13.525528"},
{"id":"1503","name":"Irrgang, Silke","plz":"10318","strasse":"Heiligenberger Str. 12","telefon":"+49 30 5099817","fachrichtung":"Heilpraktiker","lat":"52.480213","lng":"13.521731"},
{"id":"1505","name":"Schröder, Jana","plz":"10318","strasse":"Waldowallee 55","telefon":"+49 30 5030463","fachrichtung":"Heilpraktiker","lat":"52.487221","lng":"13.530461"},
{"id":"1507","name":"Kroll, Annette","plz":"10318","strasse":"Wandlitzstr. 17","telefon":"+49 30 50175657","fachrichtung":"Heilpraktiker","lat":"52.481590","lng":"13.521594"},
{"id":"1509","name":"Schwarzbach, Tatjana","plz":"10318","strasse":"Weseler Str. 13","telefon":"+49 30 5081925","fachrichtung":"Heilpraktiker","lat":"52.484138","lng":"13.527341"},
{"id":"1511","name":"März, Hendrik","plz":"10319","strasse":"Sewanstr. 178","telefon":"+49 30 50179470","fachrichtung":"Heilpraktiker","lat":"52.495953","lng":"13.510769"},
{"id":"1513","name":"Zacharias, Silke","plz":"10365","strasse":"Atzpodienstr. 42","telefon":"+49 30 4279597","fachrichtung":"Heilpraktiker","lat":"52.513525","lng":"13.492816"},
{"id":"1515","name":"Gaminski, Susanne","plz":"10365","strasse":"Frankfurter Allee 231A","telefon":"+49 30 57798871","fachrichtung":"Heilpraktiker","lat":"52.512704","lng":"13.495888"},
{"id":"1517","name":"Jost, Peter","plz":"10365","strasse":"Frankfurter Allee 231A","telefon":"+49 30 57798871","fachrichtung":"Heilpraktiker","lat":"52.512704","lng":"13.495888"},
{"id":"1519","name":"Schwalbe, Gabriele","plz":"10365","strasse":"Frankfurter Allee 231A","telefon":"+49 30 57798871","fachrichtung":"Heilpraktiker","lat":"52.512704","lng":"13.495888"},
{"id":"1521","name":"Wagner, Evelyn","plz":"10365","strasse":"Franz-Jacob-Str. 10","telefon":"+49 30 33021980","fachrichtung":"Heilpraktiker","lat":"52.528035","lng":"13.467313"},
{"id":"1523","name":"Grüschow, Sylvia","plz":"13051","strasse":"Prerower Platz 12","telefon":"+49 30 62204527","fachrichtung":"Heilpraktiker","lat":"52.564899","lng":"13.504838"},
{"id":"1525","name":"Hapka, Elke","plz":"13053","strasse":"Gehrenseestr. 38","telefon":"+49 30 9822536","fachrichtung":"Heilpraktiker","lat":"52.554128","lng":"13.523080"},
{"id":"1527","name":"Günther-Schellheimer, Hans","plz":"13053","strasse":"Orankestr. 19","telefon":"+49 30 9245007","fachrichtung":"Heilpraktiker","lat":"52.545123","lng":"13.488784"},
{"id":"1529","name":"Schan, Lutz","plz":"13055","strasse":"Große-Leege-Str. 12f","telefon":"+49 30 98695680","fachrichtung":"Heilpraktiker","lat":"52.544962","lng":"13.498831"},
{"id":"1531","name":"Hundt, Heidrun","plz":"13055","strasse":"Lichtenauer Str. 50","telefon":"+49 30 9818686","fachrichtung":"Heilpraktiker","lat":"52.541089","lng":"13.504623"},
{"id":"1533","name":"Runge, Wolfgang","plz":"13055","strasse":"Reichenberger Str. 3","telefon":"+49 30 2923194","fachrichtung":"Heilpraktiker","lat":"52.540486","lng":"13.486846"},
{"id":"1535","name":"Dreblow, Simone","plz":"13055","strasse":"Simon-Bolivar-Str. 3-7","telefon":"+49 30 91701468","fachrichtung":"Heilpraktiker","lat":"52.538473","lng":"13.485777"},
{"id":"1537","name":"Mürmann, Petra","plz":"13055","strasse":"Simon-Bolivar-Str. 3-7","telefon":"+49 30 66763061","fachrichtung":"Heilpraktiker","lat":"52.538473","lng":"13.485777"},
{"id":"1539","name":"Ebertus, Maren","plz":"13057","strasse":"Falkenberger Chaussee 134","telefon":"+49 30 92407219","fachrichtung":"Heilpraktiker","lat":"52.567701","lng":"13.525326"},
{"id":"1541","name":"Dr. Keil, Heike","plz":"13059","strasse":"Dorfstr. 9","telefon":"+49 30 96200726","fachrichtung":"Heilpraktiker","lat":"52.576230","lng":"13.483787"},
{"id":"1543","name":"Schmidt, Angela","plz":"13059","strasse":"Grevesmühlener Str. 30","telefon":"+49 30 42851510","fachrichtung":"Heilpraktiker","lat":"52.568911","lng":"13.518170"},
{"id":"1545","name":"Opitz, Jürgen","plz":"13059","strasse":"Straße 6 Nr. 36","telefon":"+49 30 92092161","fachrichtung":"Heilpraktiker","lat":"52.587721","lng":"13.533780"}
]