{"messages":{"messages":[],"success":null},"results":{"count":773,"items_per_page":null},"index":[
{"id":"1","name":"Mau\u00df, Monika","plz":"10315","strasse":"Alt-Friedrichsfelde 81","telefon":"+49 30 5137663 ","fachrichtung":"Allgemeinmedizin"},
{"id":"3","name":"Laubig,Katja","plz":"10315","strasse":"Archenholdstr. 36","telefon":"+49 30 5251509 ","fachrichtung":"Allgemeinmedizin"},
{"id":"5","name":"B\u00e4r, Andreas","plz":"10315","strasse":"Bietzkestr. 1 ","telefon":"+49 30 5251703 ","fachrichtung":"Allgemeinmedizin"},
{"id":"7","name":"Gro\u00df, Kerstin","plz":"10315","strasse":"Seddiner Str. 22","telefon":"+49 30 5138216 ","fachrichtung":"Allgemeinmedizin"},
{"id":"9","name":"Sch\u00f6ne, Juliane","plz":"10315","strasse":"Seddiner Str. 22","telefon":"+49 30 5138216 ","fachrichtung":"Allgemeinmedizin"},
{"id":"11","name":"Th\u00e4sler, Zsuzsanna","plz":"10315","strasse":"Rosenfelder Ring 15","telefon":"+49 30 5253601 ","fachrichtung":"Allgemeinmedizin"},
{"id":"13","name":"Deyda-Schulz, Gabriele","plz":"10315","strasse":"Rosenfelder Str. 18","telefon":"+49 30 5251235 ","fachrichtung":"Allgemeinmedizin"},
{"id":"15","name":"Drobniewski, Ulrike","plz":"10315","strasse":"Rummelsburger Str. 13","telefon":"+49 30 5101011 ","fachrichtung":"Allgemeinmedizin"},
{"id":"17","name":"Geister, Susanne","plz":"10315","strasse":"Rummelsburger Str. 13","telefon":"+49 30 5251436 ","fachrichtung":"Allgemeinmedizin"},
{"id":"19","name":"Lamprecht, Shiwka","plz":"10315","strasse":"Rummelsburger Str. 13","telefon":"+49 30 5132880 ","fachrichtung":"Allgemeinmedizin"},
{"id":"21","name":"Luthardt, Thomas","plz":"10315","strasse":"Rummelsburger Str. 13","telefon":"+49 30 5132882 ","fachrichtung":"Allgemeinmedizin"},
{"id":"23","name":"N\u00f6ther, Angela","plz":"10315","strasse":"Rummelsburger Str. 13","telefon":"+49 30 5101013 ","fachrichtung":"Allgemeinmedizin"},
{"id":"25","name":"Dr. Bruchelt, Gabriele","plz":"10315","strasse":"Zachertstr. 75","telefon":"+49 30 5253062 ","fachrichtung":"Allgemeinmedizin"},
{"id":"27","name":"Dr. Sperling, Rolf","plz":"10317","strasse":"Frankfurter Allee 276","telefon":"+49 30 5252160 ","fachrichtung":"Allgemeinmedizin"},
{"id":"29","name":"Dr. Prokop, Heidrun","plz":"10317","strasse":"W\u00f6nnichstr. 64","telefon":"+49 30 51009310 ","fachrichtung":"Allgemeinmedizin"},
{"id":"31","name":"Schaubert, Elsa","plz":"10318","strasse":"Ehrenfelsstr. 47","telefon":"+49 30 5085975 ","fachrichtung":"Allgemeinmedizin"},
{"id":"33","name":"Wuttke, Monika","plz":"10318","strasse":"Gundelfinger Str. 43","telefon":"+49 30 5099408 ","fachrichtung":"Allgemeinmedizin"},
{"id":"35","name":"Dr. Gottschalk, Karin","plz":"10318","strasse":"Lehndorffstr. 25","telefon":"+49 30 5098433 ","fachrichtung":"Allgemeinmedizin"},
{"id":"37","name":"Dr. Gottschalk, Klaus","plz":"10318","strasse":"Lehndorffstr. 25","telefon":"+49 30 5098433 ","fachrichtung":"Allgemeinmedizin"},
{"id":"39","name":"Dr. Powilleit, Edda","plz":"10318","strasse":"Rheinsteinstr. 2","telefon":"+49 30 5098872 ","fachrichtung":"Allgemeinmedizin"},
{"id":"41","name":"Choi, Kwang Ryul","plz":"10318","strasse":"Rheinsteinstr. 2","telefon":"+49 30 5090162 ","fachrichtung":"Allgemeinmedizin"},
{"id":"43","name":"G\u00fcthenke, Angelika","plz":"10318","strasse":"R\u00f6merweg 36","telefon":"+49 30 5099056 ","fachrichtung":"Allgemeinmedizin"},
{"id":"45","name":"Mut, Svetlana","plz":"10318","strasse":"R\u00f6merweg 36","telefon":"+49 30 5099056 ","fachrichtung":"Allgemeinmedizin"},
{"id":"47","name":"Stephani, Maritta","plz":"10318","strasse":"Treskowallee 128","telefon":"+49 30 5098277 ","fachrichtung":"Allgemeinmedizin"},
{"id":"49","name":"Heinevetter, Tino","plz":"10318","strasse":"Weseler Str. 17a","telefon":"+49 30 50379230 ","fachrichtung":"Allgemeinmedizin"},
{"id":"51","name":"Dr. Niepage, Christine","plz":"10318","strasse":"Wildensteiner Str. 9","telefon":"+49 30 5098444 ","fachrichtung":"Allgemeinmedizin"},
{"id":"53","name":"Dr. Heimpel, Caroline","plz":"10319","strasse":"Am Tierpark 125","telefon":"+49 30 5111064 ","fachrichtung":"Allgemeinmedizin"},
{"id":"55","name":"Niepel, Carola","plz":"10319","strasse":"Balatonstr. 20","telefon":"+49 30 5128026 ","fachrichtung":"Allgemeinmedizin"},
{"id":"57","name":"Wenzl, Birgit","plz":"10319","strasse":"Erich-Kurz-Str. 11","telefon":"+49 30 5121170 ","fachrichtung":"Allgemeinmedizin"},
{"id":"59","name":"Dr. Fibich, Georg","plz":"10319","strasse":"Dolgenseestr. 8","telefon":"+49 30 5128180 ","fachrichtung":"Allgemeinmedizin"},
{"id":"61","name":"Dr. Merkel, Barbara","plz":"10319","strasse":"Mellenseestr. 66","telefon":"+49 30 53019371 ","fachrichtung":"Allgemeinmedizin"},
{"id":"63","name":"Dr. Gerhard, Gabriele","plz":"10319","strasse":"Sewanstr. 176","telefon":"+49 30 5123157 ","fachrichtung":"Allgemeinmedizin"},
{"id":"65","name":"Dr. R\u00f6der, Karl-Heinz","plz":"10365","strasse":"Frankfurter Allee 165","telefon":"+49 30 55492134 ","fachrichtung":"Allgemeinmedizin"},
{"id":"67","name":"Dr. Scherf, Hans-Peter","plz":"10365","strasse":"Frankfurter Allee 165","telefon":"+49 30 5593227 ","fachrichtung":"Allgemeinmedizin"},
{"id":"69","name":"Paulsen, Jan","plz":"10365","strasse":"Frankfurter Allee 231A","telefon":"+49 30 55184245 ","fachrichtung":"Allgemeinmedizin"},
{"id":"71","name":"Dr. Phillipp, Udo","plz":"10365","strasse":"Frankfurter Allee 231A","telefon":"+49 30 55184250 ","fachrichtung":"Allgemeinmedizin"},
{"id":"73","name":"Dr. Gehring, Christa","plz":"10365","strasse":"Frankfurter Allee 231A","telefon":"+49 30 5588668 ","fachrichtung":"Allgemeinmedizin"},
{"id":"75","name":"Dr. Juncken, Rainer","plz":"10365","strasse":"Ruschestr. 103","telefon":"+49 30 5529247 ","fachrichtung":"Allgemeinmedizin"},
{"id":"77","name":"Pudras, Dunja","plz":"10365","strasse":"Ruschestr. 103","telefon":"+49 30 55153209 ","fachrichtung":"Allgemeinmedizin"},
{"id":"79","name":"Dr. Beetz, Heike","plz":"10365","strasse":"Siegfriedstr. 9","telefon":"+49 30 5597855 ","fachrichtung":"Allgemeinmedizin"},
{"id":"81","name":"Kamps, Harald","plz":"10367","strasse":"M\u00f6llendorffstr. 45","telefon":"+49 30 57797490 ","fachrichtung":"Allgemeinmedizin"},
{"id":"83","name":"Dr. Franke, Kerstin","plz":"10367","strasse":"M\u00f6llendorffstr. 106-107","telefon":"+49 30 5593597 ","fachrichtung":"Allgemeinmedizin"},
{"id":"85","name":"Dr. Uschinsky, Klaus","plz":"10367","strasse":"Paul-Zobel-Str. 8k","telefon":"+49 30 54378699 ","fachrichtung":"Allgemeinmedizin"},
{"id":"87","name":"SR Roloff, Annelies","plz":"10367","strasse":"Elli-Voigt-Str. 9","telefon":"+49 30 9720124 ","fachrichtung":"Allgemeinmedizin"},
{"id":"89","name":"Langhofer, Olga","plz":"10369","strasse":"Franz-Jacob-Str. 10","telefon":"+49 30 9728180 ","fachrichtung":"Allgemeinmedizin"},
{"id":"91","name":"Naumann, Thomas","plz":"10369","strasse":"Franz-Jacob-Str. 10","telefon":"+49 30 9751179 ","fachrichtung":"Allgemeinmedizin"},
{"id":"93","name":"Dr. Sch\u00e4fer, Katrin","plz":"10369","strasse":"Franz-Jacob-Str. 10","telefon":"+49 30 9714857 ","fachrichtung":"Allgemeinmedizin"},
{"id":"95","name":"Werner, Margot","plz":"10369","strasse":"Franz-Jacob-Str. 10","telefon":"+49 30 9714859 ","fachrichtung":"Allgemeinmedizin"},
{"id":"97","name":"Faist, Karen","plz":"10369","strasse":"Franz-Jacob-Str. 10","telefon":"+49 30 86204680 ","fachrichtung":"Allgemeinmedizin"},
{"id":"99","name":"Hilser, Andrea","plz":"10369","strasse":"Franz-Jacob-Str. 10","telefon":"+49 30 86204680 ","fachrichtung":"Allgemeinmedizin"},
{"id":"101","name":"Hofmann, Katrin","plz":"10369","strasse":"Franz-Jacob-Str. 10","telefon":"+49 30 86204680 ","fachrichtung":"Allgemeinmedizin"},
{"id":"103","name":"Dr. Przygoda, Helge","plz":"10369","strasse":"Landsberger Allee 171A","telefon":"+49 30 97603041","fachrichtung":"Allgemeinmedizin"},
{"id":"105","name":"Dr. M\u00e4kel, Monika","plz":"10369","strasse":"Landsberger Allee 131A","telefon":"+49 30 97104565 ","fachrichtung":"Allgemeinmedizin"},
{"id":"107","name":"Beckmann, Lea","plz":"10369","strasse":"Wei\u00dfenseer Weg 111","telefon":"+49 30 9759014 ","fachrichtung":"Allgemeinmedizin"},
{"id":"109","name":"Dr. Walt, Horst","plz":"10369","strasse":"Wei\u00dfenseer Weg 111","telefon":"+49 30 55491739 ","fachrichtung":"Allgemeinmedizin"},
{"id":"111","name":"Dr. Noll-Haiduga, Jutta","plz":"13051","strasse":"Dorfstr. 46","telefon":"+49 30 9230906 ","fachrichtung":"Allgemeinmedizin"},
{"id":"113","name":"Dr. Malinowski, Bernhard","plz":"13051","strasse":"Prerower Platz 4","telefon":"+49 30 9624840 ","fachrichtung":"Allgemeinmedizin"},
{"id":"115","name":"Ostermann, Marlen","plz":"13051","strasse":"Prerower Platz 4","telefon":"+49 30 9624840 ","fachrichtung":"Allgemeinmedizin"},
{"id":"117","name":"Radeke, Reinhard","plz":"13051","strasse":"Prerower Platz 4","telefon":"+49 30 9624840 ","fachrichtung":"Allgemeinmedizin"},
{"id":"119","name":"Wolff, Britta","plz":"13051","strasse":"Prerower Platz 4","telefon":"+49 30 9624840 ","fachrichtung":"Allgemeinmedizin"},
{"id":"121","name":"L\u00fcck, Annegret","plz":"13051","strasse":"Wiecker Str. 3c","telefon":"+49 30 9284030","fachrichtung":"Allgemeinmedizin"},
{"id":"123","name":"Kleina, Dagmar","plz":"13051","strasse":"Wiecker Str. 3c","telefon":"+49 30 9293093 ","fachrichtung":"Allgemeinmedizin"},
{"id":"125","name":"Dr. Schr\u00f6ter, Britta","plz":"13051","strasse":"Zingster Str. 1a","telefon":"+49 30 9289109 ","fachrichtung":"Allgemeinmedizin"},
{"id":"127","name":"Dr. Formazin, Heike","plz":"13051","strasse":"Barther Str. 10","telefon":"+49 30 9288119 ","fachrichtung":"Allgemeinmedizin"},
{"id":"129","name":"Seide, Claudia","plz":"13053","strasse":"Anna-Ebermann-Str. 21","telefon":"+49 30 9864492","fachrichtung":"Allgemeinmedizin"},
{"id":"131","name":"Dr. Knauer, Judit","plz":"13053","strasse":"Rotkamp 2","telefon":"+49 30 9277170 ","fachrichtung":"Allgemeinmedizin"},
{"id":"133","name":"Buntrock, Claudia","plz":"13053","strasse":"Tamseler Str. 56","telefon":"+49 30 98694271 ","fachrichtung":"Allgemeinmedizin"},
{"id":"135","name":"Weber, Inga","plz":"13055","strasse":"Landsberger Allee 219D","telefon":"+49 30 9719796 ","fachrichtung":"Allgemeinmedizin"},
{"id":"137","name":"Hausmann, Klaus","plz":"13055","strasse":"Landsberger Allee 277","telefon":"+49 30 98317010 ","fachrichtung":"Allgemeinmedizin"},
{"id":"139","name":"Baumbach, Annegret","plz":"13055","strasse":"Genslerstr. 13","telefon":"+49 30 9814815 ","fachrichtung":"Allgemeinmedizin"},
{"id":"141","name":"Leichsenring, Rolf","plz":"13055","strasse":"Hauptstr. 9","telefon":"+49 30 98607355 ","fachrichtung":"Allgemeinmedizin"},
{"id":"143","name":"Dr. Kley, Monika","plz":"13055","strasse":"Hauptstr. 50","telefon":"+49 30 9865403 ","fachrichtung":"Allgemeinmedizin"},
{"id":"145","name":"Schneider, Uta","plz":"13055","strasse":"Konrad-Wolf-Str. 12a","telefon":"+49 30 9864248 ","fachrichtung":"Allgemeinmedizin"},
{"id":"147","name":"B\u00f6l, Ursula","plz":"13055","strasse":"Konrad-Wolf-Str. 12a","telefon":"+49 30 9864248 ","fachrichtung":"Allgemeinmedizin"},
{"id":"149","name":"Lie\u00df, Kerstin","plz":"13055","strasse":"Konrad-Wolf-Str. 13a","telefon":"+49 30 9827007 ","fachrichtung":"Allgemeinmedizin"},
{"id":"151","name":"Jutzas, Ingrid","plz":"13055","strasse":"Konrad-Wolf-Str. 112","telefon":"+49 30 9816403 ","fachrichtung":"Allgemeinmedizin"},
{"id":"153","name":"Fackler, Heike","plz":"13055","strasse":"Konrad-Wolf-Str. 119","telefon":"+49 30 9812323 ","fachrichtung":"Allgemeinmedizin"},
{"id":"155","name":"Harnisch, Agnes","plz":"13055","strasse":"Reichenberger Str. 3","telefon":"+49 30 9714737 ","fachrichtung":"Allgemeinmedizin"},
{"id":"157","name":"Meyerrose, Sigrun","plz":"13055","strasse":"Reichenberger Str. 3","telefon":"+49 30 9714738 ","fachrichtung":"Allgemeinmedizin"},
{"id":"159","name":"Dr. Mainusch, Edda","plz":"13055","strasse":"Reichenberger Str. 3","telefon":"+49 30 9715208 ","fachrichtung":"Allgemeinmedizin"},
{"id":"161","name":"Clauss, Christa","plz":"13055","strasse":"Reichenberger Str. 3","telefon":"+49 30 9714737 ","fachrichtung":"Allgemeinmedizin"},
{"id":"163","name":"Dr. Grimm, Roland","plz":"13055","strasse":"Reichenberger Str. 3","telefon":"+49 30 9714721 ","fachrichtung":"Allgemeinmedizin"},
{"id":"165","name":"Dr. Wendler, Carola","plz":"13055","strasse":"Reichenberger Str. 3","telefon":"+49 30 9714737 ","fachrichtung":"Allgemeinmedizin"},
{"id":"167","name":"Dr. Tietze, Gabriele","plz":"13055","strasse":"Wei\u00dfenseer Weg 35","telefon":"+49 30 9721536 ","fachrichtung":"Allgemeinmedizin"},
{"id":"169","name":"Zschieschang, Sylke","plz":"13055","strasse":"Wei\u00dfenseer Weg 35","telefon":"+49 30 9721536 ","fachrichtung":"Allgemeinmedizin"},
{"id":"171","name":"Dr. Luzius, Beatrix","plz":"13055","strasse":"Werneuchener Str. 4","telefon":"+49 30 9864728 ","fachrichtung":"Allgemeinmedizin"},
{"id":"173","name":"Helms, Barbara","plz":"13055","strasse":"Schalkauer Str. 33","telefon":"+49 30 98695397","fachrichtung":"Allgemeinmedizin"},
{"id":"175","name":"Sternberg, Jacob Peter","plz":"13055","strasse":"Zechliner Str. 14","telefon":"+49 30 9750030","fachrichtung":"Allgemeinmedizin"},
{"id":"177","name":"Dr. Weber, R\u00fcdiger","plz":"13057","strasse":"Dorfstr. 32","telefon":"+49 30 9323134","fachrichtung":"Allgemeinmedizin"},
{"id":"179","name":"Dr. Schmidt, Ingetraud","plz":"13057","strasse":"Falkenberger Chaussee 134","telefon":"+49 30 92791704","fachrichtung":"Allgemeinmedizin"},
{"id":"181","name":"Dr. Schmidt, Wolfgang","plz":"13057","strasse":"Falkenberger Chaussee 134","telefon":"+49 30 92791704","fachrichtung":"Allgemeinmedizin"},
{"id":"183","name":"Dr. Vogt, Ingolf","plz":"13057","strasse":"Passower Str. 2","telefon":"+49 30 9281144","fachrichtung":"Allgemeinmedizin"},
{"id":"185","name":"Dr. Lossow, J\u00fcrgen","plz":"13057","strasse":"Randowstr. 34","telefon":"+49 30 9282155","fachrichtung":"Allgemeinmedizin"},
{"id":"187","name":"Dr. H\u00e4hnert, Susanne","plz":"13057","strasse":"Seehausener Str. 34","telefon":"+49 30 9283131","fachrichtung":"Allgemeinmedizin"},
{"id":"189","name":"Dr. Duderstaedt, Elvira","plz":"13059","strasse":"Egon-Erwin-Kisch-Str. 99","telefon":"+49 30 9289161","fachrichtung":"Allgemeinmedizin"},
{"id":"191","name":"Baude, Margit","plz":"13059","strasse":"Fennpfuhlweg 54","telefon":"+49 30 9206056","fachrichtung":"Allgemeinmedizin"},
{"id":"193","name":"Dr. Mei\u00dfner, Jobst","plz":"13059","strasse":"Lindenberger Str. 32","telefon":"+49 30 9293318","fachrichtung":"Allgemeinmedizin"},
{"id":"195","name":"Dr. Mei\u00dfner, Ute","plz":"13059","strasse":"Lindenberger Str. 32","telefon":"+49 30 9293318","fachrichtung":"Allgemeinmedizin"},
{"id":"197","name":"Dr. Schwurack, Sabine","plz":"13059","strasse":"Rostocker Str. 25-27","telefon":"+49 30 9294095","fachrichtung":"Allgemeinmedizin"},
{"id":"199","name":"Gurzynski, Annette","plz":"13059","strasse":"Neubrandenburger Str. 86","telefon":"+49 30 9288020","fachrichtung":"Allgemeinmedizin"},
{"id":"201","name":"Dr. Laude, Wolfgang","plz":"10315","strasse":"Seddiner Str. 22","telefon":"+49 30 5436688","fachrichtung":"Arzt\/Praktischer Arzt"},
{"id":"203","name":"Dr. Wolf, Joachim","plz":"10317","strasse":"Geusenstr. 16","telefon":"+49 30 5556877","fachrichtung":"Arzt\/Praktischer Arzt"},
{"id":"205","name":"Brehme, Sabine","plz":"10318","strasse":"Gundelfinger Str. 43","telefon":"+49 30 5099408","fachrichtung":"Arzt\/Praktischer Arzt"},
{"id":"207","name":"Dr. Fricke, Regina","plz":"10365","strasse":"Gotlindestr. 49","telefon":"+49 30 55498892","fachrichtung":"Arzt\/Praktischer Arzt"},
{"id":"209","name":"Dr. Kliche, Norbert","plz":"10365","strasse":"Herzbergstr. 128-139","telefon":"+49 30 54719999","fachrichtung":"Arzt\/Praktischer Arzt"},
{"id":"211","name":"Heim, Ilona","plz":"10367","strasse":"Paul-Zobel-Str. 27","telefon":"+49 30 5539030","fachrichtung":"Arzt\/Praktischer Arzt"},
{"id":"213","name":"Hinzer, Galina","plz":"10369","strasse":"Rudolf-Seiffert-Str. 11","telefon":"+49 30 9757513","fachrichtung":"Arzt\/Praktischer Arzt"},
{"id":"215","name":"Dr. Janert, Ulrich","plz":"13051","strasse":"Ribnitzer Str. 24","telefon":"+49 30 96204888","fachrichtung":"Arzt\/Praktischer Arzt"},
{"id":"217","name":"Schaller, Roswitha","plz":"13053","strasse":"Gehrenseestr. 100","telefon":"+49 30 9865401","fachrichtung":"Arzt\/Praktischer Arzt"},
{"id":"219","name":"Dr. Kindler, Manfred","plz":"13055","strasse":"Landsberger Allee 277A","telefon":"+49 30 9710810","fachrichtung":"Arzt\/Praktischer Arzt"},
{"id":"221","name":"Paetzel, Hansj\u00f6rg","plz":"13055","strasse":"Reichenberger Str. 3","telefon":"+49 30 9714737","fachrichtung":"Arzt\/Praktischer Arzt"},
{"id":"223","name":"Singer, Ilona","plz":"13055","strasse":"Schalkauer Str. 33","telefon":"+49 30 98695397","fachrichtung":"Arzt\/Praktischer Arzt"},
{"id":"225","name":"Dr. M\u00e4ding, Karsten","plz":"10365","strasse":"Frankfurter Allee 231A","telefon":"+49 30 55184201","fachrichtung":"An\u00e4sthesiologie"},
{"id":"227","name":"Dr. Phillipp, Udo","plz":"10365","strasse":"Frankfurter Allee 231A","telefon":"+49 30 55184250","fachrichtung":"An\u00e4sthesiologie"},
{"id":"229","name":"Dr. Kober, Mariana","plz":"10365","strasse":"Ruschestr. 103","telefon":"+49 30 5529260","fachrichtung":"An\u00e4sthesiologie"},
{"id":"231","name":"Dr. Castello, Roberto","plz":"13055","strasse":"Reichenberger Str. 3","telefon":"+49 30 9712090","fachrichtung":"An\u00e4sthesiologie"},
{"id":"233","name":"Schakols, Helga","plz":"10315","strasse":"Rummelsburger Str. 13","telefon":"+49 30 5251436","fachrichtung":"Augenheilkunde"},
{"id":"235","name":"Dr. Specht, Silke","plz":"10315","strasse":"Rummelsburger Str. 13","telefon":"+49 30 5251436","fachrichtung":"Augenheilkunde"},
{"id":"237","name":"Dr. Milek, Knut","plz":"10315","strasse":"Alfred-Kowalke-Str. 4","telefon":"+49 30 5251482","fachrichtung":"Augenheilkunde"},
{"id":"239","name":"Krause, Sigrid","plz":"10318","strasse":"D\u00f6nhoffstr. 2","telefon":"+49 30 5088208","fachrichtung":"Augenheilkunde"},
{"id":"241","name":"Dr. Br\u00fcckner, Bernd","plz":"10318","strasse":"Rheinsteinstr. 4","telefon":"+49 30 5098856","fachrichtung":"Augenheilkunde"},
{"id":"243","name":"Dr. Kastelewicz, Eike","plz":"10365","strasse":"Frankfurter Allee 231A","telefon":"+49 30 55184245","fachrichtung":"Augenheilkunde"},
{"id":"245","name":"Dr. Velhagen, Ulrich","plz":"10365","strasse":"Frankfurter Allee 231A","telefon":"+49 30 5588668","fachrichtung":"Augenheilkunde"},
{"id":"247","name":"Dr. Gehring, Christa","plz":"10365","strasse":"Frankfurter Allee 231A","telefon":"+49 30 5588668","fachrichtung":"Augenheilkunde"},
{"id":"249","name":"Gonzalez, Luisa","plz":"10365","strasse":"Frankfurter Allee 231A","telefon":"+49 30 5588668","fachrichtung":"Augenheilkunde"},
{"id":"251","name":"Dr. Thieme, Peter","plz":"10365","strasse":"Schottstr. 4","telefon":"+49 30 5596390","fachrichtung":"Augenheilkunde"},
{"id":"253","name":"Dr. Barth, Uwe","plz":"10367","strasse":"M\u00f6llendorffstr. 110","telefon":"+49 30 5592454","fachrichtung":"Augenheilkunde"},
{"id":"255","name":"Dr. Steinberg, Kathleen","plz":"10367","strasse":"M\u00f6llendorffstr. 116","telefon":"+49 30 81858912","fachrichtung":"Augenheilkunde"},
{"id":"257","name":"Wagner, Renate","plz":"10369","strasse":"Franz-Jacob-Str. 10","telefon":"+49 30 9713462","fachrichtung":"Augenheilkunde"},
{"id":"259","name":"Dr. Uschinsky, Marie-Luise","plz":"10369","strasse":"Wei\u00dfenseer Weg 111","telefon":"+49 30 9720036","fachrichtung":"Augenheilkunde"},
{"id":"261","name":"Arnold, Regine","plz":"10369","strasse":"Storkower Str. 207A","telefon":"+49 30 9713975","fachrichtung":"Augenheilkunde"},
{"id":"263","name":"Dr. Fritze, Sabine","plz":"13051","strasse":"Prerower Platz 4","telefon":"+49 30 9200026","fachrichtung":"Augenheilkunde"},
{"id":"265","name":"Ohrt,Ulrike","plz":"13053","strasse":"Rotkamp 2","telefon":"+49 30 96200151","fachrichtung":"Augenheilkunde"},
{"id":"267","name":"Hartmann, Elena","plz":"13055","strasse":"Hauptstr. 9","telefon":"+49 30 9715205","fachrichtung":"Augenheilkunde"},
{"id":"269","name":"Lehmann, Monika","plz":"13055","strasse":"Reichenberger Str. 3","telefon":"+49 30 9704949","fachrichtung":"Augenheilkunde"},
{"id":"271","name":"Glawe, Juliane","plz":"13059","strasse":"Grevesm\u00fchlener Str. 32","telefon":"+49 30 9286079","fachrichtung":"Augenheilkunde"},
{"id":"273","name":"Rechlin, Roswitha","plz":"13059","strasse":"Warnem\u00fcnder Str. 42","telefon":"+49 30 9288192","fachrichtung":"Augenheilkunde"},
{"id":"275","name":"Dr. Kalinowski, J\u00f6rg","plz":"10315","strasse":"Rummelsburger Str. 13","telefon":"+49 30 51069169","fachrichtung":"Chirurgie"},
{"id":"277","name":"Dr. Gerschner, Heinz","plz":"10315","strasse":"Rummelsburger Str. 13","telefon":"+49 30 5138291","fachrichtung":"Chirurgie"},
{"id":"279","name":"Dr. Br\u00e4utigam, Ralf-Peter","plz":"10317","strasse":"Irenenstr. 20","telefon":"+49 30 5229340","fachrichtung":"Chirurgie"},
{"id":"281","name":"Dr. Kl\u00f6tzer, Rainer","plz":"10317","strasse":"Irenenstr. 20","telefon":"+49 30 5229340","fachrichtung":"Chirurgie"},
{"id":"283","name":"M\u00fcnzberg, Gregor","plz":"10365","strasse":"Frankfurter Allee 231A","telefon":"+49 30 55184468","fachrichtung":"Chirurgie"},
{"id":"285","name":"Dr. Naumann, Kathrin","plz":"10365","strasse":"Frankfurter Allee 231A","telefon":"+49 30 55182917","fachrichtung":"Chirurgie"},
{"id":"287","name":"K\u00fchn, Wolfgang","plz":"10365","strasse":"Wotanstr. 16","telefon":"+49 30 5519510","fachrichtung":"Chirurgie"},
{"id":"289","name":"Schenk, Kurt","plz":"10367","strasse":"Am Stadtpark 1","telefon":"+49 30 5589416","fachrichtung":"Chirurgie"},
{"id":"291","name":"Dr. Trappe, Regine","plz":"10367","strasse":"M\u00f6llendorffstr. 45","telefon":"+49 30 54709234","fachrichtung":"Chirurgie"},
{"id":"293","name":"Dress, Hans-Thomas","plz":"10367","strasse":"M\u00f6llendorffstr. 52","telefon":"+49 30 57799999","fachrichtung":"Chirurgie"},
{"id":"295","name":"Dr. Uschinsky, Klaus","plz":"10367","strasse":"Paul-Zobel-Str. 8k","telefon":"+49 30 54378699","fachrichtung":"Chirurgie"},
{"id":"297","name":"Dr. L\u00fcbke, Matthias-J.","plz":"10369","strasse":"Franz-Jacob-Str. 10","telefon":"+49 30 9714863","fachrichtung":"Chirurgie"},
{"id":"299","name":"Dr. Seewald, Andr\u00e9","plz":"10369","strasse":"Franz-Jacob-Str. 10","telefon":"+49 30 9714863","fachrichtung":"Chirurgie"},
{"id":"301","name":"Ehrlichmann, Lutz","plz":"13051","strasse":"Prerower Platz 4","telefon":"+49 30 92707050","fachrichtung":"Chirurgie"},
{"id":"303","name":"Dr. Haase, Tankred","plz":"13051","strasse":"Prerower Platz 4","telefon":"+49 30 92707050","fachrichtung":"Chirurgie"},
{"id":"305","name":"Dr. Keller, Holger","plz":"13051","strasse":"Prerower Platz 4","telefon":"+49 30 92707050","fachrichtung":"Chirurgie"},
{"id":"307","name":"J\u00f6rgensen, Bj\u00f6rn","plz":"13051","strasse":"Prerower Platz 4","telefon":"+49 30 92707050","fachrichtung":"Chirurgie"},
{"id":"309","name":"Vogel, Ulrike","plz":"13051","strasse":"Prerower Platz 4","telefon":"+49 30 92707050","fachrichtung":"Chirurgie"},
{"id":"311","name":"Dr. Garz, Werner","plz":"13053","strasse":"Oberseestr. 86","telefon":"+49 30 55141209","fachrichtung":"Chirurgie"},
{"id":"313","name":"Dr. Kindler, Manfred","plz":"13055","strasse":"Landsberger Allee 277A","telefon":"+49 30 9710810","fachrichtung":"Chirurgie"},
{"id":"315","name":"Dr. Peter, Frank-Joachim","plz":"13055","strasse":"Reichenberger Str. 3","telefon":"+49 30 9714721","fachrichtung":"Chirurgie"},
{"id":"317","name":"Dr. Herkner, Matthias","plz":"13055","strasse":"Reichenberger Str. 3","telefon":"+49 30 9714721","fachrichtung":"Chirurgie"},
{"id":"319","name":"Dr. L\u00fcbke, Matthias","plz":"10369","strasse":"Franz-Jacob-Str. 10","telefon":"+49 30 9714863","fachrichtung":"Durchgangsarzt"},
{"id":"321","name":"Seewald, Andr\u00e9","plz":"10369","strasse":"Franz-Jacob-Str. 10","telefon":"+49 30 9714863","fachrichtung":"Durchgangsarzt"},
{"id":"323","name":"Dr. Noatnick, Marcel","plz":"10365","strasse":"Frankfurter Allee 231A","telefon":"+49 30 55669596","fachrichtung":"Kinderchirurgie"},
{"id":"325","name":"Rosswog, Heike","plz":"10365","strasse":"Frankfurter Allee 231A","telefon":"+49 30 55669596","fachrichtung":"Kinderchirurgie"},
{"id":"327","name":"Dr. Sch\u00f6ntube, Sebastian","plz":"10318","strasse":"Treskowallee 110","telefon":"+49 30 50382609","fachrichtung":"Mund-, Kiefer-, Gesichtschirurgie"},
{"id":"329","name":"Dr. Wandner, Hendrik","plz":"10318","strasse":"Treskowallee 110","telefon":"+49 30 50382609","fachrichtung":"Mund-, Kiefer-, Gesichtschirurgie"},
{"id":"331","name":"Dr. Dr. Kuhls, Rainer","plz":"10365","strasse":"Frankfurter Allee 231A","telefon":"+49 30 57798077","fachrichtung":"Mund-, Kiefer-, Gesichtschirurgie"},
{"id":"333","name":"Dr. Neisius, Thomas","plz":"10365","strasse":"Frankfurter Allee 231A","telefon":"+49 30 57798077","fachrichtung":"Mund-, Kiefer-, Gesichtschirurgie"},
{"id":"335","name":"Dr. Brzenska, Irina","plz":"10369","strasse":"Storkower Str. 207B","telefon":"+49 30 9720150","fachrichtung":"Mund-, Kiefer-, Gesichtschirurgie"},
{"id":"337","name":"Dr. Blumenthal-Barby, Gabriele","plz":"13055","strasse":"Landsberger Allee 201","telefon":"+49 30 9750853","fachrichtung":"Mund-, Kiefer-, Gesichtschirurgie"},
{"id":"339","name":"Wegner, Beate","plz":"10315","strasse":"Alt-Friedrichsfelde 1","telefon":"+49 30 5253028","fachrichtung":"Frauenheilkunde und Geburtshilfe"},
{"id":"341","name":"Dr. Kruse-Lenke, Stefanie","plz":"10315","strasse":"Rosenfelder Ring 15","telefon":"+49 30 5251384 ","fachrichtung":"Frauenheilkunde und Geburtshilfe"},
{"id":"343","name":"Dr. Proksch, Annette","plz":"10315","strasse":"Rummelsburger Str. 13","telefon":"+49 30 5132881 ","fachrichtung":"Frauenheilkunde und Geburtshilfe"},
{"id":"345","name":"Dr. Paech, Roswitha","plz":"10317","strasse":"Einbecker Str. 37","telefon":"+49 30 5251660 ","fachrichtung":"Frauenheilkunde und Geburtshilfe"},
{"id":"347","name":"Dr. Blasczyk, Markus","plz":"10317","strasse":"L\u00fcckstr. 72\/73","telefon":"+49 30 52219066 ","fachrichtung":"Frauenheilkunde und Geburtshilfe"},
{"id":"349","name":"Dr. Schilling, J\u00f6rg","plz":"10317","strasse":"W\u00f6nnichstr. 64\/66","telefon":"+49 30 5104118 ","fachrichtung":"Frauenheilkunde und Geburtshilfe"},
{"id":"351","name":"Dr. Till, Angelika","plz":"10317","strasse":"W\u00f6nnichstr. 64\/66","telefon":"+49 30 5104118 ","fachrichtung":"Frauenheilkunde und Geburtshilfe"},
{"id":"353","name":"Dr. Kohn, Andrea","plz":"10317","strasse":"W\u00f6nnichstr. 64\/66","telefon":"+49 30 5104118 ","fachrichtung":"Frauenheilkunde und Geburtshilfe"},
{"id":"355","name":"Dr. Vierck, Sabine","plz":"10318","strasse":"Rheinsteinstr. 4","telefon":"+49 30 5099780 ","fachrichtung":"Frauenheilkunde und Geburtshilfe"},
{"id":"357","name":"Dr. Pape, Christina","plz":"10318","strasse":"Treskowallee 110","telefon":"+49 30 5251330 ","fachrichtung":"Frauenheilkunde und Geburtshilfe"},
{"id":"359","name":"Hude, Svetlana","plz":"10318","strasse":"Treskowallee 128","telefon":"+49 30 50382874 ","fachrichtung":"Frauenheilkunde und Geburtshilfe"},
{"id":"361","name":"Odoy, Gabriela","plz":"10319","strasse":"Balatonstr. 20\/21","telefon":"+49 30 5129104 ","fachrichtung":"Frauenheilkunde und Geburtshilfe"},
{"id":"363","name":"Dr. Franke, Hartmut","plz":"10319","strasse":"Erich-Kurz-Str. 11","telefon":"+49 30 5121076 ","fachrichtung":"Frauenheilkunde und Geburtshilfe"},
{"id":"365","name":"Dr. Lebek, Holger","plz":"10365","strasse":"Frankfurter Allee 231A","telefon":"+49 30 5779870 ","fachrichtung":"Frauenheilkunde und Geburtshilfe"},
{"id":"367","name":"Liepe, Larissa","plz":"10365","strasse":"Frankfurter Allee 231A","telefon":"+49 30 5779870 ","fachrichtung":"Frauenheilkunde und Geburtshilfe"},
{"id":"369","name":"Dr. Paulick, Jeannett","plz":"10365","strasse":"Frankfurter Allee 231 A","telefon":"+49 30 5779870 ","fachrichtung":"Frauenheilkunde und Geburtshilfe"},
{"id":"371","name":"Klau\u00dfner, Barbara","plz":"10365","strasse":"Ruschestr. 103","telefon":"+49 30 5589082 ","fachrichtung":"Frauenheilkunde und Geburtshilfe"},
{"id":"373","name":"Dr. Kresse, Barbara","plz":"10367","strasse":"M\u00f6llendorffstr. 11","telefon":"+49 30 5594789 ","fachrichtung":"Frauenheilkunde und Geburtshilfe"},
{"id":"375","name":"Dr. Kittel, Kornelia","plz":"10367","strasse":"M\u00f6llendorffstr. 52","telefon":"+49 30 9821286 ","fachrichtung":"Frauenheilkunde und Geburtshilfe"},
{"id":"377","name":"Dr. Klare, Peter","plz":"10367","strasse":"M\u00f6llendorffstr. 52","telefon":"+49 30 9821286 ","fachrichtung":"Frauenheilkunde und Geburtshilfe"},
{"id":"379","name":"Dr. Wetzel, Antje","plz":"10367","strasse":"M\u00f6llendorffstr. 52","telefon":"+49 30 9821286 ","fachrichtung":"Frauenheilkunde und Geburtshilfe"},
{"id":"381","name":"Dr. Weyer, Joachim","plz":"10367","strasse":"M\u00f6llendorffstr. 52","telefon":"+49 30 9821286 ","fachrichtung":"Frauenheilkunde und Geburtshilfe"},
{"id":"383","name":"Dr. Bark, Doris","plz":"10367","strasse":"M\u00f6llendorffstr. 59","telefon":"+49 30 9729147 ","fachrichtung":"Frauenheilkunde und Geburtshilfe"},
{"id":"385","name":"Dr. Nausch\u00fctz, Birgit","plz":"10367","strasse":"M\u00f6llendorffstr. 116","telefon":"+49 30 55489335 ","fachrichtung":"Frauenheilkunde und Geburtshilfe"},
{"id":"387","name":"Dr. Raschke, Margitta","plz":"10369","strasse":"Franz-Jacob-Str. 10","telefon":"+49 30 9720141 ","fachrichtung":"Frauenheilkunde und Geburtshilfe"},
{"id":"389","name":"Dr. V\u00f6lker, Brigitte","plz":"10369","strasse":"Franz-Jacob-Str. 10","telefon":"+49 30 9714867 ","fachrichtung":"Frauenheilkunde und Geburtshilfe"},
{"id":"391","name":"Dr. Kavungu, Pita","plz":"10369","strasse":"Storkower Str. 207a","telefon":"+49 30 54709280 ","fachrichtung":"Frauenheilkunde und Geburtshilfe"},
{"id":"393","name":"Dr. Moser de Lopez, Anja","plz":"13051","strasse":"Prerower Platz 4","telefon":"+49 30 9295066 ","fachrichtung":"Frauenheilkunde und Geburtshilfe"},
{"id":"395","name":"Dr. K\u00f6niger, Wolfgang","plz":"13051","strasse":"Ribnitzer Str. 24","telefon":"+49 30 96204223 ","fachrichtung":"Frauenheilkunde und Geburtshilfe"},
{"id":"397","name":"Marquardt, Doris","plz":"13051","strasse":"Wustrower Str. 20","telefon":"+49 30 92799640 ","fachrichtung":"Frauenheilkunde und Geburtshilfe"},
{"id":"399","name":"Dr. Kehrer, Marei","plz":"13051","strasse":"Zingster Str. 7","telefon":"+49 30 96200070 ","fachrichtung":"Frauenheilkunde und Geburtshilfe"},
{"id":"401","name":"Dr. Langhofer, Maria","plz":"13053","strasse":"R\u00fcdickenstr. 10","telefon":"+49 30 9286044 ","fachrichtung":"Frauenheilkunde und Geburtshilfe"},
{"id":"403","name":"Dr. Meltonjan, Heike","plz":"13055","strasse":"Hauptstr. 9-10","telefon":"+49 30 9816754 ","fachrichtung":"Frauenheilkunde und Geburtshilfe"},
{"id":"405","name":"Hansen, Birgit","plz":"13055","strasse":"Landsberger Allee 201","telefon":"+49 30 97105457 ","fachrichtung":"Frauenheilkunde und Geburtshilfe"},
{"id":"407","name":"Dr. B\u00f6ttcher, Andrea","plz":"13055","strasse":"Landsberger Allee 277","telefon":"+49 30 97105340 ","fachrichtung":"Frauenheilkunde und Geburtshilfe"},
{"id":"409","name":"Dr. Spremberg, Dagmar","plz":"13055","strasse":"Landsberger Allee 277","telefon":"+49 30 97105340 ","fachrichtung":"Frauenheilkunde und Geburtshilfe"},
{"id":"411","name":"Boehme, Martina","plz":"13055","strasse":"Reichenberger Str. 3","telefon":"+49 30 9711234 ","fachrichtung":"Frauenheilkunde und Geburtshilfe"},
{"id":"413","name":"Dr. Burghardt, Susanne","plz":"13055","strasse":"Reichenberger Str. 3","telefon":"+49 30 9711234 ","fachrichtung":"Frauenheilkunde und Geburtshilfe"},
{"id":"415","name":"Dr. Fr\u00f6mming, Steffi","plz":"13057","strasse":"Passower Str. 36","telefon":"+49 30 9284147 ","fachrichtung":"Frauenheilkunde und Geburtshilfe"},
{"id":"417","name":"Berger, Swetlana","plz":"13057","strasse":"Falkenberger Chaussee 134-136","telefon":"+49 30 9911001 ","fachrichtung":"Frauenheilkunde und Geburtshilfe"},
{"id":"419","name":"Dr. Knobel, Barbara","plz":"13059","strasse":"Egon-Erwin-Kisch-Str. 32","telefon":"+49 30 9280126 ","fachrichtung":"Frauenheilkunde und Geburtshilfe"},
{"id":"421","name":"Hakenbeck, Eva","plz":"13059","strasse":"Grevesm\u00fchlener Str. 26","telefon":"+49 30 96204670 ","fachrichtung":"Frauenheilkunde und Geburtshilfe"},
{"id":"423","name":"Dr. Lukas, Ellen","plz":"13059","strasse":"Rostocker Str. 27-29","telefon":"+49 30 9294091 ","fachrichtung":"Frauenheilkunde und Geburtshilfe"},
{"id":"425","name":"Dr. Dewey, Sabine","plz":"10315","strasse":"Rummelsburger Str. 13","telefon":"+49 30 5351321","fachrichtung":"Hals-Nasen-Ohrenheilkunde"},
{"id":"427","name":"Dr. Sedlaczek, Nicolai Peter","plz":"10318","strasse":"Rheinsteinstr. 1","telefon":"+49 30 5090406","fachrichtung":"Hals-Nasen-Ohrenheilkunde"},
{"id":"429","name":"Dr. Lierow, Anne","plz":"10365","strasse":"Frankfurter Allee 231A","telefon":"+49 30 55184245","fachrichtung":"Hals-Nasen-Ohrenheilkunde"},
{"id":"431","name":"Ronneburger, Grit","plz":"10365","strasse":"Frankfurter Allee 231A","telefon":"+49 30 55184262","fachrichtung":"Hals-Nasen-Ohrenheilkunde"},
{"id":"433","name":"Dr. Herrmann, Simone","plz":"10365","strasse":"Schottstr. 2","telefon":"+49 30 5578371","fachrichtung":"Hals-Nasen-Ohrenheilkunde"},
{"id":"435","name":"L\u00fcth, Gabriele","plz":"10365","strasse":"Ruschestr. 103","telefon":"+49 30 5529256","fachrichtung":"Hals-Nasen-Ohrenheilkunde"},
{"id":"437","name":"Trachte, Heidemarie","plz":"10369","strasse":"Franz-Jacob-Str. 10","telefon":"+49 30 86204680","fachrichtung":"Hals-Nasen-Ohrenheilkunde"},
{"id":"439","name":"Berschadski, Marina","plz":"10369","strasse":"Franz-Jacob-Str. 10","telefon":"+49 30 86204680","fachrichtung":"Hals-Nasen-Ohrenheilkunde"},
{"id":"441","name":"Dr. Michalzik, Else","plz":"13051","strasse":"Prerower Platz 4","telefon":"+49 30 96204357","fachrichtung":"Hals-Nasen-Ohrenheilkunde"},
{"id":"443","name":"Be\u00dfler, Hans-Hasso","plz":"13055","strasse":"Gro\u00dfe-Leege-Str. 43a","telefon":"+49 30 97608158","fachrichtung":"Hals-Nasen-Ohrenheilkunde"},
{"id":"445","name":"Schilling, Christiane","plz":"13055","strasse":"Hauptstr. 9","telefon":"+49 30 9351120","fachrichtung":"Hals-Nasen-Ohrenheilkunde"},
{"id":"447","name":"Rachfall, Heike","plz":"13055","strasse":"Wei\u00dfenseer Weg 35","telefon":"+49 30 97104482","fachrichtung":"Hals-Nasen-Ohrenheilkunde"},
{"id":"449","name":"Richter, Anke","plz":"13055","strasse":"Wei\u00dfenseer Weg 35","telefon":"+49 30 97104482","fachrichtung":"Hals-Nasen-Ohrenheilkunde"},
{"id":"451","name":"Dr. Krause, Timea","plz":"13055","strasse":"Landsberger Allee 277","telefon":"+49 30 97104461","fachrichtung":"Hals-Nasen-Ohrenheilkunde"},
{"id":"453","name":"Dr. Schippel, Maria","plz":"13055","strasse":"Landsberger Allee 277","telefon":"+49 30 97104461","fachrichtung":"Hals-Nasen-Ohrenheilkunde"},
{"id":"455","name":"Fehland, Peter","plz":"13055","strasse":"Reichenberger Str. 3","telefon":"+49 30 9715209","fachrichtung":"Hals-Nasen-Ohrenheilkunde"},
{"id":"457","name":"Dr. Hippke, Elke","plz":"13057","strasse":"Falkenberger Chaussee 134","telefon":"+49 30 92092511","fachrichtung":"Hals-Nasen-Ohrenheilkunde"},
{"id":"459","name":"Dr. Wiedenhaupt, Regina","plz":"13059","strasse":"Egon-Erwin-Kisch-Str. 41","telefon":"+49 30 9290282","fachrichtung":"Hals-Nasen-Ohrenheilkunde"},
{"id":"461","name":"Rund, Evelyn","plz":"10317","strasse":"W\u00f6nnichstr. 38","telefon":"+49 30 5251018","fachrichtung":"Haut- und Geschlechtskrankheiten"},
{"id":"463","name":"Dr. Weber, Sylvia","plz":"10318","strasse":"Ehrenfelsstr. 47","telefon":"+49 30 5108614","fachrichtung":"Haut- und Geschlechtskrankheiten"},
{"id":"465","name":"Dr. Dr\u00e4ger, Erik G\u00fcnter","plz":"10365","strasse":"Frankfurter Allee 231A","telefon":"+49 30 55184286","fachrichtung":"Haut- und Geschlechtskrankheiten"},
{"id":"467","name":"Dr. Hoppe, Christian","plz":"10365","strasse":"Ruschestr. 103","telefon":"+49 30 5529236","fachrichtung":"Haut- und Geschlechtskrankheiten"},
{"id":"469","name":"Dr. L\u00fcbke, Martina","plz":"10369","strasse":"Franz-Jacob-Str. 10","telefon":"+49 30 86204680","fachrichtung":"Haut- und Geschlechtskrankheiten"},
{"id":"471","name":"Dr. Schirmeister, Anna-Bertha","plz":"10369","strasse":"Franz-Jacob-Str. 10","telefon":"+49 30 86204680","fachrichtung":"Haut- und Geschlechtskrankheiten"},
{"id":"473","name":"Kaczmarek, Christina","plz":"13051","strasse":"Prerower Platz 4","telefon":"+49 30 9292048","fachrichtung":"Haut- und Geschlechtskrankheiten"},
{"id":"475","name":"Dr. Eicholtz, Jeanette","plz":"13051","strasse":"Zingster Str. 2","telefon":"+49 30 96200771","fachrichtung":"Haut- und Geschlechtskrankheiten"},
{"id":"477","name":"Dr. B\u00f6hm, Kirsten","plz":"13053","strasse":"Gehrenseestr. 100","telefon":"+49 30 98695235","fachrichtung":"Haut- und Geschlechtskrankheiten"},
{"id":"479","name":"Deift, Natalia","plz":"13055","strasse":"Landsberger Allee 201","telefon":"+49 30 97106902","fachrichtung":"Haut- und Geschlechtskrankheiten"},
{"id":"481","name":"Dr. Wildfeuer, Thomas","plz":"13055","strasse":"Reichenberger Str. 3","telefon":"+49 30 9715208","fachrichtung":"Haut- und Geschlechtskrankheiten"},
{"id":"483","name":"Dr. Prochaska, Eva","plz":"13057","strasse":"Marie-Elisabeth-von-Humboldt-Str. 87","telefon":"+49 30 93770451","fachrichtung":"Haut- und Geschlechtskrankheiten"},
{"id":"485","name":"Dr. Buske, Annegret","plz":"10365","strasse":"Frankfurter Allee 231A","telefon":"+49 30 4229333","fachrichtung":"Humangenetik"},
{"id":"487","name":"Dr. Kinze, Miriam","plz":"10365","strasse":"Frankfurter Allee 231A","telefon":"+49 30 4229333","fachrichtung":"Humangenetik"},
{"id":"489","name":"Dr. Pfeiffer, Lutz","plz":"10365","strasse":"Frankfurter Allee 231A","telefon":"+49 30 4229333","fachrichtung":"Humangenetik"},
{"id":"491","name":"Singer, Uwe","plz":"10315","strasse":"Rosenfelder Ring 15","telefon":"+49 30 5251654","fachrichtung":"Innere Medizin"},
{"id":"493","name":"Lorenz, Christine","plz":"10315","strasse":"Alfred-Kowalke-Str. 39a","telefon":"+49 30 5104558","fachrichtung":"Innere Medizin"},
{"id":"495","name":"Liedke, Martina","plz":"10315","strasse":"Rummelsburger Str. 13","telefon":"+49 30 51065484","fachrichtung":"Innere Medizin"},
{"id":"497","name":"Dr. Matthes, Heide","plz":"10315","strasse":"Rummelsburger Str. 13","telefon":"+49 30 51065281","fachrichtung":"Innere Medizin"},
{"id":"499","name":"Dr. Merke, Nicolas","plz":"10315","strasse":"Rummelsburger Str. 13","telefon":"+49 30 5251436","fachrichtung":"Innere Medizin"},
{"id":"501","name":"Dr. Petzschmann, Stefan","plz":"10315","strasse":"Rummelsburger Str. 13","telefon":"+49 30 5253951","fachrichtung":"Innere Medizin"},
{"id":"503","name":"Dr. Schulze, Katrin","plz":"10315","strasse":"Rummelsburger Str. 13","telefon":"+49 30 5252388","fachrichtung":"Innere Medizin"},
{"id":"505","name":"Dr. Schwabe, Claudia","plz":"10315","strasse":"Rummelsburger Str. 13","telefon":"+49 30 51062640","fachrichtung":"Innere Medizin"},
{"id":"507","name":"Dr. Wittkopf, Sybille","plz":"10317","strasse":"T\u00fcrrschmidtstr. 7\/8","telefon":"+49 30 5536655","fachrichtung":"Innere Medizin"},
{"id":"509","name":"Dr. Kahl, Aline","plz":"10317","strasse":"W\u00f6nnichstr. 64\/66","telefon":"+49 30 51009310","fachrichtung":"Innere Medizin"},
{"id":"511","name":"Dr. Mro\u00df, Michael","plz":"10318","strasse":"Ehrenfelsstr. 47","telefon":"+49 30 5293310","fachrichtung":"Innere Medizin"},
{"id":"513","name":"Dr. von Mezynski, Eberhard","plz":"10318","strasse":"R\u00f6merweg 36","telefon":"+49 30 5099142","fachrichtung":"Innere Medizin"},
{"id":"515","name":"Dr. Ventz, Uta","plz":"10318","strasse":"Ehrenfelsstr. 46","telefon":"+49 30 5099509","fachrichtung":"Innere Medizin"},
{"id":"517","name":"Dr. Genschorek, Christine","plz":"10318","strasse":"Treskowallee 99","telefon":"+49 30 5090313","fachrichtung":"Innere Medizin"},
{"id":"519","name":"Dr. Belian, Heike","plz":"10318","strasse":"Rheinsteinstr. 1","telefon":"+49 30 50382589","fachrichtung":"Innere Medizin"},
{"id":"521","name":"Dr. Hort, Irina","plz":"10318","strasse":"Treskowallee 128","telefon":"+49 30 5090090","fachrichtung":"Innere Medizin"},
{"id":"523","name":"B\u00e4r, Peter","plz":"10319","strasse":"Otto-Schmirgal-Str. 5","telefon":"+49 30 51099043","fachrichtung":"Innere Medizin"},
{"id":"525","name":"Kretschmer, Evelin","plz":"10319","strasse":"Volkradstr. 32","telefon":"+49 30 5129026","fachrichtung":"Innere Medizin"},
{"id":"527","name":"Dr. Reitzig, Peter-Christian","plz":"10365","strasse":"Frankfurter Allee 231A","telefon":"+49 30 55184245","fachrichtung":"Innere Medizin"},
{"id":"529","name":"Dr. Sautter, Monika","plz":"10365","strasse":"Frankfurter Allee 231A","telefon":"+49 30 55184245","fachrichtung":"Innere Medizin"},
{"id":"531","name":"Dr. Gollasch, Hella","plz":"10365","strasse":"Frankfurter Allee 231A","telefon":"+49 30 940155130","fachrichtung":"Innere Medizin"},
{"id":"533","name":"Dr. Heim, J\u00fcrgen","plz":"10365","strasse":"Frankfurter Allee 231A","telefon":"+49 30 55184245 ","fachrichtung":"Innere Medizin"},
{"id":"535","name":"Dr. Voigt, Erich","plz":"10365","strasse":"Frankfurter Allee 231A","telefon":"+49 30 55183636 ","fachrichtung":"Innere Medizin"},
{"id":"537","name":"Dr. Kuschmann, Axel","plz":"10365","strasse":"Frankfurter Allee 165","telefon":"+49 30 5593227 ","fachrichtung":"Innere Medizin"},
{"id":"539","name":"Dr. Abu Daher, Rafat","plz":"10365","strasse":"Frankfurter Allee 241","telefon":"+49 30 55499745 ","fachrichtung":"Innere Medizin"},
{"id":"541","name":"Lauxtermann, Jann-Peter","plz":"10365","strasse":"Frankfurter Allee 241","telefon":"+49 30 55499745 ","fachrichtung":"Innere Medizin"},
{"id":"543","name":"Dr. Pospiech, Rainer","plz":"10365","strasse":"Frankfurter Allee 250","telefon":"+49 30 5509361 ","fachrichtung":"Innere Medizin"},
{"id":"545","name":"Dr. Wirth, Anja","plz":"10365","strasse":"Mauritiuskirchstr. 3","telefon":"+49 30 55488125 ","fachrichtung":"Innere Medizin"},
{"id":"547","name":"Dr. Janiszewski, Inge","plz":"10365","strasse":"Ruschestr. 103","telefon":"+49 30 5529243 ","fachrichtung":"Innere Medizin"},
{"id":"549","name":"Dr. Pensold, Susanne","plz":"10365","strasse":"Ruschestr. 103","telefon":"+49 30 55151323 ","fachrichtung":"Innere Medizin"},
{"id":"551","name":"Dr. Franz, Andrea","plz":"10365","strasse":"Schottstr. 4","telefon":"+49 30 55489130 ","fachrichtung":"Innere Medizin"},
{"id":"553","name":"Dr. Nawka, Stefan","plz":"10365","strasse":"Wotanstr. 16","telefon":"+49 30 5519510 ","fachrichtung":"Innere Medizin"},
{"id":"555","name":"Roloff, Annelies","plz":"10367","strasse":"Elli-Voigt-Str. 9","telefon":"+49 30 9720124 ","fachrichtung":"Innere Medizin"},
{"id":"557","name":"Dr. Otto, Franz","plz":"10367","strasse":"M\u00f6llendorffstr. 45","telefon":"+49 30 55490860 ","fachrichtung":"Innere Medizin"},
{"id":"559","name":"Dr. F\u00f6rster, Andreas","plz":"10367","strasse":"M\u00f6llendorffstr. 111","telefon":"+49 30 5577370 ","fachrichtung":"Innere Medizin"},
{"id":"561","name":"Dr. F\u00f6rster, Karin","plz":"10367","strasse":"M\u00f6llendorffstr. 111","telefon":"+49 30 5577370 ","fachrichtung":"Innere Medizin"},
{"id":"563","name":"Heim, Ilona","plz":"10367","strasse":"Paul-Zobel-Str. 27","telefon":"+49 30 5539030 ","fachrichtung":"Innere Medizin"},
{"id":"565","name":"Dr. Kramm, Heinz-Jochen","plz":"10369","strasse":"Franz-Jacob-Str. 10","telefon":"+49 30 86204680 ","fachrichtung":"Innere Medizin"},
{"id":"567","name":"Schmidt, Esther","plz":"10369","strasse":"Franz-Jacob-Str. 10","telefon":"+49 30 42087765 ","fachrichtung":"Innere Medizin"},
{"id":"569","name":"Dr. Zimmer, Uta","plz":"10369","strasse":"Franz-Jacob-Str. 10","telefon":"+49 30 98607737 ","fachrichtung":"Innere Medizin"},
{"id":"571","name":"Dr. Grad, Marc Oliver","plz":"10369","strasse":"Franz-Jacob-Str. 10","telefon":"+49 30 86204680 ","fachrichtung":"Innere Medizin"},
{"id":"573","name":"Dr. Henschen, Matthias","plz":"10369","strasse":"Franz-Jacob-Str. 10","telefon":"+49 30 86204680 ","fachrichtung":"Innere Medizin"},
{"id":"575","name":"Dr. Hesse, Barbara","plz":"10369","strasse":"Franz-Jacob-Str. 10","telefon":"+49 30 86204680 ","fachrichtung":"Innere Medizin"},
{"id":"577","name":"Dr. Lienert, Thomas","plz":"10369","strasse":"Franz-Jacob-Str. 10","telefon":"+49 30 86204680 ","fachrichtung":"Innere Medizin"},
{"id":"579","name":"Dr. Nerenheim, Anabell","plz":"10369","strasse":"Franz-Jacob-Str. 10","telefon":"+49 30 86204680 ","fachrichtung":"Innere Medizin"},
{"id":"581","name":"Dr. Reuter, Hartmut","plz":"10369","strasse":"Franz-Jacob-Str. 10","telefon":"+49 30 86204680 ","fachrichtung":"Innere Medizin"},
{"id":"583","name":"Dr. Roediger, Friederike","plz":"10369","strasse":"Franz-Jacob-Str. 10","telefon":"+49 30 86204680 ","fachrichtung":"Innere Medizin"},
{"id":"585","name":"Dr. Sebert, Michael","plz":"10369","strasse":"Franz-Jacob-Str. 10","telefon":"+49 30 86204680 ","fachrichtung":"Innere Medizin"},
{"id":"587","name":"Dr. Vogelbusch, Miriam","plz":"10369","strasse":"Franz-Jacob-Str. 10","telefon":"+49 30 86204680 ","fachrichtung":"Innere Medizin"},
{"id":"589","name":"Dr. Wulff, Hildegard","plz":"10369","strasse":"Franz-Jacob-Str. 10","telefon":"+49 30 86204680 ","fachrichtung":"Innere Medizin"},
{"id":"591","name":"Dr. Schatz, Marie-Luise","plz":"10369","strasse":"Landsberger Allee 131A","telefon":"+49 30 9705025 ","fachrichtung":"Innere Medizin"},
{"id":"593","name":"Fiedler, Renate","plz":"10369","strasse":"Rudolf-Seiffert-Str. 11","telefon":"+49 30 9720096 ","fachrichtung":"Innere Medizin"},
{"id":"595","name":"Dr. Sch\u00f6nleiter, Bernd","plz":"10369","strasse":"Rudolf-Seiffert-Str. 11","telefon":"+49 30 9729059 ","fachrichtung":"Innere Medizin"},
{"id":"597","name":"Dr. Roeder, Sabine","plz":"10369","strasse":"Rudolf-Seiffert-Str. 11","telefon":"+49 30 9754108 ","fachrichtung":"Innere Medizin"},
{"id":"599","name":"Dr. Pscheidl, Karin","plz":"10369","strasse":"Wei\u00dfenseer Weg 111","telefon":"+49 30 97606331 ","fachrichtung":"Innere Medizin"},
{"id":"601","name":"Zeps, Monika","plz":"13051","strasse":"Nienhagener Str. 5","telefon":"+49 30 96204207 ","fachrichtung":"Innere Medizin"},
{"id":"603","name":"Dr. Balewski, Uta","plz":"13051","strasse":"Prerower Platz 4","telefon":"+49 30 9624840 ","fachrichtung":"Innere Medizin"},
{"id":"605","name":"Dr. Lorenz, Babette","plz":"13051","strasse":"Prerower Platz 4","telefon":"+49 30 9297097 ","fachrichtung":"Innere Medizin"},
{"id":"607","name":"Dr. Morgera, Stanislao","plz":"13051","strasse":"Prerower Platz 4","telefon":"+49 30 9297097 ","fachrichtung":"Innere Medizin"},
{"id":"609","name":"L\u00fcck, Gunhild","plz":"13051","strasse":"Prerower Platz 4","telefon":"+49 30 9294094 ","fachrichtung":"Innere Medizin"},
{"id":"611","name":"Preppernau, Martina","plz":"13051","strasse":"Prerower Platz 4","telefon":"+49 30 9208073 ","fachrichtung":"Innere Medizin"},
{"id":"613","name":"Dr. Parsi, Elke","plz":"13053","strasse":"Suermondtstr. 13","telefon":"+49 30 9864639 ","fachrichtung":"Innere Medizin"},
{"id":"615","name":"Dr. Rudolph, Christian","plz":"13055","strasse":"Landsberger Allee 277A","telefon":"+49 30 9710810 ","fachrichtung":"Innere Medizin"},
{"id":"617","name":"Dr. Feige, Sabine","plz":"13055","strasse":"Landsberger Allee 309","telefon":"+49 30 9817707 ","fachrichtung":"Innere Medizin"},
{"id":"619","name":"Dr. Salha, Maemoun","plz":"13055","strasse":"Hauptstr. 9-10","telefon":"+49 30 9824019 ","fachrichtung":"Innere Medizin"},
{"id":"621","name":"Dr. Zinke, Silke","plz":"13055","strasse":"Hauptstr. 9","telefon":"+49 30 98695230 ","fachrichtung":"Innere Medizin"},
{"id":"623","name":"Dr. Slisow, Brigitte","plz":"13055","strasse":"Landsberger Allee 201","telefon":"+49 30 97104409 ","fachrichtung":"Innere Medizin"},
{"id":"625","name":"Dr. Zels, Erhard","plz":"13055","strasse":"Plauener Str. 26","telefon":"+49 30 9817881 ","fachrichtung":"Innere Medizin"},
{"id":"627","name":"Dr. Krombholz, Yvonne","plz":"13055","strasse":"Reichenberger Str. 3","telefon":"+49 30 97106060 ","fachrichtung":"Innere Medizin"},
{"id":"629","name":"Dr. Rummel, Daniela","plz":"13055","strasse":"Reichenberger Str. 3","telefon":"+49 30 9713724 ","fachrichtung":"Innere Medizin"},
{"id":"631","name":"Dr. Rummel, Reinhard","plz":"13055","strasse":"Reichenberger Str. 3","telefon":"+49 30 9713724 ","fachrichtung":"Innere Medizin"},
{"id":"633","name":"Dr. Ryschka, Andreas","plz":"13055","strasse":"Reichenberger Str. 3","telefon":"+49 30 9713724 ","fachrichtung":"Innere Medizin"},
{"id":"635","name":"Dr. Heimbach, Karsten","plz":"13055","strasse":"Reichenberger Str. 3","telefon":"+49 30 9287011 ","fachrichtung":"Innere Medizin"},
{"id":"637","name":"Dr. Tosch-Sisting, Regina","plz":"13055","strasse":"Werneuchener Str. 22","telefon":"+49 30 9864068 ","fachrichtung":"Innere Medizin"},
{"id":"639","name":"Dr. Schnabl, Christian","plz":"13057","strasse":"Falkenberger Chaussee 134","telefon":"+49 30 9285043 ","fachrichtung":"Innere Medizin"},
{"id":"641","name":"Dr. Sch\u00e4fer, Ralf-Olaf","plz":"13057","strasse":"Randowstr. 22","telefon":"+49 30 9206229 ","fachrichtung":"Innere Medizin"},
{"id":"643","name":"Dr. Kl\u00fcnder-Genth, Angelika","plz":"13057","strasse":"Randowstr. 34","telefon":"+49 30 9280144 ","fachrichtung":"Innere Medizin"},
{"id":"645","name":"Dr. Duderstaedt, Bernd","plz":"13059","strasse":"Egon-Erwin-Kisch-Str. 99","telefon":"+49 30 9289161 ","fachrichtung":"Innere Medizin"},
{"id":"647","name":"Dr. Schulte, Marianne","plz":"13059","strasse":"Grevesm\u00fchlener Str. 26","telefon":"+49 30 9245220 ","fachrichtung":"Innere Medizin"},
{"id":"649","name":"H\u00f6rnlein, Ursula","plz":"10315","strasse":"Alfred-Kowalke-Str. 40a","telefon":"+49 30 5139766 ","fachrichtung":"Kinder- und Jugendmedizin\/Kinderheilkunde"},
{"id":"651","name":"Zelazny, Elke","plz":"10315","strasse":"Alfred-Kowalke-Str. 40a","telefon":"+49 30 5139766 ","fachrichtung":"Kinder- und Jugendmedizin\/Kinderheilkunde"},
{"id":"653","name":"Dr. Drenckhahn, Anne","plz":"10315","strasse":"Rummelsburger Str. 13","telefon":"+49 30 5101015 ","fachrichtung":"Kinder- und Jugendmedizin\/Kinderheilkunde"},
{"id":"655","name":"Prof. Dr. Stephan, Volker","plz":"10315","strasse":"Rummelsburger Str. 13","telefon":"+49 30 5101015 ","fachrichtung":"Kinder- und Jugendmedizin\/Kinderheilkunde"},
{"id":"657","name":"R\u00f6blitz, Holger","plz":"10315","strasse":"Rummelsburger Str. 13","telefon":"+49 30 5101015 ","fachrichtung":"Kinder- und Jugendmedizin\/Kinderheilkunde"},
{"id":"659","name":"Dr. Schuppe, Dagmar","plz":"10318","strasse":"Ehrenfelsstr. 47","telefon":"+49 30 5099963 ","fachrichtung":"Kinder- und Jugendmedizin\/Kinderheilkunde"},
{"id":"661","name":"Dr. Gottschalk, Karin","plz":"10318","strasse":"Lehndorffstr. 25","telefon":"+49 30 5098433 ","fachrichtung":"Kinder- und Jugendmedizin\/Kinderheilkunde"},
{"id":"663","name":"Dr. Kr\u00fcger, Silvia","plz":"10318","strasse":"Treskowallee 108","telefon":"+49 30 5087827 ","fachrichtung":"Kinder- und Jugendmedizin\/Kinderheilkunde"},
{"id":"665","name":"Dr. Niederkirchner, K\u00e4te","plz":"10319","strasse":"Balatonstr. 20","telefon":"+49 30 5128148 ","fachrichtung":"Kinder- und Jugendmedizin\/Kinderheilkunde"},
{"id":"667","name":"Dr. Keipus, Ulrike","plz":"10365","strasse":"Frankfurter Allee 231A","telefon":"+49 30 55184040 ","fachrichtung":"Kinder- und Jugendmedizin\/Kinderheilkunde"},
{"id":"669","name":"Schnorr, Karin","plz":"10365","strasse":"Frankfurter Allee 231A","telefon":"+49 30 55184040 ","fachrichtung":"Kinder- und Jugendmedizin\/Kinderheilkunde"},
{"id":"671","name":"Eike, Esther","plz":"10365","strasse":"Gotlindestr. 2-20","telefon":"+49 30 55185202 ","fachrichtung":"Kinder- und Jugendmedizin\/Kinderheilkunde"},
{"id":"673","name":"Dr. Haberland, Holger","plz":"10365","strasse":"Fanningerstr. 32","telefon":"+49 30 55185274 ","fachrichtung":"Kinder- und Jugendmedizin\/Kinderheilkunde"},
{"id":"675","name":"Polleichtner, Marietta","plz":"10365","strasse":"Schulze-Boysen-Str. 32","telefon":"+49 30 5593417 ","fachrichtung":"Kinder- und Jugendmedizin\/Kinderheilkunde"},
{"id":"677","name":"Schmiegel, Marlo-Ilona","plz":"10365","strasse":"Schulze-Boysen-Str. 32","telefon":"+49 30 5593417 ","fachrichtung":"Kinder- und Jugendmedizin\/Kinderheilkunde"},
{"id":"679","name":"Kinder\u00e4rzte im Polikum","plz":"10369","strasse":"Franz-Jacob-Str. 10","telefon":"+49 30 86204680 ","fachrichtung":"Kinder- und Jugendmedizin\/Kinderheilkunde"},
{"id":"681","name":"Dr. L\u00fcder, Steffen","plz":"13051","strasse":"Prerower Platz 4","telefon":"+49 30 9298032 ","fachrichtung":"Kinder- und Jugendmedizin\/Kinderheilkunde"},
{"id":"683","name":"Dr. Wurl, Gudrun","plz":"13053","strasse":"Gehrenseestr. 100","telefon":"+49 30 9865135 ","fachrichtung":"Kinder- und Jugendmedizin\/Kinderheilkunde"},
{"id":"685","name":"Staufenbiel, Elke","plz":"13053","strasse":"Rotkamp 11","telefon":"+49 30 9294005 ","fachrichtung":"Kinder- und Jugendmedizin\/Kinderheilkunde"},
{"id":"687","name":"Pl\u00fcnsch, Renate","plz":"13055","strasse":"Hauptstr. 9d","telefon":"+49 30 9865241 ","fachrichtung":"Kinder- und Jugendmedizin\/Kinderheilkunde"},
{"id":"689","name":"Walther, Uta","plz":"13055","strasse":"Reichenberger Str. 3","telefon":"+49 30 9714735 ","fachrichtung":"Kinder- und Jugendmedizin\/Kinderheilkunde"},
{"id":"691","name":"Dr. Roth, Annett","plz":"13055","strasse":"Reichenberger Str. 3","telefon":"+49 30 9714735 ","fachrichtung":"Kinder- und Jugendmedizin\/Kinderheilkunde"},
{"id":"693","name":"Singer, Ilona","plz":"13055","strasse":"Schalkauer Str. 33","telefon":"+49 30 98695397 ","fachrichtung":"Kinder- und Jugendmedizin\/Kinderheilkunde"},
{"id":"695","name":"Molzahn, Iris","plz":"13055","strasse":"Werneuchener Str. 4","telefon":"+49 30 9864728 ","fachrichtung":"Kinder- und Jugendmedizin\/Kinderheilkunde"},
{"id":"697","name":"Dr. Luzius, Beatrix","plz":"13055","strasse":"Werneuchener Str. 4","telefon":"+49 30 9864728 ","fachrichtung":"Kinder- und Jugendmedizin\/Kinderheilkunde"},
{"id":"699","name":"Dr. Kr\u00f6ckel, Alexander","plz":"13057","strasse":"Falkenberger Chaussee 136","telefon":"+49 30 9286030 ","fachrichtung":"Kinder- und Jugendmedizin\/Kinderheilkunde"},
{"id":"701","name":"Dr. Ciesla, Christa","plz":"13057","strasse":"Falkenberger Chaussee 136","telefon":"+49 30 9286030 ","fachrichtung":"Kinder- und Jugendmedizin\/Kinderheilkunde"},
{"id":"703","name":"Dr. Vogt, Ingolf","plz":"13057","strasse":"Passower Str. 2","telefon":"+49 30 9281144 ","fachrichtung":"Kinder- und Jugendmedizin\/Kinderheilkunde"},
{"id":"705","name":"Dr. Reinhold, Matthias","plz":"10319","strasse":"Balatonstr. 20","telefon":"+49 30 54718070","fachrichtung":"Kinder- und Jugendpsychiatrie und Psychotherapie"},
{"id":"707","name":"Borisov, Vasilij","plz":"10365","strasse":"Herzbergstr. 82","telefon":"+49 30 55051233","fachrichtung":"Kinder- und Jugendpsychiatrie und Psychotherapie"},
{"id":"709","name":"Remde, Heike","plz":"13057","strasse":"Falkenberger Chaussee 134-136","telefon":"+49 30 92092166","fachrichtung":"Kinder- und Jugendpsychiatrie und Psychotherapie"},
{"id":"711","name":"Schneider, Joachim","plz":"13057","strasse":"Falkenberger Chaussee 134-136","telefon":"+49 30 92092166","fachrichtung":"Kinder- und Jugendpsychiatrie und Psychotherapie"},
{"id":"713","name":"Hoppe, Gerrit","plz":"10365","strasse":"Schottstr. 4","telefon":"+49 30 55489130","fachrichtung":"Lungen- und Bronchialheilkunde"},
{"id":"715","name":"Dr. Ponitz, Hans-Hermann","plz":"10365","strasse":"Schottstr. 4","telefon":"+49 30 55489130","fachrichtung":"Lungen- und Bronchialheilkunde"},
{"id":"717","name":"Dr. Askar, Bader","plz":"13057","strasse":"Falkenberger Chaussee 134","telefon":"+49 30 96200700","fachrichtung":"Lungen- und Bronchialheilkunde"},
{"id":"719","name":"Dr. Koerner, Herbert","plz":"10318","strasse":"Liepnitzstr. 16","telefon":"+49 30 5087113","fachrichtung":"Manuelle Medizin\/Chirotherapie"},
{"id":"721","name":"Dr. Hinzmann, J\u00f6rn L.","plz":"10318","strasse":"Wildensteiner Str. 32","telefon":"+49 30 5010020","fachrichtung":"Manuelle Medizin\/Chirotherapie"},
{"id":"723","name":"Cal\u00e1bria-Hinzmann, Francisca M.","plz":"10318","strasse":"Wildensteiner Str. 32","telefon":"+49 30 5010020","fachrichtung":"Manuelle Medizin\/Chirotherapie"},
{"id":"725","name":"Haak, Katrin","plz":"10315","strasse":"Marzahner Chaussee 9","telefon":"+49 30 5436363 ","fachrichtung":"Nervenheilkunde\/Neurologie und Psychiatrie"},
{"id":"727","name":"Dr. Bilz, Christine","plz":"10318","strasse":"Treskowallee 106","telefon":"+49 30 50378333 ","fachrichtung":"Nervenheilkunde\/Neurologie und Psychiatrie"},
{"id":"729","name":"Dr. B\u00e4r, Claudia-Martina","plz":"10319","strasse":"Otto-Schmirgal-Str. 5","telefon":"+49 30 51099042 ","fachrichtung":"Nervenheilkunde\/Neurologie und Psychiatrie"},
{"id":"731","name":"Dr. Kuschel, Erdmute","plz":"10365","strasse":"Frankfurter Allee 191","telefon":"+49 30 5592383 ","fachrichtung":"Nervenheilkunde\/Neurologie und Psychiatrie"},
{"id":"733","name":"Dr. Franz, Peter","plz":"10365","strasse":"Herzbergstr. 82","telefon":"+49 30 55051238 ","fachrichtung":"Nervenheilkunde\/Neurologie und Psychiatrie"},
{"id":"735","name":"Prof. Dr. Rimpau, Wilhelm","plz":"10365","strasse":"Herzbergstr. 82","telefon":"+49 30 55051238 ","fachrichtung":"Nervenheilkunde\/Neurologie und Psychiatrie"},
{"id":"737","name":"Jerosch, Reinhard","plz":"10367","strasse":"Am Stadtpark 1","telefon":"+49 30 9721500 ","fachrichtung":"Nervenheilkunde\/Neurologie und Psychiatrie"},
{"id":"739","name":"Dr. Hempel, Thomas","plz":"10367","strasse":"M\u00f6llendorffstr. 116","telefon":"+49 30 55487816 ","fachrichtung":"Nervenheilkunde\/Neurologie und Psychiatrie"},
{"id":"741","name":"Dr. M\u00f6ller, Wolfgang","plz":"10369","strasse":"Oderbruchstr. 10","telefon":"+49 30 9756244 ","fachrichtung":"Nervenheilkunde\/Neurologie und Psychiatrie"},
{"id":"743","name":"Dr. Walter, Sabine","plz":"13051","strasse":"Nienhagener Str. 5","telefon":"+49 30 96204667 ","fachrichtung":"Nervenheilkunde\/Neurologie und Psychiatrie"},
{"id":"745","name":"Dr. G\u00f6rmer, Kathrin","plz":"13051","strasse":"Zingster Str. 1A","telefon":"+49 30 9285047 ","fachrichtung":"Nervenheilkunde\/Neurologie und Psychiatrie"},
{"id":"747","name":"Gericke, Kerstin","plz":"13055","strasse":"Reichenberger Str. 3","telefon":"+49 30 9713470 ","fachrichtung":"Nervenheilkunde\/Neurologie und Psychiatrie"},
{"id":"749","name":"Schneider, Joachim","plz":"13057","strasse":"Falkenberger Chaussee 134-136","telefon":"+49 30 92092166 ","fachrichtung":"Nervenheilkunde\/Neurologie und Psychiatrie"},
{"id":"751","name":"Dr. K\u00f6hler, Luise","plz":"13059","strasse":"Warnem\u00fcnder Str. 46","telefon":"+49 30 9297069 ","fachrichtung":"Nervenheilkunde\/Neurologie und Psychiatrie"},
{"id":"753","name":"Staron, Romy","plz":"10318","strasse":"Ehrenfelsstr. 42-44","telefon":"+49 30 63224661","fachrichtung":"Nervenheilkunde\/Neurologie und Psychiatrie"},
{"id":"755","name":"Dr. Kauert, Andreas","plz":"10365","strasse":"Herzbergstr. 82","telefon":"+49 30 55051238","fachrichtung":"Nervenheilkunde\/Neurologie und Psychiatrie"},
{"id":"757","name":"Prof. Dr. Rimpau, Wilhelm","plz":"10365","strasse":"Herzbergstr. 82","telefon":"+49 30 55051238","fachrichtung":"Nervenheilkunde\/Neurologie und Psychiatrie"},
{"id":"759","name":"Ladyshenskij, Igor","plz":"13053","strasse":"Roedernstr. 9","telefon":"+49 30 97104499","fachrichtung":"Psychiatrie"},
{"id":"761","name":"von Stieglitz, Matthias","plz":"13055","strasse":"Reichenberger Str. 3","telefon":"+49 30 9714526","fachrichtung":"Psychiatrie"},
{"id":"763","name":"Helmke-Jaeger, Sandra","plz":"10318","strasse":"Kr\u00e4henwinkel 17","telefon":"+49 30 63908254","fachrichtung":"Psychiatrie und Psychotherapie"},
{"id":"765","name":"Wolf, Uwe","plz":"10365","strasse":"Herzbergstr. 82","telefon":"+49 30 55051238","fachrichtung":"Psychiatrie und Psychotherapie"},
{"id":"767","name":"Jerosch, Reinhard","plz":"10367","strasse":"Am Stadtpark 1","telefon":"+49 30 9721500","fachrichtung":"Psychiatrie und Psychotherapie"},
{"id":"769","name":"Gericke, Kerstin","plz":"13055","strasse":"Reichenberger Str. 3","telefon":"+49 30 9713470","fachrichtung":"Psychiatrie und Psychotherapie"},
{"id":"771","name":"K\u00f6llner, Monika","plz":"10315","strasse":"Rummelsburger Str. 13","telefon":"+49 30 5138293","fachrichtung":"Orthop\u00e4die"},
{"id":"773","name":"Dr. Br\u00e4utigam, Ralf-Peter","plz":"10317","strasse":"Irenenstr. 20","telefon":"+49 30 5229340","fachrichtung":"Orthop\u00e4die"},
{"id":"775","name":"Gr\u00e4ser, Ralf","plz":"10317","strasse":"Irenenstr. 20","telefon":"+49 30 5229340","fachrichtung":"Orthop\u00e4die"},
{"id":"777","name":"Dr. Teichm\u00fcller, Hansj\u00fcrgen","plz":"10317","strasse":"Irenenstr. 20","telefon":"+49 30 5229340","fachrichtung":"Orthop\u00e4die"},
{"id":"779","name":"Dr. Meister, Steffen","plz":"10318","strasse":"Weseler Str. 17","telefon":"+49 30 5088133","fachrichtung":"Orthop\u00e4die"},
{"id":"781","name":"Dr. Rieder, Thomas","plz":"10318","strasse":"Weseler Str. 17","telefon":"+49 30 5088133","fachrichtung":"Orthop\u00e4die"},
{"id":"783","name":"Dr. Hensel, Jenne","plz":"10365","strasse":"Frankfurter Allee 231A","telefon":"+49 30 55184245","fachrichtung":"Orthop\u00e4die"},
{"id":"785","name":"Dr. G\u00fcnter, Uwe","plz":"10365","strasse":"Siegfriedstr. 204A","telefon":"+49 30 55154799","fachrichtung":"Orthop\u00e4die"},
{"id":"787","name":"Dr. Werner, Andreas","plz":"10365","strasse":"Schottstr. 4","telefon":"+49 30 5538134","fachrichtung":"Orthop\u00e4die"},
{"id":"789","name":"Dr. Pawlak, Klaus","plz":"10365","strasse":"Ruschestr. 103","telefon":"+49 30 5529225","fachrichtung":"Orthop\u00e4die"},
{"id":"791","name":"Dr. Kr\u00fcgel, Peter-Jochen","plz":"10369","strasse":"Franz-Jacob-Str. 10","telefon":"+49 30 86204680","fachrichtung":"Orthop\u00e4die"},
{"id":"793","name":"Wagner, Andrea","plz":"10369","strasse":"Franz-Jacob-Str. 10","telefon":"+49 30 86204680","fachrichtung":"Orthop\u00e4die"},
{"id":"795","name":"Dr. Kuhlee, Ulf","plz":"13051","strasse":"Prerower Platz 4","telefon":"+49 30 9294039","fachrichtung":"Orthop\u00e4die"},
{"id":"797","name":"Dr. Kleinod, Friedrich","plz":"13051","strasse":"Prerower Platz 4","telefon":"+49 30 9294039","fachrichtung":"Orthop\u00e4die"},
{"id":"799","name":"Dr. Ackermann, Sybille","plz":"13055","strasse":"Konrad-Wolf-Str. 13","telefon":"+49 30 9864271","fachrichtung":"Orthop\u00e4die"},
{"id":"801","name":"Dr. W\u00fcnsch, J\u00fcrgen","plz":"13055","strasse":"Konrad-Wolf-Str. 13","telefon":"+49 30 9864271","fachrichtung":"Orthop\u00e4die"},
{"id":"803","name":"Dudey, R\u00fcdiger-W.","plz":"13055","strasse":"Landsberger Allee 277","telefon":"+49 30 97105583","fachrichtung":"Orthop\u00e4die"},
{"id":"805","name":"Prestin, Eckhard","plz":"13055","strasse":"Reichenberger Str. 3","telefon":"+49 30 9711591","fachrichtung":"Orthop\u00e4die"},
{"id":"807","name":"Dr. Peter, Frank-Joachim","plz":"13055","strasse":"Reichenberger Str. 3","telefon":"+49 30 9714721","fachrichtung":"Orthop\u00e4die"},
{"id":"809","name":"Dr. Herkner, Matthias ","plz":"13055","strasse":"Reichenberger Str. 3","telefon":"+49 30 9714721","fachrichtung":"Orthop\u00e4die"},
{"id":"811","name":"Dr. Hoffmann, Birgit","plz":"10315","strasse":"Rummelsburger Str. 13","telefon":"+49 30 5101012","fachrichtung":"Physiotherapie"},
{"id":"813","name":"Dr. Reuter, Hartmut","plz":"10369","strasse":"Franz-Jacob-Str. 10","telefon":"+49 30 86204680","fachrichtung":"Physiotherapie"},
{"id":"815","name":"Holtz, Gisela","plz":"10369","strasse":"Rudolf-Seiffert-Str. 11","telefon":"+49 30 9754081","fachrichtung":"Physiotherapie"},
{"id":"817","name":"Dr. Kahlbaum, Claudia-Katrin","plz":"13055","strasse":"Reichenberger Str. 3","telefon":"+49 30 9719700","fachrichtung":"Physiotherapie"},
{"id":"819","name":"Dr. Hoffmann, Birgit","plz":"10315","strasse":"Rummelsburger Str. 13","telefon":"+49 30 5101012","fachrichtung":"Physikalische und Rehabilitative Medizin"},
{"id":"821","name":"Dr. Reuter, Hartmut","plz":"10369","strasse":"Franz-Jacob-Str. 10","telefon":"+49 30 86204680","fachrichtung":"Physikalische und Rehabilitative Medizin"},
{"id":"823","name":"Mehta, Antje","plz":"13055","strasse":"Landsberger Allee 277","telefon":"+49 30 97105583","fachrichtung":"Physikalische und Rehabilitative Medizin"},
{"id":"825","name":"Dr. Staske, Barbara","plz":"10315","strasse":"Rummelsburger Str. 13","telefon":"+49 30 51098890 ","fachrichtung":"Diagnostische Radiologie\/Radiologie\/Radiologische Diagnostik"},
{"id":"827","name":"Dr. Hein, Eike","plz":"10365","strasse":"Frankfurter Allee 231A","telefon":"+49 30 55184245 ","fachrichtung":"Diagnostische Radiologie\/Radiologie\/Radiologische Diagnostik"},
{"id":"829","name":"Wolf, Michael","plz":"10365","strasse":"Frankfurter Allee 231A","telefon":"+49 30 55184245 ","fachrichtung":"Diagnostische Radiologie\/Radiologie\/Radiologische Diagnostik"},
{"id":"831","name":"Dr. Nauck, Christopher","plz":"10365","strasse":"Frankfurter Allee 231A","telefon":"+49 30 55184245 ","fachrichtung":"Diagnostische Radiologie\/Radiologie\/Radiologische Diagnostik"},
{"id":"833","name":"Dr. Heiniche, Antje","plz":"10365","strasse":"Herzbergstr. 79","telefon":"+49 30 54724580 ","fachrichtung":"Diagnostische Radiologie\/Radiologie\/Radiologische Diagnostik"},
{"id":"835","name":"Dr. Paris, Stefan","plz":"10365","strasse":"Herzbergstr. 79","telefon":"+49 30 54724580","fachrichtung":"Diagnostische Radiologie\/Radiologie\/Radiologische Diagnostik"},
{"id":"837","name":"Dr. Recker, Angela","plz":"10365","strasse":"Herzbergstr. 79","telefon":"+49 30 54724580","fachrichtung":"Diagnostische Radiologie\/Radiologie\/Radiologische Diagnostik"},
{"id":"839","name":"Dr. Luther, Maria","plz":"10365","strasse":"Ruschestr. 103","telefon":"+49 30 55489263","fachrichtung":"Diagnostische Radiologie\/Radiologie\/Radiologische Diagnostik"},
{"id":"841","name":"Thieme, Holger","plz":"10365","strasse":"Ruschestr. 103","telefon":"+49 30 55489263","fachrichtung":"Diagnostische Radiologie\/Radiologie\/Radiologische Diagnostik"},
{"id":"843","name":"Gottlieb, Thomas","plz":"10367","strasse":"M\u00f6llendorffstr. 52","telefon":"+49 30 57799999","fachrichtung":"Diagnostische Radiologie\/Radiologie\/Radiologische Diagnostik"},
{"id":"845","name":"T\u00f6nnsen, Klaus-Peter","plz":"10367","strasse":"M\u00f6llendorffstr. 52","telefon":"+49 30 57799999","fachrichtung":"Diagnostische Radiologie\/Radiologie\/Radiologische Diagnostik"},
{"id":"847","name":"Wartenberg, Wieland","plz":"10367","strasse":"M\u00f6llendorffstr. 52","telefon":"+49 30 57799999","fachrichtung":"Diagnostische Radiologie\/Radiologie\/Radiologische Diagnostik"},
{"id":"849","name":"Dr. Hinze, Kurt-Achim","plz":"13051","strasse":"Prerower Platz 4","telefon":"+49 30 9297022","fachrichtung":"Diagnostische Radiologie\/Radiologie\/Radiologische Diagnostik"},
{"id":"851","name":"Dr. Schmidt, Gunter","plz":"13051","strasse":"Prerower Platz 4","telefon":"+49 30 9297022","fachrichtung":"Diagnostische Radiologie\/Radiologie\/Radiologische Diagnostik"},
{"id":"853","name":"Dr. Hasselbach, Andrea","plz":"13051","strasse":"Prerower Platz 4","telefon":"+49 30 9297022","fachrichtung":"Diagnostische Radiologie\/Radiologie\/Radiologische Diagnostik"},
{"id":"855","name":"Dr. Neumann, Fabian","plz":"13051","strasse":"Prerower Platz 4","telefon":"+49 30 9297022","fachrichtung":"Diagnostische Radiologie\/Radiologie\/Radiologische Diagnostik"},
{"id":"857","name":"Dr. Dickert, Sabine","plz":"13055","strasse":"Reichenberger Str. 3","telefon":"+49 30 9711615","fachrichtung":"Diagnostische Radiologie\/Radiologie\/Radiologische Diagnostik"},
{"id":"859","name":"Dr. Rzezacz, Barbara","plz":"13055","strasse":"Reichenberger Str. 3","telefon":"+49 30 9711615","fachrichtung":"Diagnostische Radiologie\/Radiologie\/Radiologische Diagnostik"},
{"id":"861","name":"Dr. Sperling, Rolf","plz":"10317","strasse":"Frankfurter Allee 276","telefon":"+49 30 5252160","fachrichtung":"Sportmedizin"},
{"id":"863","name":"Dr. L\u00fcbke, Matthias J.","plz":"10369","strasse":"Franz-Jacob-Str. 10","telefon":"+49 30 9714863","fachrichtung":"Sportmedizin"},
{"id":"865","name":"Seewald, Andr\u00e9","plz":"10369","strasse":"Franz-Jacob-Str. 10","telefon":"+49 30 9714863","fachrichtung":"Sportmedizin"},
{"id":"867","name":"Dr. L\u00fcbke, Matthias J.","plz":"10369","strasse":"Franz-Jacob-Str. 10","telefon":"+49 30 9714863","fachrichtung":"Unfallchirurgie"},
{"id":"869","name":"Seewald, Andr\u00e9","plz":"10369","strasse":"Franz-Jacob-Str. 10","telefon":"+49 30 9714863","fachrichtung":"Unfallchirurgie"},
{"id":"871","name":"Dr. Weide, Bernd","plz":"10315","strasse":"Rummelsburger Str. 13","telefon":"+49 30 5138204","fachrichtung":"Urologie"},
{"id":"873","name":"Irgang, Ralf","plz":"10315","strasse":"Rummelsburger Str. 13","telefon":"+49 30 5138204","fachrichtung":"Urologie"},
{"id":"875","name":"Dr. Speck, Thomas","plz":"10318","strasse":"Treskowallee 103","telefon":"+49 30 5588886","fachrichtung":"Urologie"},
{"id":"877","name":"Bargel, Heiner","plz":"10365","strasse":"Ruschestr. 103","telefon":"+49 30 57799861","fachrichtung":"Urologie"},
{"id":"879","name":"Roggenbuck, Reinhard","plz":"10367","strasse":"M\u00f6llendorffstr. 90b","telefon":"+49 30 5592642","fachrichtung":"Urologie"},
{"id":"881","name":"Dr. Herrmann, Karin","plz":"10369","strasse":"Rudolf-Seiffert-Str. 11","telefon":"+49 30 9721449","fachrichtung":"Urologie"},
{"id":"883","name":"Scharfenberg, Olaf","plz":"10369","strasse":"Rudolf-Seiffert-Str. 11","telefon":"+49 30 9721449","fachrichtung":"Urologie"},
{"id":"885","name":"Gerson, Hans Christof","plz":"13051","strasse":"Prerower Platz 4","telefon":"+49 30 9294053","fachrichtung":"Urologie"},
{"id":"887","name":"Dr. Maskow, Arnd","plz":"13053","strasse":"Rotkamp 2","telefon":"+49 30 96200876","fachrichtung":"Urologie"},
{"id":"889","name":"Dr. Maskow, Susanne","plz":"13053","strasse":"Rotkamp 2","telefon":"+49 30 96200876","fachrichtung":"Urologie"},
{"id":"891","name":"Dr. H\u00f6lzer, Wolfgang","plz":"13055","strasse":"Reichenberger Str. 3","telefon":"+49 30 9711511","fachrichtung":"Urologie"},
{"id":"893","name":"Dawydow, Andrej","plz":"10318","strasse":"Rheinpfalzallee 12","telefon":"+49 30 50378544","fachrichtung":"Pathologie"},
{"id":"895","name":"Dr. Holm, Erik","plz":"10318","strasse":"Rheinpfalzallee 12","telefon":"+49 30 50378544","fachrichtung":"Pathologie"},
{"id":"897","name":"Prof. Dr. Niedobitek, Gerald","plz":"10365","strasse":"Fanningerstr. 32","telefon":"+49 30 55182829","fachrichtung":"Pathologie"},
{"id":"899","name":"Dr. Jaster, Gabriele","plz":"13055","strasse":"Landsberger Allee 277","telefon":"+49 30 97104461","fachrichtung":"Transfusionsmedizin"},
{"id":"901","name":"Dr. Kreibich, Heike","plz":"10315","strasse":"Rhinstr. 13","telefon":"+49 30 5294170","fachrichtung":"Kieferorthop\u00e4den"},
{"id":"903","name":"M\u00fcller, Michael","plz":"10315","strasse":"Rhinstr. 13","telefon":"+49 30 5294170","fachrichtung":"Kieferorthop\u00e4den"},
{"id":"905","name":"Dr. Tr\u00f6mel, Christine","plz":"10318","strasse":"R\u00f6merweg 81","telefon":"+49 30 5010950","fachrichtung":"Kieferorthop\u00e4den"},
{"id":"907","name":"Dr. K\u00f6ning, Hans-J\u00fcrgen","plz":"10365","strasse":"Siegfriedstr. 212","telefon":"+49 30 5589677","fachrichtung":"Kieferorthop\u00e4den"},
{"id":"909","name":"Dr. K\u00f6ning, Monika","plz":"10365","strasse":"Siegfriedstr. 212","telefon":"+49 30 5589677","fachrichtung":"Kieferorthop\u00e4den"},
{"id":"911","name":"Dr. Nack, Gundula","plz":"10367","strasse":"Deutschmeisterstr. 24","telefon":"+49 30 5531585","fachrichtung":"Kieferorthop\u00e4den"},
{"id":"913","name":"Pittner, Marion","plz":"13053","strasse":"Gehrenseestr. 100","telefon":"+49 30 97999669","fachrichtung":"Kieferorthop\u00e4den"},
{"id":"915","name":"Dr. Ring, Peter","plz":"13055","strasse":"Reichenberger Str. 3","telefon":"+49 30 97105107","fachrichtung":"Kieferorthop\u00e4den"},
{"id":"917","name":"Dr. Keil, Heike","plz":"13059","strasse":"Dorfstr. 9","telefon":"+49 30 96200726","fachrichtung":"Kieferorthop\u00e4den"},
{"id":"919","name":"Werlich, Cornelia","plz":"13059","strasse":"Rostocker Str. 23-25","telefon":"+49 30 96200190","fachrichtung":"Kieferorthop\u00e4den"},
{"id":"921","name":"Zenker, Kerstin","plz":"10315","strasse":"Alfred-Kowalke-Str. 4","telefon":"+49 30 51009898 ","fachrichtung":"Zahn\u00e4rzte"},
{"id":"923","name":"Fleck, Juliane","plz":"10315","strasse":"Alfred-Kowalke-Str. 4","telefon":"+49 30 51009898 ","fachrichtung":"Zahn\u00e4rzte"},
{"id":"925","name":"Dr. Rieger, Karin","plz":"10315","strasse":"Alt-Friedrichsfelde 2","telefon":"+49 30 5252911 ","fachrichtung":"Zahn\u00e4rzte"},
{"id":"927","name":"Lehmann, Ines I.","plz":"10315","strasse":"Alt-Friedrichsfelde 65","telefon":"+49 30 51099410 ","fachrichtung":"Zahn\u00e4rzte"},
{"id":"929","name":"G\u00e4rber, Silke","plz":"10315","strasse":"Alt-Friedrichsfelde 82","telefon":"+49 30 5137692 ","fachrichtung":"Zahn\u00e4rzte"},
{"id":"931","name":"Dr. Kunth, Barbara","plz":"10315","strasse":"Einbecker Str. 107","telefon":"+49 30 5100432 ","fachrichtung":"Zahn\u00e4rzte"},
{"id":"933","name":"Dr. Kunth, Dieter","plz":"10315","strasse":"Einbecker Str. 107","telefon":"+49 30 5100432 ","fachrichtung":"Zahn\u00e4rzte"},
{"id":"935","name":"Dr. Kunth, Axel","plz":"10315","strasse":"Einbecker Str. 107","telefon":"+49 30 5100432 ","fachrichtung":"Zahn\u00e4rzte"},
{"id":"937","name":"Meister, Ines","plz":"10315","strasse":"Rhinstr. 15","telefon":"+49 30 5251454 ","fachrichtung":"Zahn\u00e4rzte"},
{"id":"939","name":"Dr. Wolf, Karin","plz":"10315","strasse":"Rhinstr. 15","telefon":"+49 30 5251068 ","fachrichtung":"Zahn\u00e4rzte"},
{"id":"941","name":"Haschker, Angela","plz":"10315","strasse":"Rhinstr. 51 ","telefon":"+49 30 5455131 ","fachrichtung":"Zahn\u00e4rzte"},
{"id":"943","name":"Dr. Albrecht, Brigitte","plz":"10315","strasse":"Rosenfelder Ring 15","telefon":"+49 30 5251341 ","fachrichtung":"Zahn\u00e4rzte"},
{"id":"945","name":"G\u00fcnzel, Cornelia","plz":"10315","strasse":"Rosenfelder Ring 15","telefon":"+49 30 5251341 ","fachrichtung":"Zahn\u00e4rzte"},
{"id":"947","name":"Lembke, Annemarie","plz":"10315","strasse":"Rosenfelder Ring 15","telefon":"+49 30 5251341 ","fachrichtung":"Zahn\u00e4rzte"},
{"id":"949","name":"Dr. Rhinow, Marlies","plz":"10315","strasse":"Rosenfelder Ring 15","telefon":"+49 30 5251341","fachrichtung":"Zahn\u00e4rzte"},
{"id":"951","name":"Schneiderheinze, Jork","plz":"10315","strasse":"Rummelsburger Str. 13","telefon":"+49 30 51097342 ","fachrichtung":"Zahn\u00e4rzte"},
{"id":"953","name":"Dr. Hohmeier, Regine","plz":"10315","strasse":"Rummelsburger Str. 13","telefon":"+49 30 51069507 ","fachrichtung":"Zahn\u00e4rzte"},
{"id":"955","name":"Dr. Wagner, Marina","plz":"10315","strasse":"Rummelsburger Str. 13","telefon":"+49 30 51069504 ","fachrichtung":"Zahn\u00e4rzte"},
{"id":"957","name":"Strehl, Kathrin","plz":"10315","strasse":"Seddiner Str. 3","telefon":"+49 30 5102381 ","fachrichtung":"Zahn\u00e4rzte"},
{"id":"959","name":"Dr. Uebel, Andreas","plz":"10317","strasse":"Eduardstr. 18","telefon":"+49 30 5104117 ","fachrichtung":"Zahn\u00e4rzte"},
{"id":"961","name":"Georgiev, Georgi","plz":"10317","strasse":"Einbecker Str. 37","telefon":"+49 30 5253417 ","fachrichtung":"Zahn\u00e4rzte"},
{"id":"963","name":"Georgieva, Manuela","plz":"10317","strasse":"Einbecker Str. 37","telefon":"+49 30 5253417 ","fachrichtung":"Zahn\u00e4rzte"},
{"id":"965","name":"Dr. Kalinke, Joachim","plz":"10317","strasse":"Hauptstr. 5 b","telefon":"+49 30 5589089 ","fachrichtung":"Zahn\u00e4rzte"},
{"id":"967","name":"Kaczmarek, Jutta","plz":"10317","strasse":"Hirschberger Str. 2","telefon":"+49 30 5594955 ","fachrichtung":"Zahn\u00e4rzte"},
{"id":"969","name":"Stahnke, Kerstin","plz":"10317","strasse":"Irenenstr. 20","telefon":"+49 30 5252308 ","fachrichtung":"Zahn\u00e4rzte"},
{"id":"971","name":"Schwinge, Ulrike","plz":"10317","strasse":"Irenenstr. 20","telefon":"+49 30 5252308 ","fachrichtung":"Zahn\u00e4rzte"},
{"id":"973","name":"Kuzman, Katrin","plz":"10317","strasse":"Leopoldstr. 2","telefon":"+49 30 5139667 ","fachrichtung":"Zahn\u00e4rzte"},
{"id":"975","name":"Dr. Rapp, Hans-Christian","plz":"10317","strasse":"Margaretenstr. 26","telefon":"+49 30 5251383 ","fachrichtung":"Zahn\u00e4rzte"},
{"id":"977","name":"Dr. B\u00f6ttcher-Gaida, Birgit","plz":"10317","strasse":"N\u00f6ldnerstr. 9","telefon":"+49 30 5107022 ","fachrichtung":"Zahn\u00e4rzte"},
{"id":"979","name":"Dr. M\u00fcller, Siegfried","plz":"10317","strasse":"N\u00f6ldnerstr. 9","telefon":"+49 30 5107022 ","fachrichtung":"Zahn\u00e4rzte"},
{"id":"981","name":"Dr. Neumann, Eberhard","plz":"10317","strasse":"Pfarrstr. 110","telefon":"+49 30 5532465 ","fachrichtung":"Zahn\u00e4rzte"},
{"id":"983","name":"Wolff, Eberhard","plz":"10317","strasse":"W\u00f6nnichstr. 41 ","telefon":"+49 30 5291073 ","fachrichtung":"Zahn\u00e4rzte"},
{"id":"985","name":"Dr. Wei\u00df, Constanze","plz":"10318","strasse":"Ehrenfelsstr. 47","telefon":"+49 30 5098365 ","fachrichtung":"Zahn\u00e4rzte"},
{"id":"987","name":"Berger, Britta","plz":"10318","strasse":"Ehrlichstr. 32","telefon":"+49 30 5098481 ","fachrichtung":"Zahn\u00e4rzte"},
{"id":"989","name":"Dr. Berndt, Christine","plz":"10318","strasse":"Rheinsteinstr. 1","telefon":"+49 30 5090288 ","fachrichtung":"Zahn\u00e4rzte"},
{"id":"991","name":"Steinbach, Ingrid","plz":"10318","strasse":"Junker-J\u00f6rg-Str. 37","telefon":"+49 30 5099562 ","fachrichtung":"Zahn\u00e4rzte"},
{"id":"993","name":"Dr. Lege, Christa","plz":"10318","strasse":"Rheinsteinstr. 4","telefon":"+49 30 5088260 ","fachrichtung":"Zahn\u00e4rzte"},
{"id":"995","name":"Dr. M\u00fcller, Angelika","plz":"10318","strasse":"Rheinsteinstr. 4","telefon":"+49 30 5099470 ","fachrichtung":"Zahn\u00e4rzte"},
{"id":"997","name":"Dr. Tr\u00f6mel, Norbert","plz":"10318","strasse":"R\u00f6merweg 81 ","telefon":"+49 30 5010950 ","fachrichtung":"Zahn\u00e4rzte"},
{"id":"999","name":"Koenig, Gerd","plz":"10318","strasse":"Treskowallee 86","telefon":"+49 30 50178848 ","fachrichtung":"Zahn\u00e4rzte"},
{"id":"1001","name":"Dr. Schwabe, Karl-Heinz","plz":"10318","strasse":"Treskowallee 92","telefon":"+49 30 50178573 ","fachrichtung":"Zahn\u00e4rzte"},
{"id":"1003","name":"J\u00e4nisch, Nadine","plz":"10318","strasse":"Treskowallee 110","telefon":"+49 30 50382609 ","fachrichtung":"Zahn\u00e4rzte"},
{"id":"1005","name":"Dr. Sch\u00f6ntube, Sebastian","plz":"10318","strasse":"Treskowallee 110","telefon":"+49 30 50382609 ","fachrichtung":"Zahn\u00e4rzte"},
{"id":"1007","name":"Dr. Gutsch, Matthias","plz":"10318","strasse":"Treskowallee 125","telefon":"+49 30 5098440 ","fachrichtung":"Zahn\u00e4rzte"},
{"id":"1009","name":"Mehlgarten, B\u00e4rbel","plz":"10318","strasse":"Treskowallee 128","telefon":"+49 30 5081171 ","fachrichtung":"Zahn\u00e4rzte"},
{"id":"1011","name":"Leuschner, Heike","plz":"10318","strasse":"Waldowallee 101 ","telefon":"+49 30 5099664 ","fachrichtung":"Zahn\u00e4rzte"},
{"id":"1013","name":"Gronert, Andr\u00e9","plz":"10318","strasse":"Weseler Str. 17","telefon":"+49 30 5090606 ","fachrichtung":"Zahn\u00e4rzte"},
{"id":"1015","name":"Kohnert, Peter","plz":"10319","strasse":"Baikalstr. 21 ","telefon":"+49 30 5086452 ","fachrichtung":"Zahn\u00e4rzte"},
{"id":"1017","name":"Dr. Kociok, Margitta","plz":"10319","strasse":"Balatonstr. 20","telefon":"+49 30 51060060 ","fachrichtung":"Zahn\u00e4rzte"},
{"id":"1019","name":"Dr. Hoffmeier, Karin","plz":"10319","strasse":"Erich-Kurz-Str. 9","telefon":"+49 30 5129129 ","fachrichtung":"Zahn\u00e4rzte"},
{"id":"1021","name":"Dr. Hoffmeier, Siegfried","plz":"10319","strasse":"Erich-Kurz-Str. 9","telefon":"+49 30 5129129 ","fachrichtung":"Zahn\u00e4rzte"},
{"id":"1023","name":"Moschinsky, Elke","plz":"10319","strasse":"Mellenseestr. 4","telefon":"+49 30 5126012 ","fachrichtung":"Zahn\u00e4rzte"},
{"id":"1025","name":"Dr. Heinrich, Ursula","plz":"10319","strasse":"Mellenseestr. 4","telefon":"+49 30 5122024 ","fachrichtung":"Zahn\u00e4rzte"},
{"id":"1027","name":"Falk, Kirsten","plz":"10319","strasse":"Mellenseestr. 24","telefon":"+49 30 51009314 ","fachrichtung":"Zahn\u00e4rzte"},
{"id":"1029","name":"Dr. Zeuner, Harald","plz":"10319","strasse":"Mellenseestr. 66","telefon":"+49 30 5110035 ","fachrichtung":"Zahn\u00e4rzte"},
{"id":"1031","name":"Dr. Bellmann, Annette","plz":"10319","strasse":"Otto-Schmirgal-Str. 5","telefon":"+49 30 55005777 ","fachrichtung":"Zahn\u00e4rzte"},
{"id":"1033","name":"Dr. Wunderlich, Silke","plz":"10319","strasse":"Volkradstr. 32","telefon":"+49 30 5122157 ","fachrichtung":"Zahn\u00e4rzte"},
{"id":"1035","name":"Weigt, J\u00f6rg","plz":"10365","strasse":"Atzpodienstr. 43","telefon":"+49 30 5593623 ","fachrichtung":"Zahn\u00e4rzte"},
{"id":"1037","name":"R\u00f6mert, Angelika","plz":"10365","strasse":"Frankfurter Allee 151 ","telefon":"+49 30 5588522 ","fachrichtung":"Zahn\u00e4rzte"},
{"id":"1039","name":"Lieu, Ngoc Hue","plz":"10365","strasse":"Frankfurter Allee 191","telefon":"+49 30 41401370","fachrichtung":"Zahn\u00e4rzte"},
{"id":"1041","name":"Scherer, Larissa","plz":"10365","strasse":"Frankfurter Allee 191 ","telefon":"+49 30 41401370","fachrichtung":"Zahn\u00e4rzte"},
{"id":"1043","name":"Hess, Viktor","plz":"10365","strasse":"Frankfurter Allee 193","telefon":"+49 30 5592946 ","fachrichtung":"Zahn\u00e4rzte"},
{"id":"1045","name":"Dr. Jacobi, B\u00e4rbel","plz":"10365","strasse":"Frankfurter Allee 231A","telefon":"+49 30 5251833 ","fachrichtung":"Zahn\u00e4rzte"},
{"id":"1047","name":"Reinicke, Cordula","plz":"10365","strasse":"Frankfurter Allee 231A","telefon":"+49 30 5251833 ","fachrichtung":"Zahn\u00e4rzte"},
{"id":"1049","name":"Dr. Kleemann, Gabriele","plz":"10365","strasse":"Frankfurter Allee 237","telefon":"+49 30 5589694 ","fachrichtung":"Zahn\u00e4rzte"},
{"id":"1051","name":"Dr. Steinberg, Sabine","plz":"10365","strasse":"Frankfurter Allee 245","telefon":"+49 30 55005950 ","fachrichtung":"Zahn\u00e4rzte"},
{"id":"1053","name":"Steinberg, Michael","plz":"10365","strasse":"Frankfurter Allee 245","telefon":"+49 30 55005950 ","fachrichtung":"Zahn\u00e4rzte"},
{"id":"1055","name":"Werner, Gudrun","plz":"10365","strasse":"Frankfurter Allee 250","telefon":"+49 30 5592726 ","fachrichtung":"Zahn\u00e4rzte"},
{"id":"1057","name":"Boldt, Anke","plz":"10365","strasse":"Gotlindestr. 49","telefon":"+49 30 5539844 ","fachrichtung":"Zahn\u00e4rzte"},
{"id":"1059","name":"Dr. Sch\u00fcler, Martina","plz":"10365","strasse":"Gudrunstr. 3","telefon":"+49 30 5596787 ","fachrichtung":"Zahn\u00e4rzte"},
{"id":"1061","name":"Dr. Bachmann, Uta","plz":"10365","strasse":"Hagenstr. 2","telefon":"+49 30 5593263 ","fachrichtung":"Zahn\u00e4rzte"},
{"id":"1063","name":"Scherret, Christian","plz":"10365","strasse":"Hagenstr. 52","telefon":"+49 30 5593272 ","fachrichtung":"Zahn\u00e4rzte"},
{"id":"1065","name":"Isakowitsch, Wjatscheslaw","plz":"10365","strasse":"Mauritiuskirchstr. 3","telefon":"+49 30 5532393 ","fachrichtung":"Zahn\u00e4rzte"},
{"id":"1067","name":"Ebert, J\u00f6rg","plz":"10365","strasse":"Ruschestr. 103","telefon":"+49 30 5529219 ","fachrichtung":"Zahn\u00e4rzte"},
{"id":"1069","name":"Hempel, Anke","plz":"10365","strasse":"Ruschestr. 103","telefon":"+49 30 5529221 ","fachrichtung":"Zahn\u00e4rzte"},
{"id":"1071","name":"Dr. Weber, Katja","plz":"10365","strasse":"Ruschestr. 103","telefon":"+49 30 5529220 ","fachrichtung":"Zahn\u00e4rzte"},
{"id":"1073","name":"Peters, Inge","plz":"10365","strasse":"Ruschestr. 103","telefon":"+49 30 5529222 ","fachrichtung":"Zahn\u00e4rzte"},
{"id":"1075","name":"Dr. Richter, Achim","plz":"10365","strasse":"Ruschestr. 103","telefon":"+49 30 5529223 ","fachrichtung":"Zahn\u00e4rzte"},
{"id":"1077","name":"Dr. Schmidt, Brigitte","plz":"10365","strasse":"Ruschestr. 103","telefon":"+49 30 5529224 ","fachrichtung":"Zahn\u00e4rzte"},
{"id":"1079","name":"Dr. Schmidt, Frank","plz":"10365","strasse":"Siegfriedstr. 188","telefon":"+49 30 5596995 ","fachrichtung":"Zahn\u00e4rzte"},
{"id":"1081","name":"Dr. Schmidt, Elke","plz":"10365","strasse":"Siegfriedstr. 188","telefon":"+49 30 5596995 ","fachrichtung":"Zahn\u00e4rzte"},
{"id":"1083","name":"Tran, Trung","plz":"10365","strasse":"Siegfriedstr. 202","telefon":"+49 30 2960626 ","fachrichtung":"Zahn\u00e4rzte"},
{"id":"1085","name":"Schuschke, Angelika","plz":"10365","strasse":"Siegfriedstr. 204","telefon":"+49 30 99276700 ","fachrichtung":"Zahn\u00e4rzte"},
{"id":"1087","name":"Dr. Exner, Gesine","plz":"10365","strasse":"Siegfriedstr. 212","telefon":"+49 30 5588905 ","fachrichtung":"Zahn\u00e4rzte"},
{"id":"1089","name":"Kehler, Anne","plz":"10365","strasse":"Siegfriedstr. 212","telefon":"+49 30 5588905 ","fachrichtung":"Zahn\u00e4rzte"},
{"id":"1091","name":"Grabsdorf, Regina","plz":"10365","strasse":"Wilhelm-Guddorf-Str. 10","telefon":"+49 30 5597126 ","fachrichtung":"Zahn\u00e4rzte"},
{"id":"1093","name":"Dr. Seibt, Cornelia","plz":"10365","strasse":"Albert-H\u00f6\u00dfler-Str. 6","telefon":"+49 30 5598660 ","fachrichtung":"Zahn\u00e4rzte"},
{"id":"1095","name":"Dr. Nack, Hans-Wolfgang","plz":"10367","strasse":"Deutschmeisterstr. 24","telefon":"+49 30 5531585 ","fachrichtung":"Zahn\u00e4rzte"},
{"id":"1097","name":"Weigmann, Christiane","plz":"10367","strasse":"Dottistr. 20","telefon":"+49 30 5594330 ","fachrichtung":"Zahn\u00e4rzte"},
{"id":"1099","name":"Dr. Lucke, Gerhard","plz":"10367","strasse":"Josef-Orlopp-Str. 1-3","telefon":"+49 30 5539217 ","fachrichtung":"Zahn\u00e4rzte"},
{"id":"1101","name":"Dr. Wagner, Thomas","plz":"10367","strasse":"M\u00f6llendorffstr. 11 ","telefon":"+49 30 5594929 ","fachrichtung":"Zahn\u00e4rzte"},
{"id":"1103","name":"Sbitnew, Anatoli","plz":"10367","strasse":"M\u00f6llendorffstr. 45","telefon":"+49 30 57796220 ","fachrichtung":"Zahn\u00e4rzte"},
{"id":"1105","name":"Weist, Nicola","plz":"10367","strasse":"M\u00f6llendorffstr. 47","telefon":"+49 30 9751096 ","fachrichtung":"Zahn\u00e4rzte"},
{"id":"1107","name":"K\u00f6ppen, Antje","plz":"10367","strasse":"M\u00f6llendorffstr. 54","telefon":"+49 30 9720068 ","fachrichtung":"Zahn\u00e4rzte"},
{"id":"1109","name":"Krause, Karen","plz":"10367","strasse":"M\u00f6llendorffstr. 58","telefon":"+49 30 9705430 ","fachrichtung":"Zahn\u00e4rzte"},
{"id":"1111","name":"Frenzel, Kirsten","plz":"10367","strasse":"M\u00f6llendorffstr. 111","telefon":"+49 30 5533127 ","fachrichtung":"Zahn\u00e4rzte"},
{"id":"1113","name":"Jentczak, Cordula","plz":"10367","strasse":"Normannenstr. 38","telefon":"+49 30 5532366 ","fachrichtung":"Zahn\u00e4rzte"},
{"id":"1115","name":"Dr. Lorenz, Gabriele","plz":"10367","strasse":"Parkaue 37","telefon":"+49 30 5594147 ","fachrichtung":"Zahn\u00e4rzte"},
{"id":"1117","name":"Dr. Bandlow, B\u00e4rbel","plz":"10367","strasse":"Paul-Zobel-Str. 8k","telefon":"+49 30 5540884 ","fachrichtung":"Zahn\u00e4rzte"},
{"id":"1119","name":"W\u00f6rne, Christine-Anna","plz":"10367","strasse":"Paul-Zobel-Str. 21","telefon":"+49 30 5539359 ","fachrichtung":"Zahn\u00e4rzte"},
{"id":"1121","name":"W\u00f6rne, Gerhard","plz":"10367","strasse":"Paul-Zobel-Str. 21","telefon":"+49 30 5539359 ","fachrichtung":"Zahn\u00e4rzte"},
{"id":"1123","name":"Rolle, Petra","plz":"10369","strasse":"Franz-Jacob-Str. 10","telefon":"+49 30 9714858 ","fachrichtung":"Zahn\u00e4rzte"},
{"id":"1125","name":"Dr. Stephan, Gisela","plz":"10369","strasse":"Franz-Jacob-Str. 10","telefon":"+49 30 9714858 ","fachrichtung":"Zahn\u00e4rzte"},
{"id":"1127","name":"Dr. Walter, Sieglinde","plz":"10369","strasse":"Franz-Jacob-Str. 10","telefon":"+49 30 9714858 ","fachrichtung":"Zahn\u00e4rzte"},
{"id":"1129","name":"Dr. Reitz, Gero","plz":"10369","strasse":"Franz-Jacob-Str. 10","telefon":"+49 30 9714858 ","fachrichtung":"Zahn\u00e4rzte"},
{"id":"1131","name":"Kleinschmidt, Birgit","plz":"10369","strasse":"Karl-Lade-Str. 40","telefon":"+49 30 97105280 ","fachrichtung":"Zahn\u00e4rzte"},
{"id":"1133","name":"P\u00f6tschke, Michael","plz":"10369","strasse":"Landsberger Allee 171a","telefon":"+49 30 9759090 ","fachrichtung":"Zahn\u00e4rzte"},
{"id":"1135","name":"Dr. Schibenes, Jan Bernhard","plz":"10369","strasse":"Oderbruchstr. 10-14","telefon":"+49 30 9720039 ","fachrichtung":"Zahn\u00e4rzte"},
{"id":"1137","name":"Dr. Wegener, Ulrich","plz":"10369","strasse":"Oderbruchstr. 10-14","telefon":"+49 30 9720039 ","fachrichtung":"Zahn\u00e4rzte"},
{"id":"1139","name":"Dr. Henning, Eyleen","plz":"10369","strasse":"Rudolf-Seiffert-Str. 11","telefon":"+49 30 9759038 ","fachrichtung":"Zahn\u00e4rzte"},
{"id":"1141","name":"Dr. Dr. Brzenska, Irina","plz":"10369","strasse":"Storkower Str. 207B","telefon":"+49 30 9720150 ","fachrichtung":"Zahn\u00e4rzte"},
{"id":"1143","name":"Alexandrow, Konstantin","plz":"10369","strasse":"Storkower Str. 207B","telefon":"+49 30 9720150 ","fachrichtung":"Zahn\u00e4rzte"},
{"id":"1145","name":"Klement, Martina","plz":"10369","strasse":"Storkower Str. 207B","telefon":"+49 30 9715600 ","fachrichtung":"Zahn\u00e4rzte"},
{"id":"1147","name":"Dr. Schleu\u00dfner, Karsten","plz":"10369","strasse":"Wei\u00dfenseer Weg 111","telefon":"+49 30 9719142 ","fachrichtung":"Zahn\u00e4rzte"},
{"id":"1149","name":"Dr. Schleu\u00dfner, Stefanie","plz":"10369","strasse":"Wei\u00dfenseer Weg 111","telefon":"+49 30 9719142 ","fachrichtung":"Zahn\u00e4rzte"},
{"id":"1151","name":"Dr. Karpow, Angelika","plz":"13051","strasse":"Ahrenshooper Str. 24","telefon":"+49 30 9291155 ","fachrichtung":"Zahn\u00e4rzte"},
{"id":"1153","name":"Pa\u00dfler, Irena","plz":"13051","strasse":"Nienhagener Str. 5","telefon":"+49 30 96204404 ","fachrichtung":"Zahn\u00e4rzte"},
{"id":"1155","name":"N\u00fcndel, Ulrike","plz":"13051","strasse":"Prerower Platz 3a","telefon":"+49 30 9244552 ","fachrichtung":"Zahn\u00e4rzte"},
{"id":"1157","name":"Gessat, Gudrun","plz":"13051","strasse":"Prerower Platz 12","telefon":"+49 30 9280080 ","fachrichtung":"Zahn\u00e4rzte"},
{"id":"1159","name":"Kerber, Marianne","plz":"13051","strasse":"Prerower Platz 12","telefon":"+49 30 9280080 ","fachrichtung":"Zahn\u00e4rzte"},
{"id":"1161","name":"Paulmann, Edeltraud","plz":"13051","strasse":"Prerower Platz 12","telefon":"+49 30 9280080 ","fachrichtung":"Zahn\u00e4rzte"},
{"id":"1163","name":"Flemming, Ellen","plz":"13051","strasse":"Wiecker Str. 13","telefon":"+49 30 9287010 ","fachrichtung":"Zahn\u00e4rzte"},
{"id":"1165","name":"Foth, Leonore","plz":"13051","strasse":"Wiecker Str. 13","telefon":"+49 30 9287010 ","fachrichtung":"Zahn\u00e4rzte"},
{"id":"1167","name":"Dr. Kosch\u00fctzki, Annette","plz":"13051","strasse":"Wustrower Str. 20","telefon":"+49 30 92091800 ","fachrichtung":"Zahn\u00e4rzte"},
{"id":"1169","name":"Otto, Birgit","plz":"13051","strasse":"Wustrower Str. 20","telefon":"+49 30 93028814 ","fachrichtung":"Zahn\u00e4rzte"},
{"id":"1171","name":"Sch\u00fctze, Martina","plz":"13051","strasse":"Wustrower Str. 20","telefon":"+49 30 93028814 ","fachrichtung":"Zahn\u00e4rzte"},
{"id":"1173","name":"Richter, Astrid","plz":"13051","strasse":"Zingster Str. 3","telefon":"+49 30 9280110 ","fachrichtung":"Zahn\u00e4rzte"},
{"id":"1175","name":"Winter, Agata","plz":"13053","strasse":"Am Faulen See 2","telefon":"+49 30 9864077 ","fachrichtung":"Zahn\u00e4rzte"},
{"id":"1177","name":"Dr. Riesenberg, J\u00f6rg","plz":"13053","strasse":"Am Faulen See 27","telefon":"+49 30 9866419 ","fachrichtung":"Zahn\u00e4rzte"},
{"id":"1179","name":"Greiner-Mielich, Antje","plz":"13053","strasse":"Gehrenseestr. 100","telefon":"+49 30 9282508 ","fachrichtung":"Zahn\u00e4rzte"},
{"id":"1181","name":"Dr. Heine, Christine","plz":"13053","strasse":"Gehrenseestr. 100 ","telefon":"+49 30 9282508 ","fachrichtung":"Zahn\u00e4rzte"},
{"id":"1183","name":"Dr. Koker, Dorit","plz":"13053","strasse":"Gehrenseestr. 100","telefon":"+49 30 9282508 ","fachrichtung":"Zahn\u00e4rzte"},
{"id":"1185","name":"Dr. Kutschke, Elke","plz":"13053","strasse":"Gehrenseestr. 100","telefon":"+49 30 9282508 ","fachrichtung":"Zahn\u00e4rzte"},
{"id":"1187","name":"Sternberg, Karin","plz":"13053","strasse":"Gehrenseestr. 100","telefon":"+49 30 9282508 ","fachrichtung":"Zahn\u00e4rzte"},
{"id":"1189","name":"K\u00f6nig, Gerlinde","plz":"13053","strasse":"Gehrenseestr. 100","telefon":"+49 30 9827107 ","fachrichtung":"Zahn\u00e4rzte"},
{"id":"1191","name":"Dr. Faust, Kristina","plz":"13053","strasse":"Manetstr. 85","telefon":"+49 30 9208068 ","fachrichtung":"Zahn\u00e4rzte"},
{"id":"1193","name":"Plewka, Uwe","plz":"13053","strasse":"Manetstr. 85","telefon":"+49 30 9208068 ","fachrichtung":"Zahn\u00e4rzte"},
{"id":"1195","name":"Winkelmann, Pierre","plz":"13053","strasse":"Manetstr. 85","telefon":"+49 30 9208068 ","fachrichtung":"Zahn\u00e4rzte"},
{"id":"1197","name":"Dr. Rempt, Jochen","plz":"13053","strasse":"Manetstr. 85","telefon":"+49 30 9208068 ","fachrichtung":"Zahn\u00e4rzte"},
{"id":"1199","name":"Dr. Hu\u00dflack, Klaus-Michael","plz":"13053","strasse":"Norbertstr. 7A","telefon":"+49 30 98695132 ","fachrichtung":"Zahn\u00e4rzte"},
{"id":"1201","name":"K\u00f6ssler, Andreas","plz":"13053","strasse":"Rotkamp 2","telefon":"+49 30 96204233 ","fachrichtung":"Zahn\u00e4rzte"},
{"id":"1203","name":"Dr. Latt, Kristina","plz":"13053","strasse":"Sabinensteig 14","telefon":"+49 30 9865530 ","fachrichtung":"Zahn\u00e4rzte"},
{"id":"1205","name":"Dr. Weigelt, Ralf","plz":"13053","strasse":"Suermondtstr. 37","telefon":"+49 30 98694641 ","fachrichtung":"Zahn\u00e4rzte"},
{"id":"1207","name":"Dr. Bade, Gerd","plz":"13053","strasse":"Suermondtstr. 37a","telefon":"+49 30 98694669 ","fachrichtung":"Zahn\u00e4rzte"},
{"id":"1209","name":"Reinicke, Dirk","plz":"13055","strasse":"Hauptstr. 9-10","telefon":"+49 30 98639986 ","fachrichtung":"Zahn\u00e4rzte"},
{"id":"1211","name":"Schevschenko, Konstantin","plz":"13055","strasse":"Konrad-Wolf-Str. 13a","telefon":"+49 30 9827503 ","fachrichtung":"Zahn\u00e4rzte"},
{"id":"1213","name":"Lehmann, Peter","plz":"13055","strasse":"Konrad-Wolf-Str. 104","telefon":"+49 30 9823444","fachrichtung":"Zahn\u00e4rzte"},
{"id":"1215","name":"Dr. Szumski, Wojciech","plz":"13055","strasse":"K\u00fcstriner Str. 47","telefon":"+49 30 97104446","fachrichtung":"Zahn\u00e4rzte"},
{"id":"1217","name":"Dr. Blumenthal-Barby, Gabriele","plz":"13055","strasse":"Landsberger Allee 201","telefon":"+49 30 9750853","fachrichtung":"Zahn\u00e4rzte"},
{"id":"1219","name":"Dr. Fischer, Eckhard","plz":"13055","strasse":"Landsberger Allee 219d","telefon":"+49 30 9758813","fachrichtung":"Zahn\u00e4rzte"},
{"id":"1221","name":"Schmidt, Peter","plz":"13055","strasse":"Landsberger Allee 223","telefon":"+49 30 92408530","fachrichtung":"Zahn\u00e4rzte"},
{"id":"1223","name":"M\u00fcnchow, Sascha","plz":"13055","strasse":"Landsberger Allee 277a","telefon":"+49 30 97104406 ","fachrichtung":"Zahn\u00e4rzte"},
{"id":"1225","name":"Joksch, Constanze","plz":"13055","strasse":"Landsberger Allee 277a","telefon":"+49 30 97104406 ","fachrichtung":"Zahn\u00e4rzte"},
{"id":"1227","name":"Dr. Wagner, Jens","plz":"13055","strasse":"Landsberger Allee 293","telefon":"+49 30 9815505 ","fachrichtung":"Zahn\u00e4rzte"},
{"id":"1229","name":"R\u00fcffer, Stefan","plz":"13055","strasse":"Neustrelitzer Str. 41","telefon":"+49 30 97104791 ","fachrichtung":"Zahn\u00e4rzte"},
{"id":"1231","name":"Dr. Brussig, Lutz","plz":"13055","strasse":"Reichenberger Str. 3","telefon":"+49 30 9710110 ","fachrichtung":"Zahn\u00e4rzte"},
{"id":"1233","name":"Dr. Gericke, Dietrich","plz":"13055","strasse":"Reichenberger Str. 3","telefon":"+49 30 9711525 ","fachrichtung":"Zahn\u00e4rzte"},
{"id":"1235","name":"Kristen, Stefanie","plz":"13055","strasse":"Reichenberger Str. 3","telefon":"+49 30 9711525 ","fachrichtung":"Zahn\u00e4rzte"},
{"id":"1237","name":"Suhr, Dagmar","plz":"13055","strasse":"Reichenberger Str. 3","telefon":"+49 30 9711525 ","fachrichtung":"Zahn\u00e4rzte"},
{"id":"1239","name":"Dr. Badke, Thomas","plz":"13055","strasse":"Schalkauer Str. 30","telefon":"+49 30 98694100 ","fachrichtung":"Zahn\u00e4rzte"},
{"id":"1241","name":"Wiewand, Claudia","plz":"13055","strasse":"Schalkauer Str. 30","telefon":"+49 30 98694100 ","fachrichtung":"Zahn\u00e4rzte"},
{"id":"1243","name":"Laa\u00df, Sabine","plz":"13055","strasse":"Sch\u00f6neicher Str. 18","telefon":"+49 30 9822544 ","fachrichtung":"Zahn\u00e4rzte"},
{"id":"1245","name":"Dr. Bading, Stefan","plz":"13055","strasse":"Wei\u00dfenseer Weg 35-38","telefon":"+49 30 97106960 ","fachrichtung":"Zahn\u00e4rzte"},
{"id":"1247","name":"Dr. Engel, Sabine","plz":"13057","strasse":"Falkenberger Chaussee 134-136","telefon":"+49 30 96207048 ","fachrichtung":"Zahn\u00e4rzte"},
{"id":"1249","name":"Spintig, Regine","plz":"13057","strasse":"Randowstr. 16","telefon":"+49 30 9209550 ","fachrichtung":"Zahn\u00e4rzte"},
{"id":"1251","name":"Graf von Korff, Claus","plz":"13057","strasse":"Randowstr. 34","telefon":"+49 30 92890049 ","fachrichtung":"Zahn\u00e4rzte"},
{"id":"1253","name":"Thiele, Wolfgang","plz":"13057","strasse":"Randowstr. 34","telefon":"+49 30 9209650 ","fachrichtung":"Zahn\u00e4rzte"},
{"id":"1255","name":"Dr. K\u00f6ssler, Gudrun","plz":"13057","strasse":"Seehausener Str. 34","telefon":"+49 30 9289035 ","fachrichtung":"Zahn\u00e4rzte"},
{"id":"1257","name":"Bergmann, Ines","plz":"13057","strasse":"Warnitzer Str. 28","telefon":"+49 30 9290221 ","fachrichtung":"Zahn\u00e4rzte"},
{"id":"1259","name":"Thienel, Stefan","plz":"13057","strasse":"Warnitzer Str. 31 ","telefon":"+49 30 9249880 ","fachrichtung":"Zahn\u00e4rzte"},
{"id":"1261","name":"Sorin, Artur","plz":"13059","strasse":"Egon-Erwin-Kisch-Str. 32","telefon":"+49 30 9283016 ","fachrichtung":"Zahn\u00e4rzte"},
{"id":"1263","name":"Dr. Gro\u00dfe, Steffen","plz":"13059","strasse":"Grevesm\u00fchlener Str. 18","telefon":"+49 30 9286045 ","fachrichtung":"Zahn\u00e4rzte"},
{"id":"1265","name":"Gallinat, Felix","plz":"13059","strasse":"Grevesm\u00fchlener Str. 18","telefon":"+49 30 9286045 ","fachrichtung":"Zahn\u00e4rzte"},
{"id":"1267","name":"Dr. M\u00fcller, Henry","plz":"13059","strasse":"Grevesm\u00fchlener Str. 18","telefon":"+49 30 9286045 ","fachrichtung":"Zahn\u00e4rzte"},
{"id":"1269","name":"Dr. Otto, Birgit G.","plz":"13059","strasse":"Grevesm\u00fchlener Str. 30","telefon":"+49 30 92408531 ","fachrichtung":"Zahn\u00e4rzte"},
{"id":"1271","name":"Spitzner, Annegret","plz":"13059","strasse":"Grevesm\u00fchlener Str. 30","telefon":"+49 30 92408532 ","fachrichtung":"Zahn\u00e4rzte"},
{"id":"1273","name":"Mense, Heike","plz":"13059","strasse":"Grevesm\u00fchlener Str. 34","telefon":"+49 30 92407033 ","fachrichtung":"Zahn\u00e4rzte"},
{"id":"1275","name":"Albrecht, Birgit","plz":"13059","strasse":"Hagenower Ring 75","telefon":"+49 30 99271595 ","fachrichtung":"Zahn\u00e4rzte"},
{"id":"1277","name":"Rechlin, Jens","plz":"13059","strasse":"Warnem\u00fcnder Str. 42","telefon":"+49 30 9288192","fachrichtung":"Zahn\u00e4rzte"},
{"id":"1279","name":"DSoz. Koukal, Brigitte","plz":"10315","strasse":"Rummelsburger Str. 13","telefon":"+49 30 51065557","fachrichtung":"Kinder- und Jugendpsychotherapeuten"},
{"id":"1281","name":"Wald, Ulrich","plz":"10317","strasse":"Maximilianstr. 24a","telefon":"+49 30 51738458","fachrichtung":"Kinder- und Jugendpsychotherapeuten"},
{"id":"1283","name":"DPs. Williams, Katja","plz":"10369","strasse":"Storkower Str. 207a","telefon":"+49 30 97994445","fachrichtung":"Kinder- und Jugendpsychotherapeuten"},
{"id":"1285","name":"DSoz.P\u00e4d. Kutzner, Ines","plz":"13053","strasse":"Arnimstr. 17","telefon":"+49 30 92375522","fachrichtung":"Kinder- und Jugendpsychotherapeuten"},
{"id":"1287","name":"DSoz. Schmitz, Susanne","plz":"13055","strasse":"Simon-Bolivar-Str. 3-7","telefon":"+49 30 22438441","fachrichtung":"Kinder- und Jugendpsychotherapeuten"},
{"id":"1289","name":"DPs. Scheidig, Mareike","plz":"10315","strasse":"Hohensch\u00f6nhauser Weg 7","telefon":"+49 30 54379806","fachrichtung":"Psychologische Psychotherapeuten"},
{"id":"1291","name":"DPs. Hahn, J\u00fcrgen","plz":"10315","strasse":"Rummelsburger Str. 13","telefon":"+49 30 51069796","fachrichtung":"Psychologische Psychotherapeuten"},
{"id":"1293","name":"DPs. Schildknecht, Doris","plz":"10315","strasse":"Zachertstr. 10","telefon":"+49 30 51657663","fachrichtung":"Psychologische Psychotherapeuten"},
{"id":"1295","name":"DPs. Heyder-Katiris, Claudia","plz":"10315","strasse":"Archibaldweg 4","telefon":"+49 30 6947426","fachrichtung":"Psychologische Psychotherapeuten"},
{"id":"1297","name":"DPs. Klopfer, Uta-Eleonore","plz":"10315","strasse":"N\u00f6ldnerstr. 10","telefon":"+49 30 51066544","fachrichtung":"Psychologische Psychotherapeuten"},
{"id":"1299","name":"DPs. Schmitt, Georg","plz":"10315","strasse":"Pfarrstr. 123","telefon":"+49 30 55153363","fachrichtung":"Psychologische Psychotherapeuten"},
{"id":"1301","name":"DPs. Wilhelm, Catrin","plz":"10315","strasse":"W\u00f6nnichstr. 64\/66","telefon":"+49 30 51657606","fachrichtung":"Psychologische Psychotherapeuten"},
{"id":"1303","name":"DPs. Niesing, Anja","plz":"10315","strasse":"Kernhofer Str. 15","telefon":"+49 30 60930880","fachrichtung":"Psychologische Psychotherapeuten"},
{"id":"1305","name":"DPs. Klaus-Asmus, Christina","plz":"10318","strasse":"D\u00f6nhoffstr. 5","telefon":"+49 30 5086164","fachrichtung":"Psychologische Psychotherapeuten"},
{"id":"1307","name":"Dr. K\u00fcchler-Preu\u00df, Erika","plz":"10318","strasse":"Ehrenfelsstr. 46","telefon":"+49 30 50176487","fachrichtung":"Psychologische Psychotherapeuten"},
{"id":"1309","name":"DPs. Kraak, Ines","plz":"10318","strasse":"Gregoroviusweg 37","telefon":"+49 30 42018164","fachrichtung":"Psychologische Psychotherapeuten"},
{"id":"1311","name":"DPs. Holznagel, Gisela","plz":"10318","strasse":"Marksburgstr. 96","telefon":"+49 30 5030719","fachrichtung":"Psychologische Psychotherapeuten"},
{"id":"1313","name":"DPs. Fink, Annette","plz":"10318","strasse":"Rheinsteinstr. 2","telefon":"+49 30 50179603","fachrichtung":"Psychologische Psychotherapeuten"},
{"id":"1315","name":"DPs. Tritschler, Claudia","plz":"10318","strasse":"Rheinsteinstr. 2","telefon":"+49 30 50179647","fachrichtung":"Psychologische Psychotherapeuten"},
{"id":"1317","name":"DPs. Gurris, Norbert F.","plz":"10318","strasse":"Robert-Siewert-Str. 133","telefon":"+49 30 5084900","fachrichtung":"Psychologische Psychotherapeuten"},
{"id":"1319","name":"Dr. Preu\u00df, Matthias","plz":"10318","strasse":"Treskowallee 125","telefon":"+49 30 50159707","fachrichtung":"Psychologische Psychotherapeuten"},
{"id":"1321","name":"Dr. K\u00fcnstler, Brigitte","plz":"10318","strasse":"Wandlitzstr. 23-25","telefon":"+49 30 5030273","fachrichtung":"Psychologische Psychotherapeuten"},
{"id":"1323","name":"DPs. Kaiser, Andrea Ulrike","plz":"10365","strasse":"Fanninger Str. 58","telefon":"+49 30 52679949","fachrichtung":"Psychologische Psychotherapeuten"},
{"id":"1325","name":"DPs Lange, Christine","plz":"10365","strasse":"Fanningerstr. 61","telefon":"+49 30 55491440","fachrichtung":"Psychologische Psychotherapeuten"},
{"id":"1327","name":"DPs. Wieker, Jens Friedrich","plz":"10365","strasse":"Frankfurter Allee 191","telefon":"+49 30 57799181","fachrichtung":"Psychologische Psychotherapeuten"},
{"id":"1329","name":"DPs. Leiner, Anna Elisabeth","plz":"10365","strasse":"Frankfurter Allee 246","telefon":"+49 30 99270977","fachrichtung":"Psychologische Psychotherapeuten"},
{"id":"1331","name":"DPs. Zillich, Susanne","plz":"10365","strasse":"Frankfurter Allee 246","telefon":"+49 30 55499292","fachrichtung":"Psychologische Psychotherapeuten"},
{"id":"1333","name":"DPs. Heinen, Gerd","plz":"10365","strasse":"Herzbergstr. 79","telefon":"+49 30 54723034","fachrichtung":"Psychologische Psychotherapeuten"},
{"id":"1335","name":"DPs. Oswald, Gregor","plz":"10365","strasse":"Herzbergstr. 82","telefon":"+49 30 55051238","fachrichtung":"Psychologische Psychotherapeuten"},
{"id":"1337","name":"DPs Wolf, Jacqueline","plz":"10365","strasse":"Herzbergstr. 82","telefon":"+49 30 55051238","fachrichtung":"Psychologische Psychotherapeuten"},
{"id":"1339","name":"Bergner, Annekathrin","plz":"10365","strasse":"Ruschestr. 103","telefon":"+49 30 5529238","fachrichtung":"Psychologische Psychotherapeuten"},
{"id":"1341","name":"DPs. Freyt, Karen","plz":"10365","strasse":"Ruschestr. 103","telefon":"+49 30 57799099","fachrichtung":"Psychologische Psychotherapeuten"},
{"id":"1343","name":"DPs. Schneider, Uwe","plz":"10365","strasse":"Ruschestr. 103","telefon":"+49 30 5529232","fachrichtung":"Psychologische Psychotherapeuten"},
{"id":"1345","name":"DPs. Spieler, Penelope","plz":"10365","strasse":"Ruschestr. 103","telefon":"+49 30 55005771","fachrichtung":"Psychologische Psychotherapeuten"},
{"id":"1347","name":"DPs. Schr\u00f6ter-Goerke, Angelika","plz":"10365","strasse":"Schulze-Boysen-Str. 30","telefon":"+49 30 2927535","fachrichtung":"Psychologische Psychotherapeuten"},
{"id":"1349","name":"DPs. Florian, Vera","plz":"10365","strasse":"Wotanstr. 32","telefon":"+49 30 55669192","fachrichtung":"Psychologische Psychotherapeuten"},
{"id":"1351","name":"DPs. Winkler, Stefanie","plz":"10365","strasse":"Wotanstr. 32","telefon":"+49 30 55669081","fachrichtung":"Psychologische Psychotherapeuten"},
{"id":"1353","name":"DPs. Nawothnig, Sylvia","plz":"10367","strasse":"M\u00f6llendorffstr. 3","telefon":"+49 30 44319390","fachrichtung":"Psychologische Psychotherapeuten"},
{"id":"1355","name":"DPs. Lorenz, Martin","plz":"10367","strasse":"M\u00f6llendorffstr. 10","telefon":"+49 30 2476193","fachrichtung":"Psychologische Psychotherapeuten"},
{"id":"1357","name":"DPs. Genau, Renate","plz":"10367","strasse":"M\u00f6llendorffstr. 113","telefon":"+49 30 57795554","fachrichtung":"Psychologische Psychotherapeuten"},
{"id":"1359","name":"DPs. Damert, Bettina","plz":"10369","strasse":"Franz-Jacob-Str. 10","telefon":"+49 30 97606516","fachrichtung":"Psychologische Psychotherapeuten"},
{"id":"1361","name":"DPs. Glende, Anne-Maria","plz":"10369","strasse":"Franz-Jacob-Str. 10","telefon":"+49 30 97606515","fachrichtung":"Psychologische Psychotherapeuten"},
{"id":"1363","name":"DPs. Paelecke, Andrea","plz":"10369","strasse":"Paul-Junius-Str. 70","telefon":"+49 30 9714865","fachrichtung":"Psychologische Psychotherapeuten"},
{"id":"1365","name":"DPs. H\u00f6rig, Nelja","plz":"13051","strasse":"Helminestr. 6","telefon":"+49 30 96203742","fachrichtung":"Psychologische Psychotherapeuten"},
{"id":"1367","name":"DPs. Ziegler, Silvio","plz":"13053","strasse":"Augustastr. 10","telefon":"+49 30 98317700","fachrichtung":"Psychologische Psychotherapeuten"},
{"id":"1369","name":"DPs. Boldt, Andrea","plz":"13053","strasse":"Christianstr. 27","telefon":"+49 30 9824388","fachrichtung":"Psychologische Psychotherapeuten"},
{"id":"1371","name":"DPs. Straube, Petra","plz":"13053","strasse":"Rackwitzer Str. 30A","telefon":"+49 30 96200444","fachrichtung":"Psychologische Psychotherapeuten"},
{"id":"1373","name":"DPs. Barthel, Martina","plz":"13053","strasse":"Oberseestr. 97","telefon":"+49 30 97897535","fachrichtung":"Psychologische Psychotherapeuten"},
{"id":"1375","name":"DPs. Schl\u00f6ricke, Ute","plz":"13053","strasse":"Oberseestr. 97","telefon":"+49 30 97897561","fachrichtung":"Psychologische Psychotherapeuten"},
{"id":"1377","name":"Dr. Irmscher, Jutta","plz":"13053","strasse":"Orankestr. 19","telefon":"+49 30 97896666","fachrichtung":"Psychologische Psychotherapeuten"},
{"id":"1379","name":"DPs. K\u00e4mmer, Sabine","plz":"13053","strasse":"Orankestr. 31 ","telefon":"+49 30 9705018","fachrichtung":"Psychologische Psychotherapeuten"},
{"id":"1381","name":"DPs. L\u00f6ll, Annette","plz":"13053","strasse":"Orankestr. 84","telefon":"+49 30 98697741","fachrichtung":"Psychologische Psychotherapeuten"},
{"id":"1383","name":"Dr. Rosenfeldt, Birgit","plz":"13053","strasse":"Rotkamp 2","telefon":"+49 30 92406660","fachrichtung":"Psychologische Psychotherapeuten"},
{"id":"1385","name":"Dr. Seidel, Ingrid","plz":"13055","strasse":"Reichenberger Str. 3","telefon":"+49 30 97994465","fachrichtung":"Psychologische Psychotherapeuten"},
{"id":"1387","name":"DPs. Engelke, Dietmar","plz":"13055","strasse":"Sandinostr. 15","telefon":"+49 30 98318484","fachrichtung":"Psychologische Psychotherapeuten"},
{"id":"1389","name":"DPs. Erdmann, Nadja","plz":"13055","strasse":"Wriezener Str. 18","telefon":"+49 30 97996933","fachrichtung":"Psychologische Psychotherapeuten"},
{"id":"1391","name":"DPs. Momper, Martin","plz":"13055","strasse":"Wriezener Str. 18","telefon":"+49 30 97995335","fachrichtung":"Psychologische Psychotherapeuten"},
{"id":"1393","name":"DPs. Leonhardt, Gisela","plz":"13057","strasse":"Falkenberger Chaussee 134-136","telefon":"+49 30 9293184","fachrichtung":"Psychologische Psychotherapeuten"},
{"id":"1395","name":"DPs. Rothenh\u00e4usler, Angela","plz":"13059","strasse":"Warnem\u00fcnder Str. 46","telefon":"+49 30 96066873","fachrichtung":"Psychologische Psychotherapeuten"},
{"id":"1397","name":"Werner, Marion","plz":"10317","strasse":"L\u00fcckstr. 22a","telefon":"+49 30 2918433","fachrichtung":"Hebammen"},
{"id":"1399","name":"Hebammenpraxis Mamatoto","plz":"10318","strasse":"Rheinsteinstr. 2","telefon":"+49 30 50179180","fachrichtung":"Hebammen"},
{"id":"1401","name":"Hebammenpraxis Lichtblick","plz":"10318","strasse":"Stolzenfelsstr. 17","telefon":"+49 30 2913444","fachrichtung":"Hebammen"},
{"id":"1403","name":"Schwital, Barbara","plz":"10318","strasse":"Wildensteiner Str. 14","telefon":"+49 1604910492","fachrichtung":"Hebammen"},
{"id":"1405","name":"Germer, Anna","plz":"10318","strasse":"Wildensteiner Str. 29","telefon":"+49 30 89654004","fachrichtung":"Hebammen"},
{"id":"1407","name":"Lu\u00dfky, Anne","plz":"10318","strasse":"Hentigstr. 18a","telefon":"+49 1728449191","fachrichtung":"Hebammen"},
{"id":"1409","name":"Mboundza, Katrin","plz":"10247","strasse":"Frankfurter Allee 91","telefon":"+49 30 4292250","fachrichtung":"Hebammen"},
{"id":"1411","name":"Otto, Nadine","plz":"10249","strasse":"Ebertystr. 35","telefon":"+49 1712402688","fachrichtung":"Hebammen"},
{"id":"1413","name":"Palmetshofer, Theresa","plz":"10369","strasse":"Karl-Lade-Str. 34a","telefon":"+49 17623499096","fachrichtung":"Hebammen"},
{"id":"1415","name":"Blank, Janine","plz":"12555","strasse":"Gehsener Str. 70","telefon":"+49 1747756267","fachrichtung":"Hebammen"},
{"id":"1417","name":"Kublick, Marion","plz":"12587","strasse":"A\u00dfmannstr. 64","telefon":"+49 1723954848","fachrichtung":"Hebammen"},
{"id":"1419","name":"Letzig, Christine","plz":"12683","strasse":"Diestelfalterstr. 54","telefon":"+49 30 55492229","fachrichtung":"Hebammen"},
{"id":"1421","name":"Meinhof-Berger, Christine","plz":"13053","strasse":"Degnerstr. 130","telefon":"+49 30 98114131","fachrichtung":"Hebammen"},
{"id":"1423","name":"Modest-Weierm\u00fcller, Jutta","plz":"13055","strasse":"Plauener Str. 32","telefon":"+49 30 9823468","fachrichtung":"Hebammen"},
{"id":"1425","name":"Tischler, Katja","plz":"13086","strasse":"Thiesstr. 34","telefon":"+49 30 44703430","fachrichtung":"Hebammen"},
{"id":"1427","name":"Therapiezentrum im Kiez","plz":"10315","strasse":"Rosenfelder Ring 15","telefon":"+49 30 53019517","fachrichtung":"Ergotherapeuten"},
{"id":"1429","name":"Gwizdon, Iwona","plz":"10315","strasse":"Rummelsburger Str. 13","telefon":"+49 30 53084215","fachrichtung":"Ergotherapeuten"},
{"id":"1431","name":"H\u00f6henleitner, Claudia","plz":"10318","strasse":"D\u00f6nhoffstr. 32","telefon":"+49 30 50380478","fachrichtung":"Ergotherapeuten"},
{"id":"1433","name":"Kanter, Lars","plz":"10319","strasse":"Balatonstr. 20","telefon":"+49 30 54718940","fachrichtung":"Ergotherapeuten"},
{"id":"1435","name":"Krielke, Susann","plz":"10365","strasse":"Ruschestr. 103","telefon":"+49 30 55669728","fachrichtung":"Ergotherapeuten"},
{"id":"1437","name":"Schlecht, Christiane","plz":"10365","strasse":"Siegfriedstr. 204A","telefon":"+49 30 55491974","fachrichtung":"Ergotherapeuten"},
{"id":"1439","name":"Bohmann, Andreas","plz":"10369","strasse":"Storkower Str. 207A","telefon":"+49 30 53064690","fachrichtung":"Ergotherapeuten"},
{"id":"1441","name":"Nelki, Saskia","plz":"13051","strasse":"Zingster Str. 5","telefon":"+49 30 54735556","fachrichtung":"Ergotherapeuten"},
{"id":"1443","name":"Hildebrand, Sabine","plz":"13055","strasse":"Reichenberger Str. 3","telefon":"+49 30 97602710","fachrichtung":"Ergotherapeuten"},
{"id":"1445","name":"Rosin, Daniela","plz":"13057","strasse":"Warnitzer Str. 10","telefon":"+49 30 96061609","fachrichtung":"Ergotherapeuten"},
{"id":"1447","name":"Therapiezentrum im Kiez","plz":"10315","strasse":"Rosenfelder Ring 15","telefon":"+49 30 53019516","fachrichtung":"Logop\u00e4den"},
{"id":"1449","name":"Dipl.-P\u00e4d. Eska, Andr\u00e9","plz":"10315","strasse":"Rummelsburger Str. 13","telefon":"+49 30 5115907","fachrichtung":"Logop\u00e4den"},
{"id":"1451","name":"Kiessling, Silke","plz":"10315","strasse":"Rummelsburger Str. 13","telefon":"+49 30 5115907","fachrichtung":"Logop\u00e4den"},
{"id":"1453","name":"Lorenz, Kirsten","plz":"10315","strasse":"Seddiner Str. 7","telefon":"+49 30 51737949","fachrichtung":"Logop\u00e4den"},
{"id":"1455","name":"Benyskiewicz, Heike","plz":"10318","strasse":"Ehrenfelsstr. 46","telefon":"+49 30 50381114","fachrichtung":"Logop\u00e4den"},
{"id":"1457","name":"Hansen, Antje","plz":"10318","strasse":"Ehrenfelsstr. 46","telefon":"+49 30 50381114","fachrichtung":"Logop\u00e4den"},
{"id":"1459","name":"M\u00fcller, Iris","plz":"10318","strasse":"Ehrenfelsstr. 46 ","telefon":"+49 30 50381114","fachrichtung":"Logop\u00e4den"},
{"id":"1461","name":"Crome, Petra","plz":"10365","strasse":"Mauritiuskirchstr. 3","telefon":"+49 30 5541642","fachrichtung":"Logop\u00e4den"},
{"id":"1463","name":"Grambow, Karin","plz":"10365","strasse":"Mauritiuskirchstr. 3","telefon":"+49 30 5541642","fachrichtung":"Logop\u00e4den"},
{"id":"1465","name":"Mundt, Heinrich","plz":"10365","strasse":"Ruschestr. 103","telefon":"+49 30 57795988","fachrichtung":"Logop\u00e4den"},
{"id":"1467","name":"Thomack, Kerstin","plz":"10365","strasse":"Ruschestr. 103","telefon":"+49 30 5529218","fachrichtung":"Logop\u00e4den"},
{"id":"1469","name":"K\u00f6rner, Kristin","plz":"13051","strasse":"Zingster Str. 3","telefon":"+49 30 9244892","fachrichtung":"Logop\u00e4den"},
{"id":"1471","name":"Blum, Dorit","plz":"13053","strasse":"Augustastr. 10","telefon":"+49 30 98317711","fachrichtung":"Logop\u00e4den"},
{"id":"1473","name":"Barth-Koslik, Eva-Maria","plz":"13055","strasse":"Reichenberger Str. 3","telefon":"+49 30 97600813","fachrichtung":"Logop\u00e4den"},
{"id":"1475","name":"B\u00fcchner, Cornelia","plz":"13055","strasse":"Reichenberger Str. 3","telefon":"+49 30 97600813","fachrichtung":"Logop\u00e4den"},
{"id":"1477","name":"Kratz, Margit","plz":"13055","strasse":"Reichenberger Str. 3 ","telefon":"+49 30 97600813","fachrichtung":"Logop\u00e4den"},
{"id":"1479","name":"Paprzycki, Antje","plz":"13055","strasse":"Reichenberger Str. 3 ","telefon":"+49 30 97600813","fachrichtung":"Logop\u00e4den"},
{"id":"1481","name":"Will, Carola","plz":"13055","strasse":"Reichenberger Str. 3","telefon":"+49 30 97600813","fachrichtung":"Logop\u00e4den"},
{"id":"1483","name":"Bettermann, Martina","plz":"13059","strasse":"Falkenberger Chaussee 134","telefon":"+49 30 92092444","fachrichtung":"Logop\u00e4den"},
{"id":"1485","name":"Steinauer, Sabine","plz":"13059","strasse":"Falkenberger Chaussee 134","telefon":"+49 30 92092444","fachrichtung":"Logop\u00e4den"},
{"id":"1487","name":"Rode, Claudia","plz":"13059","strasse":"Falkenberger Chaussee 134","telefon":"+49 30 92403184","fachrichtung":"Logop\u00e4den"},
{"id":"1489","name":"Spanowski, Silvia","plz":"10315","strasse":"Archenholdstr. 92","telefon":"+49 30 32890674","fachrichtung":"Heilpraktiker"},
{"id":"1491","name":"Spanowski, S\u00f6ren","plz":"10315","strasse":"Archenholdstr. 92","telefon":"+49 30 32890674","fachrichtung":"Heilpraktiker"},
{"id":"1493","name":"Sommerfeld, Ricarda","plz":"10315","strasse":"Rosenfelder Ring 15","telefon":"+49 30 51488556","fachrichtung":"Heilpraktiker"},
{"id":"1495","name":"Wiemert, Cornelia","plz":"10315","strasse":"Rosenfelder Ring 147","telefon":"+49 30 51488577","fachrichtung":"Heilpraktiker"},
{"id":"1497","name":"Henkler, J\u00f6rg","plz":"10315","strasse":"Rummelsburger Str. 55c","telefon":"+49 30 5107927","fachrichtung":"Heilpraktiker"},
{"id":"1499","name":"Heinold, Marret","plz":"10317","strasse":"Pfarrstr. 121","telefon":"+49 30 55493983","fachrichtung":"Heilpraktiker"},
{"id":"1501","name":"Sch\u00fcler, Silke","plz":"10318","strasse":"Gundelfinger Str. 16","telefon":"+49 30 50176941","fachrichtung":"Heilpraktiker"},
{"id":"1503","name":"Irrgang, Silke","plz":"10318","strasse":"Heiligenberger Str. 12","telefon":"+49 30 5099817","fachrichtung":"Heilpraktiker"},
{"id":"1505","name":"Schr\u00f6der, Jana","plz":"10318","strasse":"Waldowallee 55","telefon":"+49 30 5030463","fachrichtung":"Heilpraktiker"},
{"id":"1507","name":"Kroll, Annette","plz":"10318","strasse":"Wandlitzstr. 17","telefon":"+49 30 50175657","fachrichtung":"Heilpraktiker"},
{"id":"1509","name":"Schwarzbach, Tatjana","plz":"10318","strasse":"Weseler Str. 13","telefon":"+49 30 5081925","fachrichtung":"Heilpraktiker"},
{"id":"1511","name":"M\u00e4rz, Hendrik","plz":"10319","strasse":"Sewanstr. 178","telefon":"+49 30 50179470","fachrichtung":"Heilpraktiker"},
{"id":"1513","name":"Zacharias, Silke","plz":"10365","strasse":"Atzpodienstr. 42","telefon":"+49 30 4279597","fachrichtung":"Heilpraktiker"},
{"id":"1515","name":"Gaminski, Susanne","plz":"10365","strasse":"Frankfurter Allee 231A","telefon":"+49 30 57798871","fachrichtung":"Heilpraktiker"},
{"id":"1517","name":"Jost, Peter","plz":"10365","strasse":"Frankfurter Allee 231A","telefon":"+49 30 57798871","fachrichtung":"Heilpraktiker"},
{"id":"1519","name":"Schwalbe, Gabriele","plz":"10365","strasse":"Frankfurter Allee 231A","telefon":"+49 30 57798871","fachrichtung":"Heilpraktiker"},
{"id":"1521","name":"Wagner, Evelyn","plz":"10365","strasse":"Franz-Jacob-Str. 10","telefon":"+49 30 33021980","fachrichtung":"Heilpraktiker"},
{"id":"1523","name":"Gr\u00fcschow, Sylvia","plz":"13051","strasse":"Prerower Platz 12","telefon":"+49 30 62204527","fachrichtung":"Heilpraktiker"},
{"id":"1525","name":"Hapka, Elke","plz":"13053","strasse":"Gehrenseestr. 38","telefon":"+49 30 9822536","fachrichtung":"Heilpraktiker"},
{"id":"1527","name":"G\u00fcnther-Schellheimer, Hans","plz":"13053","strasse":"Orankestr. 19","telefon":"+49 30 9245007","fachrichtung":"Heilpraktiker"},
{"id":"1529","name":"Schan, Lutz","plz":"13055","strasse":"Gro\u00dfe-Leege-Str. 12f","telefon":"+49 30 98695680","fachrichtung":"Heilpraktiker"},
{"id":"1531","name":"Hundt, Heidrun","plz":"13055","strasse":"Lichtenauer Str. 50","telefon":"+49 30 9818686","fachrichtung":"Heilpraktiker"},
{"id":"1533","name":"Runge, Wolfgang","plz":"13055","strasse":"Reichenberger Str. 3","telefon":"+49 30 2923194","fachrichtung":"Heilpraktiker"},
{"id":"1535","name":"Dreblow, Simone","plz":"13055","strasse":"Simon-Bolivar-Str. 3-7","telefon":"+49 30 91701468","fachrichtung":"Heilpraktiker"},
{"id":"1537","name":"M\u00fcrmann, Petra","plz":"13055","strasse":"Simon-Bolivar-Str. 3-7","telefon":"+49 30 66763061","fachrichtung":"Heilpraktiker"},
{"id":"1539","name":"Ebertus, Maren","plz":"13057","strasse":"Falkenberger Chaussee 134","telefon":"+49 30 92407219","fachrichtung":"Heilpraktiker"},
{"id":"1541","name":"Dr. Keil, Heike","plz":"13059","strasse":"Dorfstr. 9","telefon":"+49 30 96200726","fachrichtung":"Heilpraktiker"},
{"id":"1543","name":"Schmidt, Angela","plz":"13059","strasse":"Grevesm\u00fchlener Str. 30","telefon":"+49 30 42851510","fachrichtung":"Heilpraktiker"},
{"id":"1545","name":"Opitz, J\u00fcrgen","plz":"13059","strasse":"Stra\u00dfe 6 Nr. 36","telefon":"+49 30 92092161","fachrichtung":"Heilpraktiker"}],"item":[]}